{
	"type": "FeatureCollection",
	"features": [
		{
			"type": "Feature",
			"geometry": {
				"type": "MultiLineString",
				"coordinates": [
					[
						[
							18.332073609096547,
							63.30285470952252,
							99.1
						],
						[
							18.332096435257206,
							63.30287180564959,
							98.9
						],
						[
							18.332121035190188,
							63.30289206147383,
							98.6
						],
						[
							18.332145132529597,
							63.302912467388396,
							98.7
						],
						[
							18.332172539334742,
							63.302933230730595,
							99.5
						],
						[
							18.33219447631058,
							63.30296519029208,
							99.7
						],
						[
							18.33222130673675,
							63.30300125384461,
							100.1
						],
						[
							18.332283244411393,
							63.30302040575345,
							100.2
						],
						[
							18.332310481150714,
							63.30303388708711,
							100.2
						],
						[
							18.332320843028658,
							63.303070106937,
							100.3
						],
						[
							18.332324625520613,
							63.30309861119468,
							101.5
						],
						[
							18.33233272995926,
							63.30313125464015,
							101.6
						],
						[
							18.332358758030676,
							63.3031598381787,
							101.5
						],
						[
							18.3324738841749,
							63.30322681141209,
							100.2
						],
						[
							18.33251,
							63.30318,
							98.0
						],
						[
							18.33256,
							63.30321,
							98.0
						],
						[
							18.33257,
							63.30321,
							98.0
						],
						[
							18.33297,
							63.30341,
							99.0
						],
						[
							18.33296,
							63.30341,
							99.0
						],
						[
							18.3333,
							63.30359,
							99.0
						],
						[
							18.33368,
							63.30373,
							99.0
						],
						[
							18.33423,
							63.30394,
							99.0
						],
						[
							18.33427,
							63.30395,
							99.0
						],
						[
							18.33485,
							63.30409,
							99.0
						],
						[
							18.33518,
							63.30417,
							100.0
						],
						[
							18.3352,
							63.30417,
							100.0
						],
						[
							18.33508,
							63.3043,
							100.0
						],
						[
							18.33495,
							63.30445,
							100.0
						],
						[
							18.33479,
							63.30452,
							100.0
						],
						[
							18.33455,
							63.30463,
							100.0
						],
						[
							18.33412,
							63.30482,
							100.0
						],
						[
							18.33404,
							63.30486,
							100.0
						],
						[
							18.33354,
							63.30502,
							101.0
						],
						[
							18.33318,
							63.30514,
							101.0
						],
						[
							18.3327,
							63.3053,
							102.0
						],
						[
							18.33245,
							63.30538,
							103.0
						],
						[
							18.33235,
							63.30549,
							104.0
						],
						[
							18.33234,
							63.30549,
							104.0
						],
						[
							18.33203,
							63.3058,
							105.0
						],
						[
							18.33193,
							63.30594,
							106.0
						],
						[
							18.33172,
							63.30622,
							108.0
						],
						[
							18.33167,
							63.30628,
							108.0
						],
						[
							18.3314,
							63.30654,
							109.0
						],
						[
							18.3313,
							63.30661,
							110.0
						],
						[
							18.33097,
							63.30684,
							111.0
						],
						[
							18.33125,
							63.30714,
							112.0
						],
						[
							18.3314,
							63.30734,
							113.0
						],
						[
							18.33141,
							63.30734,
							113.0
						],
						[
							18.3318,
							63.30782,
							115.0
						],
						[
							18.33213,
							63.30823,
							116.0
						],
						[
							18.332,
							63.30889,
							119.0
						],
						[
							18.33195,
							63.30931,
							122.0
						],
						[
							18.33212,
							63.30975,
							127.0
						],
						[
							18.33269,
							63.31009,
							132.0
						],
						[
							18.33322,
							63.31056,
							136.0
						],
						[
							18.3333,
							63.31088,
							137.0
						],
						[
							18.33305,
							63.31113,
							137.0
						],
						[
							18.33321,
							63.3115,
							137.0
						],
						[
							18.33383,
							63.31206,
							140.0
						],
						[
							18.33436,
							63.3126,
							144.0
						],
						[
							18.33489,
							63.31299,
							150.0
						],
						[
							18.3354,
							63.31326,
							155.0
						],
						[
							18.33569,
							63.31344,
							158.0
						],
						[
							18.33576,
							63.31388,
							167.0
						],
						[
							18.3359,
							63.31434,
							174.0
						],
						[
							18.33609,
							63.31471,
							177.0
						],
						[
							18.33629,
							63.31491,
							179.0
						],
						[
							18.33699,
							63.31505,
							177.0
						],
						[
							18.33732,
							63.31509,
							176.0
						],
						[
							18.33765,
							63.31501,
							175.0
						],
						[
							18.33802,
							63.31488,
							173.0
						],
						[
							18.33839,
							63.3148,
							172.0
						],
						[
							18.33888,
							63.31477,
							171.0
						],
						[
							18.33931,
							63.31486,
							170.0
						],
						[
							18.33988,
							63.31502,
							168.0
						],
						[
							18.34114,
							63.31514,
							165.0
						],
						[
							18.34219,
							63.31525,
							162.0
						],
						[
							18.34296,
							63.3153,
							160.0
						],
						[
							18.34359,
							63.3153,
							159.0
						],
						[
							18.34438,
							63.31529,
							160.0
						],
						[
							18.345,
							63.31529,
							160.0
						],
						[
							18.34582,
							63.31539,
							158.0
						],
						[
							18.34659,
							63.31542,
							157.0
						],
						[
							18.3473,
							63.31554,
							153.0
						],
						[
							18.34828,
							63.31569,
							148.0
						],
						[
							18.34954,
							63.31593,
							142.0
						],
						[
							18.35002,
							63.31617,
							139.0
						],
						[
							18.3505,
							63.31658,
							135.0
						],
						[
							18.35067,
							63.31701,
							128.0
						],
						[
							18.35054,
							63.31727,
							125.0
						],
						[
							18.35064,
							63.31731,
							124.0
						],
						[
							18.34997,
							63.3176,
							119.0
						],
						[
							18.34977,
							63.31769,
							116.0
						],
						[
							18.34905,
							63.31792,
							109.0
						],
						[
							18.34893,
							63.31795,
							109.0
						],
						[
							18.34804,
							63.31817,
							104.0
						],
						[
							18.34797,
							63.31819,
							103.0
						],
						[
							18.34763,
							63.31833,
							100.0
						],
						[
							18.34747,
							63.31847,
							100.0
						],
						[
							18.34729,
							63.31863,
							100.0
						],
						[
							18.34698,
							63.31886,
							100.0
						],
						[
							18.34684,
							63.31898,
							99.0
						],
						[
							18.34658,
							63.31909,
							99.0
						],
						[
							18.34624,
							63.31921,
							99.0
						],
						[
							18.34591,
							63.31932,
							100.0
						],
						[
							18.34568,
							63.31941,
							102.0
						],
						[
							18.34568,
							63.31947,
							102.0
						],
						[
							18.34569,
							63.31959,
							101.0
						],
						[
							18.346,
							63.31982,
							100.0
						],
						[
							18.34637,
							63.32,
							99.0
						],
						[
							18.34645,
							63.32018,
							103.0
						],
						[
							18.34639,
							63.3204,
							108.0
						],
						[
							18.34608,
							63.32048,
							110.0
						],
						[
							18.34524,
							63.32068,
							113.0
						],
						[
							18.34483,
							63.32078,
							115.0
						],
						[
							18.34329,
							63.32112,
							119.0
						],
						[
							18.34272,
							63.32124,
							119.0
						],
						[
							18.34182,
							63.32152,
							120.0
						],
						[
							18.34109,
							63.32184,
							123.0
						],
						[
							18.34093,
							63.32191,
							124.0
						],
						[
							18.33949,
							63.32219,
							121.0
						],
						[
							18.33875,
							63.32242,
							120.0
						],
						[
							18.33811,
							63.32262,
							120.0
						],
						[
							18.33744,
							63.32293,
							120.0
						],
						[
							18.33743,
							63.32293,
							120.0
						],
						[
							18.33684,
							63.32319,
							120.0
						],
						[
							18.33592,
							63.32349,
							118.0
						],
						[
							18.33455,
							63.32393,
							113.0
						],
						[
							18.33284,
							63.32447,
							108.0
						],
						[
							18.33151,
							63.32489,
							104.0
						],
						[
							18.3308,
							63.32512,
							102.0
						],
						[
							18.32966,
							63.3255,
							100.0
						],
						[
							18.32945,
							63.32557,
							100.0
						],
						[
							18.32848,
							63.32593,
							99.0
						],
						[
							18.32802,
							63.32624,
							99.0
						],
						[
							18.32798,
							63.32628,
							99.0
						],
						[
							18.3273,
							63.32692,
							99.0
						],
						[
							18.32703,
							63.32719,
							99.0
						],
						[
							18.32661,
							63.32744,
							100.0
						],
						[
							18.32644,
							63.32753,
							100.0
						],
						[
							18.32615,
							63.32768,
							100.0
						],
						[
							18.32622,
							63.32813,
							101.0
						],
						[
							18.32624,
							63.32835,
							102.0
						],
						[
							18.32641,
							63.32864,
							110.0
						],
						[
							18.32667,
							63.32882,
							115.0
						],
						[
							18.32708,
							63.32897,
							120.0
						],
						[
							18.3273,
							63.32903,
							122.0
						],
						[
							18.32841,
							63.32935,
							127.0
						],
						[
							18.32867,
							63.32944,
							128.0
						],
						[
							18.32906,
							63.32954,
							129.0
						],
						[
							18.32885,
							63.32954,
							129.0
						],
						[
							18.32774,
							63.32956,
							130.0
						],
						[
							18.32736,
							63.32953,
							130.0
						],
						[
							18.32615,
							63.32946,
							129.0
						],
						[
							18.32579,
							63.32946,
							129.0
						],
						[
							18.32416,
							63.32945,
							126.0
						],
						[
							18.3234,
							63.32943,
							124.0
						],
						[
							18.32256,
							63.3294,
							123.0
						],
						[
							18.32229,
							63.32936,
							123.0
						],
						[
							18.32145,
							63.32922,
							122.0
						],
						[
							18.32037,
							63.32892,
							121.0
						],
						[
							18.31957,
							63.3287,
							120.0
						],
						[
							18.31872,
							63.32846,
							118.0
						],
						[
							18.31747,
							63.32828,
							117.0
						],
						[
							18.31725,
							63.32824,
							117.0
						],
						[
							18.31614,
							63.32815,
							117.0
						],
						[
							18.31558,
							63.32811,
							117.0
						],
						[
							18.31498,
							63.32812,
							117.0
						],
						[
							18.31355,
							63.32816,
							119.0
						],
						[
							18.31245,
							63.32819,
							120.0
						],
						[
							18.31132,
							63.32824,
							121.0
						],
						[
							18.31095,
							63.32825,
							123.0
						],
						[
							18.31032,
							63.32826,
							124.0
						],
						[
							18.30806,
							63.3283,
							123.0
						],
						[
							18.30618,
							63.32833,
							119.0
						],
						[
							18.3055,
							63.32834,
							118.0
						],
						[
							18.30445,
							63.32838,
							117.0
						],
						[
							18.3034,
							63.32842,
							116.0
						],
						[
							18.30273,
							63.32844,
							116.0
						],
						[
							18.30136,
							63.32844,
							116.0
						],
						[
							18.30064,
							63.32837,
							116.0
						],
						[
							18.29906,
							63.32823,
							115.0
						],
						[
							18.2975,
							63.32809,
							115.0
						],
						[
							18.29553,
							63.32791,
							117.0
						],
						[
							18.29306,
							63.32769,
							119.0
						],
						[
							18.29068,
							63.32748,
							119.0
						],
						[
							18.29053,
							63.32747,
							119.0
						],
						[
							18.28731,
							63.32694,
							120.0
						],
						[
							18.28567,
							63.32666,
							121.0
						],
						[
							18.28462,
							63.3265,
							121.0
						],
						[
							18.28321,
							63.32621,
							121.0
						],
						[
							18.28102,
							63.32577,
							120.0
						],
						[
							18.28056,
							63.32567,
							120.0
						],
						[
							18.27928,
							63.32544,
							120.0
						],
						[
							18.2781,
							63.32511,
							120.0
						],
						[
							18.27696,
							63.32467,
							119.0
						],
						[
							18.27676,
							63.32461,
							119.0
						],
						[
							18.27595,
							63.32438,
							119.0
						],
						[
							18.27451,
							63.32419,
							118.0
						],
						[
							18.27131,
							63.32393,
							114.0
						],
						[
							18.26955,
							63.3238,
							111.0
						],
						[
							18.26796,
							63.32366,
							104.0
						],
						[
							18.2644,
							63.32334,
							99.0
						],
						[
							18.26188,
							63.32311,
							98.0
						],
						[
							18.25965,
							63.32293,
							97.0
						],
						[
							18.25965,
							63.32285,
							97.0
						],
						[
							18.25967,
							63.32218,
							96.0
						],
						[
							18.25968,
							63.32218,
							96.0
						],
						[
							18.25966,
							63.32201,
							96.0
						],
						[
							18.25969,
							63.32158,
							96.0
						],
						[
							18.25967,
							63.32138,
							96.0
						],
						[
							18.25956,
							63.32071,
							96.0
						],
						[
							18.25939,
							63.32007,
							97.0
						],
						[
							18.25925,
							63.31957,
							97.0
						],
						[
							18.25922,
							63.3194,
							97.0
						],
						[
							18.25922,
							63.31938,
							97.0
						],
						[
							18.25965,
							63.31934,
							97.0
						],
						[
							18.2598,
							63.3193,
							97.0
						],
						[
							18.26059,
							63.31903,
							97.0
						],
						[
							18.26072,
							63.31897,
							98.0
						],
						[
							18.26157,
							63.31854,
							99.0
						],
						[
							18.26178,
							63.31843,
							99.0
						],
						[
							18.26257,
							63.31797,
							105.0
						],
						[
							18.26287,
							63.31779,
							108.0
						],
						[
							18.26339,
							63.31755,
							114.0
						],
						[
							18.26352,
							63.31749,
							116.0
						],
						[
							18.26433,
							63.31733,
							120.0
						],
						[
							18.26489,
							63.31729,
							119.0
						],
						[
							18.2659,
							63.3172,
							119.0
						],
						[
							18.26624,
							63.31712,
							119.0
						],
						[
							18.26629,
							63.3171,
							119.0
						],
						[
							18.26628,
							63.3171,
							119.0
						],
						[
							18.26647,
							63.31701,
							119.0
						],
						[
							18.26673,
							63.31686,
							119.0
						],
						[
							18.26727,
							63.31653,
							118.0
						],
						[
							18.26733,
							63.31649,
							118.0
						],
						[
							18.26812,
							63.31618,
							118.0
						],
						[
							18.26811,
							63.31618,
							118.0
						],
						[
							18.26838,
							63.31605,
							118.0
						],
						[
							18.26853,
							63.31605,
							118.0
						],
						[
							18.26884,
							63.31609,
							120.0
						],
						[
							18.26907,
							63.31617,
							121.0
						],
						[
							18.26928,
							63.31611,
							121.0
						],
						[
							18.26981,
							63.31593,
							122.0
						],
						[
							18.26998,
							63.31593,
							122.0
						],
						[
							18.27013,
							63.31593,
							123.0
						],
						[
							18.27033,
							63.31593,
							124.0
						],
						[
							18.27044,
							63.31591,
							124.0
						],
						[
							18.27065,
							63.31586,
							124.0
						],
						[
							18.27182,
							63.31559,
							126.0
						],
						[
							18.27259,
							63.3155,
							128.0
						],
						[
							18.27293,
							63.3155,
							131.0
						],
						[
							18.27419,
							63.31553,
							135.0
						],
						[
							18.27494,
							63.3155,
							133.0
						],
						[
							18.27588,
							63.3154,
							131.0
						],
						[
							18.2774,
							63.31523,
							127.0
						],
						[
							18.27781,
							63.31522,
							126.0
						],
						[
							18.27812,
							63.31521,
							126.0
						],
						[
							18.27916,
							63.31522,
							126.0
						],
						[
							18.27974,
							63.31522,
							125.0
						],
						[
							18.28095,
							63.31518,
							122.0
						],
						[
							18.28155,
							63.31516,
							120.0
						],
						[
							18.28203,
							63.31515,
							118.0
						],
						[
							18.28244,
							63.31518,
							118.0
						],
						[
							18.2832,
							63.31525,
							115.0
						],
						[
							18.28398,
							63.31535,
							115.0
						],
						[
							18.28446,
							63.31543,
							115.0
						],
						[
							18.28531,
							63.31557,
							116.0
						],
						[
							18.28654,
							63.31573,
							117.0
						],
						[
							18.28685,
							63.31576,
							117.0
						],
						[
							18.28823,
							63.31582,
							116.0
						],
						[
							18.28823,
							63.31581,
							116.0
						],
						[
							18.2884,
							63.31582,
							116.0
						],
						[
							18.28943,
							63.31578,
							114.0
						],
						[
							18.29042,
							63.3157,
							113.0
						],
						[
							18.29143,
							63.31568,
							114.0
						],
						[
							18.29254,
							63.31566,
							115.0
						],
						[
							18.29316,
							63.3156,
							116.0
						],
						[
							18.29361,
							63.31556,
							117.0
						],
						[
							18.29461,
							63.31533,
							120.0
						],
						[
							18.29579,
							63.31501,
							121.0
						],
						[
							18.29646,
							63.31483,
							122.0
						],
						[
							18.29743,
							63.3145,
							124.0
						],
						[
							18.29853,
							63.31413,
							125.0
						],
						[
							18.29947,
							63.31381,
							124.0
						],
						[
							18.30031,
							63.31356,
							127.0
						],
						[
							18.30216,
							63.31301,
							130.0
						],
						[
							18.30228,
							63.31299,
							130.0
						],
						[
							18.30421,
							63.31264,
							130.0
						],
						[
							18.30548,
							63.3124,
							130.0
						],
						[
							18.30687,
							63.31213,
							126.0
						],
						[
							18.30879,
							63.31175,
							120.0
						],
						[
							18.31057,
							63.3114,
							117.0
						],
						[
							18.31191,
							63.31115,
							113.0
						],
						[
							18.31273,
							63.31099,
							110.0
						],
						[
							18.31441,
							63.31063,
							107.0
						],
						[
							18.31569,
							63.31032,
							107.0
						],
						[
							18.31589,
							63.31025,
							107.0
						],
						[
							18.3168,
							63.30993,
							105.0
						],
						[
							18.31808,
							63.3096,
							105.0
						],
						[
							18.3188,
							63.30953,
							107.0
						],
						[
							18.31923,
							63.30948,
							108.0
						],
						[
							18.32006,
							63.30933,
							112.0
						],
						[
							18.32067,
							63.30916,
							114.0
						],
						[
							18.32092,
							63.30907,
							115.0
						],
						[
							18.32123,
							63.30895,
							115.0
						],
						[
							18.3222,
							63.30841,
							114.0
						],
						[
							18.32231,
							63.30836,
							114.0
						],
						[
							18.32293,
							63.30811,
							113.0
						],
						[
							18.32373,
							63.30802,
							114.0
						],
						[
							18.32404,
							63.30802,
							115.0
						],
						[
							18.32461,
							63.30801,
							115.0
						],
						[
							18.32546,
							63.30804,
							117.0
						],
						[
							18.32621,
							63.30805,
							117.0
						],
						[
							18.32643,
							63.30805,
							117.0
						],
						[
							18.32728,
							63.30793,
							116.0
						],
						[
							18.32811,
							63.30777,
							115.0
						],
						[
							18.32868,
							63.3076,
							114.0
						],
						[
							18.32869,
							63.3076,
							114.0
						],
						[
							18.32959,
							63.30734,
							112.0
						],
						[
							18.33022,
							63.30711,
							112.0
						],
						[
							18.33098,
							63.30684,
							111.0
						],
						[
							18.33114,
							63.30673,
							110.0
						],
						[
							18.3314,
							63.30654,
							109.0
						],
						[
							18.33172,
							63.30622,
							108.0
						],
						[
							18.33164,
							63.30614,
							108.0
						],
						[
							18.33163,
							63.30614,
							108.0
						],
						[
							18.33172,
							63.30622,
							108.0
						],
						[
							18.33203,
							63.3058,
							105.0
						],
						[
							18.33213,
							63.3057,
							105.0
						],
						[
							18.33214,
							63.3057,
							105.0
						],
						[
							18.33245,
							63.30538,
							103.0
						],
						[
							18.33324,
							63.30512,
							101.0
						],
						[
							18.33404,
							63.30486,
							100.0
						],
						[
							18.3344,
							63.3047,
							100.0
						],
						[
							18.33495,
							63.30445,
							100.0
						],
						[
							18.3352,
							63.30417,
							100.0
						],
						[
							18.33484,
							63.30409,
							99.0
						],
						[
							18.33423,
							63.30394,
							99.0
						],
						[
							18.33329,
							63.30358,
							99.0
						],
						[
							18.33324,
							63.30356,
							99.0
						],
						[
							18.33251,
							63.30318,
							98.0
						],
						[
							18.33255156497805,
							63.303155234543134,
							99.2
						],
						[
							18.33250344986424,
							63.30313440705549,
							99.0
						],
						[
							18.332493645334456,
							63.30310933778796,
							99.1
						],
						[
							18.332466816380393,
							63.30308847305405,
							99.4
						],
						[
							18.33243039631805,
							63.303064791190884,
							99.3
						],
						[
							18.332408146394837,
							63.303043437683705,
							98.8
						],
						[
							18.3323667786936,
							63.303027665732515,
							100.2
						],
						[
							18.332341433778158,
							63.30299488309134,
							100.2
						],
						[
							18.33230530309172,
							63.30295188176484,
							99.4
						],
						[
							18.33225365059176,
							63.302934702095186,
							99.9
						],
						[
							18.33222146775509,
							63.30291000917708,
							100.9
						],
						[
							18.332187085825392,
							63.302886342885934,
							101.2
						],
						[
							18.332172568340884,
							63.30286329662965,
							100.7
						],
						[
							18.332161371634985,
							63.30282863656067,
							100.6
						],
						[
							18.33213880573991,
							63.3028029634579,
							99.9
						],
						[
							18.332099726066687,
							63.302777487948376,
							100.8
						],
						[
							18.33206745704985,
							63.302752328703136,
							99.9
						],
						[
							18.33205067516802,
							63.30271937298901,
							100.2
						],
						[
							18.33201061794641,
							63.302702663826246,
							100.7
						],
						[
							18.33198313218789,
							63.30267560442396,
							100.9
						],
						[
							18.331950091830826,
							63.30265849469168,
							97.7
						],
						[
							18.331897469352214,
							63.302638522068335,
							99.7
						],
						[
							18.33190038229421,
							63.30260685808637,
							98.2
						],
						[
							18.331858682835957,
							63.302591097177505,
							99.9
						],
						[
							18.33183126447005,
							63.302568141126706,
							100.1
						],
						[
							18.331813266622117,
							63.30254829308971,
							98.9
						],
						[
							18.33178684714093,
							63.30252620709959,
							98.9
						],
						[
							18.331761621433657,
							63.302503102943135,
							99.3
						],
						[
							18.331745863630285,
							63.302476801963266,
							98.5
						],
						[
							18.331715836518327,
							63.30245116264212,
							98.2
						],
						[
							18.331684733902197,
							63.30242797832242,
							98.8
						],
						[
							18.33166394446766,
							63.302408882368766,
							98.7
						],
						[
							18.331662932936236,
							63.30237524927713,
							95.8
						],
						[
							18.33164540901985,
							63.302356261887134,
							97.1
						],
						[
							18.33163781601328,
							63.302331928923934,
							96.4
						],
						[
							18.331624003693555,
							63.30230888761682,
							96.3
						],
						[
							18.331575017801107,
							63.30227670844363,
							97.0
						],
						[
							18.33155919577174,
							63.30224777482467,
							96.4
						],
						[
							18.33155890070572,
							63.30221750054378,
							94.0
						],
						[
							18.331519944030454,
							63.30219735839338,
							95.3
						],
						[
							18.33146755412086,
							63.30217491378091,
							95.8
						],
						[
							18.331482570491314,
							63.30214379660637,
							96.7
						],
						[
							18.331462597970788,
							63.30212191881854,
							96.7
						],
						[
							18.331436940306578,
							63.302102787931496,
							97.4
						],
						[
							18.331428034398236,
							63.30208228643676,
							96.0
						],
						[
							18.331384289918407,
							63.302065619535355,
							98.1
						],
						[
							18.331374050776898,
							63.302034686070094,
							97.1
						],
						[
							18.33134683795757,
							63.30201591156493,
							96.9
						],
						[
							18.331324552943293,
							63.301979758304206,
							95.2
						],
						[
							18.331267550196074,
							63.301960235559015,
							95.9
						],
						[
							18.33127168358702,
							63.301930680155074,
							96.4
						],
						[
							18.33121659523229,
							63.30192011796115,
							97.1
						],
						[
							18.331186074296262,
							63.301899669805614,
							97.5
						],
						[
							18.331187630470104,
							63.30186681894747,
							97.0
						],
						[
							18.331172307827092,
							63.30184554890379,
							97.6
						],
						[
							18.331136300242747,
							63.30181884477389,
							97.9
						],
						[
							18.33112639454905,
							63.30179341063668,
							97.7
						],
						[
							18.331079583642218,
							63.30177745055185,
							97.7
						],
						[
							18.331060180103147,
							63.30175402116667,
							97.0
						],
						[
							18.331027869485,
							63.30173494414423,
							97.1
						],
						[
							18.330995328715094,
							63.3017146031985,
							98.2
						],
						[
							18.33098708759111,
							63.30168965519124,
							96.9
						],
						[
							18.33097890222827,
							63.30167002612635,
							96.9
						],
						[
							18.33099963803957,
							63.30164214707194,
							97.0
						],
						[
							18.331022341432792,
							63.30161090457818,
							96.2
						],
						[
							18.331056114365662,
							63.30158703843227,
							95.7
						],
						[
							18.331024435695213,
							63.30157355267413,
							96.3
						],
						[
							18.331043295010065,
							63.30154310111589,
							96.4
						],
						[
							18.33106755402732,
							63.30151539479342,
							95.6
						],
						[
							18.33106427252056,
							63.30148835571145,
							96.1
						],
						[
							18.331095717386322,
							63.30144822015084,
							95.1
						],
						[
							18.331107231029954,
							63.30142823667564,
							95.8
						],
						[
							18.331120393216487,
							63.30140170981283,
							96.5
						],
						[
							18.331130569961456,
							63.30137529386585,
							97.4
						],
						[
							18.33113090712165,
							63.30135159113163,
							97.3
						],
						[
							18.331130489280334,
							63.30132422954082,
							98.1
						],
						[
							18.33111122960711,
							63.30129616104336,
							99.7
						],
						[
							18.331119531480223,
							63.301260926485774,
							98.9
						],
						[
							18.33112864311299,
							63.30124122215945,
							96.3
						],
						[
							18.331138751878555,
							63.30121470096589,
							97.2
						],
						[
							18.33114445365929,
							63.301196009788185,
							97.6
						],
						[
							18.331156051266106,
							63.30117051669711,
							96.7
						],
						[
							18.331162876993616,
							63.30114959750054,
							96.3
						],
						[
							18.33117170931253,
							63.30113188398309,
							95.4
						],
						[
							18.331181075624713,
							63.30110877470545,
							95.9
						],
						[
							18.33119157420897,
							63.301085657464924,
							96.1
						],
						[
							18.331208771969713,
							63.30104769781728,
							97.9
						],
						[
							18.331227138684813,
							63.30101610741259,
							99.1
						],
						[
							18.331249634595963,
							63.30098139021229,
							99.0
						],
						[
							18.331264605784803,
							63.3009630847205,
							97.6
						],
						[
							18.331287696551463,
							63.300941261704736,
							98.1
						],
						[
							18.33131000855941,
							63.30092353071485,
							97.5
						],
						[
							18.33134567979762,
							63.300902323356205,
							98.5
						],
						[
							18.33138707272765,
							63.30088421865342,
							98.3
						],
						[
							18.33143205808621,
							63.300871401044795,
							100.4
						],
						[
							18.33147525858219,
							63.30086065216128,
							99.8
						],
						[
							18.331521207408905,
							63.30084978309264,
							99.7
						],
						[
							18.331582406411286,
							63.300835306660055,
							100.3
						],
						[
							18.331622508944385,
							63.30082566818882,
							99.2
						],
						[
							18.331660043101014,
							63.30081775370997,
							98.6
						],
						[
							18.33170093605428,
							63.300809130897186,
							98.8
						],
						[
							18.33175070410795,
							63.30079896453216,
							98.1
						],
						[
							18.331794717119166,
							63.300790239288055,
							98.4
						],
						[
							18.331841511333497,
							63.300781666190474,
							99.6
						],
						[
							18.33188461255405,
							63.30077376963607,
							99.9
						],
						[
							18.33193098532544,
							63.30076527372013,
							98.4
						]
					]
				],
				"bbox": [
					18.25922,
					63.30076527372013,
					18.35067,
					63.32956
				]
			},
			"properties": {
				"name": "Byathlon - sammanslagen bana",
				"desc": "Start/m\u00e5l: GPX (08-Jul-2026 inspelning). Huvudslinga: AllTrails-rutt (L\u00f6pning-lang.js)."
			}
		}
	]
}