{"type":"FeatureCollection","features":[{"type":"Feature","properties":{"name":"Track"},"geometry":{"type":"LineString","coordinates":[[18.330149134231227,63.30049262909051,96.9003957984969],[18.330211708198448,63.30048347465372,96.45657416060567],[18.330249158878413,63.30047577661431,96.59947627037764],[18.330289749541063,63.300468213422576,96.44137475453317],[18.330327630028364,63.30046175151722,96.22629934549332],[18.330358901359563,63.300447618259604,96.28053141850978],[18.33042219518898,63.30043714607093,96.21876958757639],[18.330480000593724,63.300424426744286,96.01248503383249],[18.330538759122057,63.30041405628691,96.16372871771455],[18.33058704246879,63.300404991493345,96.50204270519316],[18.330641140374123,63.30039911240521,98.3750748578459],[18.330681761946728,63.30038879207585,99.00380153954029],[18.330739531460296,63.3003828553996,98.82801104523242],[18.3307910251356,63.30037541889329,98.8056192304939],[18.33084493806721,63.300365365180234,98.6641019070521],[18.330892609369783,63.30035673702659,98.12701022066176],[18.33093413109182,63.300348355796906,97.76739780325443],[18.33098281928275,63.3003413994304,97.47685522399843],[18.33103587563656,63.30032998005618,97.65176947787404],[18.331095244841062,63.30032245375337,96.96079570334405],[18.33114960658536,63.30030995211517,97.01490861084312],[18.331204661246144,63.30030600738713,97.52440150547773],[18.3312443293399,63.3002988034863,97.58347334526479],[18.331297930479924,63.30028906928726,98.0873596733436],[18.331352391690523,63.30027917889854,97.71354953944683],[18.331400058556476,63.30027052238909,97.10683586075902],[18.331460713646138,63.30025950716177,97.45843158476055],[18.331517004628047,63.300249341785516,97.52258595451713],[18.331574306263335,63.300239151790805,97.5402529463172],[18.331631730044926,63.3002267166553,98.83904886618257],[18.331685763913562,63.300213591916105,99.0001867422834],[18.33172809560193,63.30020121671943,99.5244469139725],[18.33176765081571,63.300188693994876,100.10319202207029],[18.331813485291356,63.300171618986866,100.26790764927864],[18.331851727029,63.300155461294196,99.86425906699151],[18.33189554237921,63.300135701342754,98.12722825724632],[18.33193294869939,63.300116916144084,98.8053426258266],[18.331963378756257,63.30010100742683,98.35139633715153],[18.33200074381054,63.30008123188186,98.33428697753698],[18.33203169752613,63.300063964643314,98.36745567712933],[18.332069285486327,63.300039642668246,98.92029793467373],[18.332102470291506,63.30001527441393,99.46286374423653],[18.3321320961167,63.299990408850135,100.08697728719562],[18.332154992398962,63.299967824916756,99.67539315763861],[18.33217288270181,63.29994310898918,99.76672832667828],[18.33218574187488,63.29992133645545,99.65747027192265],[18.33219660323618,63.29990216406725,99.5656386455521],[18.33220027615145,63.29988219653311,99.39174947608262],[18.332205369729245,63.29985585117174,99.47790537867695],[18.332210848688984,63.29982450506082,100.25005026906729],[18.332219377790416,63.29979641762234,100.57167217507958],[18.332227831574762,63.29977258951746,100.69602055754513],[18.332230536344017,63.29974809529578,100.84495060890913],[18.332227027560958,63.29972381761426,100.59627883508801],[18.332232078763013,63.2997003502668,101.16183963697404],[18.33223804044079,63.29967442559414,101.27324705105275],[18.332243954987366,63.29964870586819,101.21083340514451],[18.33225032571941,63.299621002397814,101.74363190867007],[18.332256171947638,63.29959557975958,102.09792817942798],[18.33226392051613,63.29957036624148,102.42722926195711],[18.332272200844166,63.29954603991084,102.40097260382026],[18.332280650521415,63.2995212160729,102.65339376125485],[18.332289317544692,63.2994957536986,102.61106658168137],[18.332297923242756,63.29947047149377,102.96885923482478],[18.3323066235567,63.29944626151404,102.8009498976171],[18.332316301797906,63.29942232696522,102.75542051065713],[18.33233320016497,63.29939869654055,102.7109963381663],[18.33234826484739,63.299375571549156,102.70252765528858],[18.332364325828674,63.299353026234144,102.9679150050506],[18.332377494921737,63.29932805048149,103.04153258167207],[18.332390621238652,63.29930482992896,103.0347120128572],[18.332407913526684,63.2992807554476,103.57662683166564],[18.332424610672156,63.29925810875688,104.06999360118061],[18.3324426509824,63.299233875541354,104.64127437025309],[18.332466888286504,63.29921129631015,105.06450560688972],[18.33248768526878,63.299188268577296,105.02952348347753],[18.332508645694706,63.29916505987467,105.17735761404037],[18.332527981917156,63.29914155071198,105.21734086796641],[18.332549759539443,63.299119536027234,105.49588671885431],[18.332569884539364,63.299097252358266,105.25544744357467],[18.332589692499475,63.29907531973482,104.98446719255298],[18.33260794986706,63.299055104030025,104.81812693178654],[18.332638131625096,63.29902669853413,105.59685347508639],[18.3326649449692,63.29900582166127,105.35102245211601],[18.33268894796729,63.29898391690299,105.46034517139196],[18.332713142482806,63.29896542227592,105.20458834152669],[18.33273956262177,63.29894417058394,105.45565741788596],[18.332768154940002,63.298923715691,105.46426246128976],[18.332807547217072,63.298897776584525,106.12172346841544],[18.332849400736254,63.29887497909005,106.93588420841843],[18.332889136781308,63.298855945649876,107.29599594511092],[18.33292495458463,63.29883872035976,106.85030662734061],[18.332960135566907,63.298819271352805,107.71335610374808],[18.33299613120115,63.29880275162343,108.1835742406547],[18.33303646950709,63.29878858351859,108.15337434224784],[18.333077955798,63.29877104016881,108.55738584138453],[18.333116232317156,63.29875635782348,108.61355069559067],[18.33316054115258,63.29874156479159,108.91038610972464],[18.33320993028529,63.29872393742694,108.61515900399536],[18.333257892147937,63.29870681945918,108.9226987157017],[18.333305408851757,63.298689860368384,109.70869276300073],[18.33334716319162,63.298674957918784,109.74877345282584],[18.333386886400298,63.29866078039048,109.89414828270674],[18.33341928212134,63.29864921810197,110.22797943744808],[18.33346223126415,63.298635766669676,110.16243359353393],[18.333500481001593,63.2986239561022,109.35754512436688],[18.333551799504903,63.298608110225544,109.87144760042429],[18.333596914696418,63.29859417978991,109.66417305637151],[18.3336605323511,63.298574536238505,109.44365568179637],[18.333716566851283,63.29855723420108,109.54720520041883],[18.333769367705656,63.298540930600616,110.37460306659341],[18.333814645938116,63.29852694980514,110.54741093330085],[18.333867249989964,63.29851070699941,111.17868116032332],[18.33391738225405,63.29849716642519,110.64314394351095],[18.333967768724694,63.298484047367076,111.58519481308758],[18.33402346523025,63.298469545755566,112.39176241774112],[18.334076067473934,63.29845584979227,113.16253505367786],[18.33412778265211,63.29844238479497,112.8053281083703],[18.3341768170069,63.298429617791086,112.46543608792126],[18.334225919017747,63.298416833169064,112.83554092608392],[18.33427424904375,63.298404249555595,113.05095290672034],[18.33432191342597,63.29839183925417,113.47181155532598],[18.334371066242564,63.29837904140921,113.43903021141887],[18.334417804837678,63.29836687215036,113.75160152465105],[18.33446500097134,63.2983545837624,114.53128243982792],[18.334513197073917,63.298342035019346,114.65196518693119],[18.334560563288797,63.29832970234915,115.37171602807939],[18.33460946744061,63.298316969251935,115.92974155955017],[18.33465874677939,63.298304138460956,116.11628338973969],[18.334707352711867,63.298291483007965,115.82483423501253],[18.334744937560036,63.298281697103896,115.82037461176515],[18.334787944628488,63.298270499413405,115.02140682935715],[18.33484114294767,63.29825664825009,115.20064312871546],[18.334890983685007,63.29824367128921,115.40637331455946],[18.334943704217405,63.29822989993152,116.0446724742651],[18.334992910775522,63.29821654391943,116.25148928072304],[18.335043050474134,63.29820384735447,116.15349884796888],[18.335089699358882,63.2981919319937,116.21500634774566],[18.33513847099578,63.29817923339192,116.38625482469797],[18.335184534242504,63.29816508783057,116.28785757813603],[18.33522277764783,63.29815252441862,116.14923035725951],[18.33526658019746,63.298138134760904,116.12786015123129],[18.33531527413572,63.29812213824382,116.32014928665012],[18.335363638767483,63.298106249883844,116.8697605766356],[18.33541240593094,63.29809022929113,116.84104761481285],[18.335458566558895,63.29807506497135,117.22192315850407],[18.335504845548023,63.29805986178334,118.07062307465822],[18.335545118450337,63.298044133817555,118.12769568432122],[18.335589703939714,63.29802598672439,119.00771639309824],[18.33563021966971,63.29800947022867,118.29629710316658],[18.335667763383604,63.29799379823506,117.97592927049845],[18.335709179283736,63.297976509847054,119.01164102274925],[18.335748676985382,63.297960022190196,119.16251648124307],[18.335787479928708,63.29794382453621,118.84206887800246],[18.335826177060493,63.297927932245294,119.12025943398476],[18.33586540003304,63.29791031552269,120.12851109914482],[18.335903978390714,63.29789298828437,120.14725661277771],[18.335938311882444,63.29787758539847,120.57117517851293],[18.335976933923614,63.297860391811135,120.60497151687741],[18.336014549163504,63.29784364643239,120.90664868149906],[18.33606181432167,63.297822605143786,120.27337135188282],[18.336097207125704,63.29780851781365,120.41455513145775],[18.336131987120723,63.29779519530925,120.0445345370099],[18.33616761105718,63.297781549520266,120.45163542870432],[18.33620627169083,63.297766881248556,120.67867342475802],[18.336251404673753,63.29774994110376,120.66150141321123],[18.336297406240718,63.29773624923623,120.59221709519625],[18.336343466267884,63.29772351244102,121.07462894264609],[18.33638884410367,63.29771096428625,121.55525306425989],[18.336431344512224,63.29769921181492,122.88857060298324],[18.33646997188093,63.29767800024315,122.10139376204461],[18.336508265001644,63.297668815352814,121.31608815398067],[18.336524003259214,63.29764437271525,120.79674946516752],[18.336527105248486,63.29761797783453,119.55728137120605],[18.33656202300144,63.29760796718659,119.9746914152056],[18.336569403912307,63.29757048459364,119.91303669381887],[18.33656749176485,63.29755205408826,119.42747205216438],[18.336567495871957,63.29752803284188,118.8568931883201],[18.336564136322664,63.2974981453687,118.87067263759673],[18.33656847988831,63.297476502552904,119.09928999748081],[18.33659477373559,63.29745732432069,119.96030196733773],[18.33660847936005,63.297437489193214,119.34897851850837],[18.336640076723782,63.29741174060474,119.48979976586998],[18.336658280440282,63.29739028004419,118.56249790452421],[18.336677239549612,63.29736600101924,118.80809390731156],[18.33671720948495,63.297344785426354,119.01529044471681],[18.336743213522958,63.29731457210849,118.75425273831934],[18.336766942241937,63.29729867137645,119.64059313479811],[18.336775483869058,63.29727925698225,119.6944122677669],[18.33678285413759,63.29725834094668,118.87351911142468],[18.336802953833068,63.297237246200616,119.24768822360784],[18.336822788148844,63.29720417227469,118.54498362075537],[18.33681884278115,63.2971844499391,118.21335336845368],[18.336819596417868,63.29716006375738,117.29523675050586],[18.336833498735746,63.29714053326222,117.35194162186235],[18.336849772702667,63.297115481335375,117.95295355841517],[18.336873167844555,63.29708571108121,117.87979061994702],[18.336895876855273,63.29706592672326,117.22776500042528],[18.33690498137686,63.29704078124638,117.68178857676685],[18.33692664711153,63.29702510605066,118.29537419322878],[18.336965690650388,63.296990666705476,120.64494210667908],[18.336977211972677,63.29696438645447,121.26767794787884],[18.33699913614535,63.29693833942966,120.06886115297675],[18.33702741075468,63.29691192195595,121.43580698780715],[18.337065199860227,63.29689254737502,123.35587562527508],[18.337097150441807,63.2968807441786,123.83961186185479],[18.337162442876927,63.296860008272425,124.79589409381151],[18.337202350046635,63.296839275678956,125.36846705432981],[18.337241635736635,63.29682130181116,125.27731718122959],[18.33727837913155,63.296813517449024,127.55235636606812],[18.337303967825065,63.29679905871525,125.66197833698243],[18.337342316298052,63.29678916418454,127.1687969174236],[18.337360189730518,63.29677276896701,127.46200833842158],[18.337390973578305,63.2967552739408,127.54027736652642],[18.337447398763118,63.296749848500454,126.95723715424538],[18.33748423557046,63.29673969454658,127.34160939510912],[18.337526106317497,63.29673074180549,128.2369340909645],[18.337558677890453,63.296718536118604,129.15185670461506],[18.337593355823767,63.29670877066578,129.8979141516611],[18.337643997776674,63.29669204371279,130.37699448596686],[18.337683271079175,63.296666514349056,128.91352995671332],[18.337724780314062,63.29663772801037,130.06235627271235],[18.337765481979346,63.29661657568664,130.4268024750054],[18.337807258312317,63.29659306765079,130.5314095504582],[18.337845551697146,63.29657177997011,132.0387354902923],[18.337863452075126,63.29655544454272,131.57839923817664],[18.337896087131387,63.29653295948832,131.50015275459737],[18.33792867101268,63.29651632324214,135.8569825226441],[18.337976260351912,63.29648906847942,137.25266414601356],[18.337994960689535,63.296466829263316,135.10666881129146],[18.338030234761845,63.296455452729084,136.22494042664766],[18.33807429873243,63.29643938921137,136.01562424842268],[18.3380935002347,63.29641657634951,135.3798404643312],[18.338111970153523,63.29639738332167,134.64403517264873],[18.33813178514642,63.296374580765324,133.40229444857687],[18.338144459559274,63.296351248843386,132.81186730694026],[18.33815889597748,63.29633143975882,132.11798948515207],[18.338186261806488,63.29631159799686,132.87144868914038],[18.33821086183621,63.29629199513022,133.54804460145533],[18.338225615480958,63.29627194746656,134.65049297828227],[18.33824716453694,63.29625199267205,133.82468045130372],[18.338277163394647,63.29623289757434,134.2715524341911],[18.33830065812249,63.296213248060255,136.00106891896576],[18.338320792440868,63.296195908156385,135.92436600942165],[18.338337069560648,63.29617900239348,135.88772954698652],[18.338362554525848,63.29615418991278,135.19875642564148],[18.338387615110804,63.29613758860444,136.11587903928012],[18.338427451605774,63.296115482613004,135.64045659918338],[18.33845536205227,63.29609808228995,136.06528420746326],[18.338494523979836,63.29607420381578,137.55359951406717],[18.338523311766977,63.296053246818126,139.0559629574418],[18.338546131450787,63.296037112840835,140.01847042422742],[18.33856045451596,63.296010962187346,139.2468237504363],[18.3385765759272,63.29599116291209,138.85186578985304],[18.338593613704845,63.295973719484394,138.44109932146966],[18.338616585523678,63.29595099752624,140.05388961080462],[18.338639416201943,63.295932606112075,140.46902492269874],[18.33866695813247,63.29590849884653,139.83972373977304],[18.338694132843273,63.29589341726375,140.94947456661612],[18.338724880101292,63.29587513100412,140.4207729427144],[18.33875885257632,63.29586160310898,141.1225156718865],[18.33879376702965,63.29585162728889,142.67026479076594],[18.338825166321662,63.295835968128024,142.7150945579633],[18.338857055308086,63.295822362781486,143.34033198747784],[18.338894097521475,63.29581224275632,143.5747522637248],[18.338935223727272,63.29579493989811,143.58494481164962],[18.338973086563605,63.2957821018584,143.5698158815503],[18.339020464264276,63.29577146001839,144.5697829546407],[18.339065075275304,63.29575468538648,144.790210316889],[18.339110095144186,63.29573771746942,145.20080687198788],[18.339140054730873,63.29572136466406,147.68828088138252],[18.33918596065291,63.2957116117001,147.20122965984046],[18.33922767703207,63.2956947387933,147.22531102225184],[18.339251623599772,63.29567943334193,146.26814441941679],[18.33931576217887,63.29565390169623,145.0909749204293],[18.339405864857266,63.295635821606645,146.01343652419746],[18.339440415029113,63.29561606752701,145.4395605912432],[18.339476541135337,63.29559737022993,145.59224699344486],[18.339528567360905,63.295580391055324,145.6611358327791],[18.339567018632934,63.29556613444991,144.99394763354212],[18.339614721801784,63.29555106802519,144.51373470388353],[18.33965810582924,63.2955314910259,144.6986229084432],[18.33969757219546,63.295511657916215,144.9163030842319],[18.339723592150783,63.29549668848565,143.97501980978996],[18.339767987538526,63.29547189139186,144.37052509002388],[18.339806205732348,63.29544976954906,144.41136024240404],[18.33985741456105,63.29544170958115,143.40749819763005],[18.339908209434885,63.29542490759695,143.40436945762485],[18.339959621566628,63.295411106121435,143.89903566334397],[18.340014692205788,63.295394016618566,143.90441081952304],[18.34005967278297,63.29537889716494,143.9647158300504],[18.340103471693883,63.29536685170267,143.69430146645755],[18.340157306026388,63.295352054070015,143.12906853761524],[18.34020215762804,63.29533830626372,142.43057255167514],[18.34025530444821,63.29532017969429,142.56659182254225],[18.34029064732346,63.295305368788235,143.56556343846023],[18.34035129112921,63.29529101069099,142.68019725196064],[18.34039970076113,63.29527350841789,143.18394549004734],[18.34044542888453,63.29525687124381,143.30542416870594],[18.340499628481492,63.295242227792876,143.35404177661985],[18.340542588109603,63.295233535551326,143.04575450439006],[18.34058189442788,63.29522289479321,141.8343160217628],[18.340629279410802,63.29521155460903,142.83966961689293],[18.340666536686626,63.29520254275211,143.90558154881],[18.340711788851586,63.2951904673704,143.39173007477075],[18.3407525638638,63.29517780899147,143.004965336062],[18.34079419604793,63.29516712966342,143.3693060344085],[18.340839578490773,63.29515314845521,143.5582598382607],[18.34088369857858,63.29514670829726,142.81688672024757],[18.340933980922895,63.29512984244926,143.55698572658002],[18.34098084878866,63.29512216741497,143.1844700369984],[18.341014171662657,63.29510817699356,143.1035351920873],[18.341053074929942,63.295092599246146,143.35683435201645],[18.341090831774842,63.29508088976846,144.03991728276014],[18.34112035392119,63.29506814025488,143.9149977946654],[18.34115406764614,63.29504894829139,143.8839109428227],[18.341195402216012,63.29503896965715,143.5395219027996],[18.341245543381905,63.29502760508278,143.5260851047933],[18.341305006803523,63.29501523871781,143.7073565609753],[18.341363325795683,63.29500502768449,143.5457508675754],[18.34140731619118,63.29499621339842,143.0329533694312],[18.341456235381134,63.2949727991109,143.3110307585448],[18.34148916522686,63.29495496444135,143.8423749282956],[18.34152247052542,63.294932830929646,143.95564664434642],[18.34156064715258,63.294917557262885,143.63586203753948],[18.341605687261133,63.294901263982204,143.55703152995557],[18.34166620720409,63.2948893423659,144.3363522393629],[18.34172674695342,63.29488020730718,144.0339089455083],[18.34178147661481,63.29487170208104,143.67436385154724],[18.341834946744214,63.29485866695445,143.83200918883085],[18.341877547585728,63.29484409869199,144.65078917704523],[18.341922999941634,63.29483015567635,144.9063521148637],[18.341983020173235,63.294812662594275,144.45493840705603],[18.342018575599123,63.29479224127339,143.72364818118513],[18.342051093743034,63.294773761885104,144.30979259870946],[18.342091010051295,63.294752146222315,145.0027201976627],[18.34214273520664,63.29473777288635,144.8559289937839],[18.34217729364633,63.29471929240059,144.8957161353901],[18.342210459832867,63.294699311502455,145.50956906192005],[18.342242485957964,63.294682687470285,144.84516038373113],[18.34226642564567,63.294664768122786,144.01657315157354],[18.34230914797835,63.29464989494388,144.6846151323989],[18.34233709013278,63.2946325577211,144.3834347864613],[18.3423833604075,63.294618828591794,144.2408904209733],[18.342426674078006,63.29460315991165,144.2008916232735],[18.342464276948423,63.294587937327606,144.1287327259779],[18.342505249161825,63.294571970706755,144.67515122611076],[18.342547661385822,63.29456590966415,143.4275091830641],[18.342580679711897,63.2945501924238,142.84841306041926],[18.34261167971152,63.29452551843653,143.26092164684087],[18.342645415264027,63.29450375035894,143.65398405026644],[18.342662099525413,63.29448694921106,143.1387846171856],[18.34270247159023,63.29445965880683,144.2439825758338],[18.34273039383102,63.29444550443754,143.85164689924568],[18.342763489316617,63.29442321921135,142.8130731973797],[18.342800873001217,63.29440480764136,142.52837073337287],[18.34283618140563,63.29439398397454,142.7795293815434],[18.342891320137742,63.29438449699809,143.97707193624228],[18.342936284808125,63.29438000679136,143.65035042352974],[18.34298061257461,63.29438602065636,144.0697547281161],[18.34303325721086,63.29438713713865,144.21160002239048],[18.343080532880577,63.294386700402704,144.60464054811746],[18.343138689657977,63.294381275440706,144.4906564615667],[18.343181180531698,63.29437729233837,143.12283140886575],[18.343230694630602,63.29437783123798,143.48556253127754],[18.343277809154294,63.294371499613796,143.16369493305683],[18.343324664504735,63.29436679040375,143.00176845584065],[18.343368767466767,63.294366184009405,142.62804945651442],[18.343420168229095,63.29436464185456,142.59846607223153],[18.343477954942998,63.29436080001762,142.62496884725988],[18.343530165931014,63.29436108930753,142.5257099159062],[18.343570145263556,63.29435828018172,143.00517459679395],[18.34361089660612,63.29435377408952,143.17502633016557],[18.343651537115665,63.294349924694316,142.49008350912482],[18.343713584650647,63.29434906805626,143.27757999673486],[18.34375560618151,63.29434762982903,143.71455854643136],[18.343799134274843,63.29434205568481,144.10747017059475],[18.343851208823438,63.29434017410735,144.06286750361323],[18.343907649426022,63.29433878672361,144.38970591500401],[18.343960638734067,63.29433782956575,144.73810217250139],[18.34400154628069,63.294336831239306,144.5986317023635],[18.344054446497353,63.29434073959335,144.88659552298486],[18.344094906768415,63.29433836442375,143.9711160743609],[18.344140894761857,63.29432585278912,143.86123887076974],[18.344203235218405,63.2943221896283,144.0991161139682],[18.34425111817231,63.2943165093619,143.86295343469828],[18.344302476042373,63.294306732428254,144.4782004514709],[18.344365959182596,63.29430123064499,145.49522777460515],[18.344416815862488,63.29430508776479,145.14783601090312],[18.34445785738349,63.294300559899796,144.92785767652094],[18.34452837428566,63.29429962964012,144.48773933947086],[18.344581714601386,63.294297047295316,144.5065487762913],[18.344642388057476,63.294294367785376,144.9826480410993],[18.344690028350424,63.29429500169346,145.59128692932427],[18.344732208616843,63.29428819797854,145.76957609131932],[18.344788843816133,63.2942850255573,145.66885217279196],[18.344837640684585,63.294281367943334,147.06475754268467],[18.344898005738283,63.294272601260225,146.70963671710342],[18.344943029785824,63.29426612440641,146.16934341099113],[18.34498942472842,63.29425651474749,146.77062554471195],[18.345037159548585,63.29424559404242,146.65732928737998],[18.345082130042854,63.29424339575062,146.89394856616855],[18.345134300815545,63.29423067236781,146.1210639886558],[18.34519562327611,63.29421131969966,146.44706387910992],[18.34524697360397,63.29420668669127,146.72965585719794],[18.34528684214209,63.29419743909893,146.35380735155195],[18.34532741807356,63.29419700940288,144.93677197676152],[18.345371123407396,63.29418018225581,146.09232852701098],[18.34540335958756,63.294169128715566,146.14076297171414],[18.345447020869315,63.29415553357397,146.62116849329323],[18.345481977901304,63.2941438096876,145.42051306646317],[18.345511779292735,63.2941300366009,145.37401901651174],[18.345544633345902,63.294115305335765,145.1038532005623],[18.34558487205618,63.29411015347927,144.17526400182396],[18.345638739827436,63.29409764805901,145.05148229468614],[18.34568221085903,63.2940914408417,144.77939574234188],[18.345721065569958,63.294084268756336,146.15122434217483],[18.34578456322847,63.29407759270468,145.29382030759007],[18.34582818420999,63.29406844979734,146.5414605103433],[18.345887533025508,63.29405472769778,146.85402568615973],[18.345932415625747,63.29405034888837,148.1040005153045],[18.345976428361034,63.29404895031994,147.34181734826416],[18.346033806314843,63.29403865735294,146.81250553485006],[18.346086879887523,63.29402294240243,147.2891804939136],[18.346144752822205,63.294012317251685,146.025097662583],[18.346193890905063,63.29400042588189,146.9264880064875],[18.34623874503521,63.294006167787266,146.19436474796385],[18.34630926896111,63.294004641187506,147.23835928179324],[18.346359687257998,63.29399466711703,147.74449258390814],[18.346417125869635,63.29398006221289,147.01625190023333],[18.346462593110026,63.29396935928907,145.33293159864843],[18.346525326841995,63.2939650677024,145.96183960977942],[18.34656747234951,63.29396366721054,145.16681926324964],[18.3466340563407,63.293973199464105,147.93321521952748],[18.34667987349564,63.29397754781432,146.14596286788583],[18.346728812279775,63.293983492031295,145.41763417609036],[18.346784117689932,63.293971226826685,144.44921087659895],[18.346810578588684,63.2939922031317,143.91554558556527],[18.346856258642404,63.29400040823189,142.861840759404],[18.346902163041346,63.2940064387499,142.56110256258398],[18.346942353819777,63.29401696031049,143.46953635197133],[18.34698252480318,63.29403074078196,143.57245744485408],[18.347039435073295,63.294046754886104,144.4006380578503],[18.34709322720013,63.294054486611614,144.71592603065073],[18.347141792209055,63.29406695906866,144.17884870059788],[18.347170438324614,63.29408121838301,144.59344116039574],[18.347212503892344,63.294099613825864,145.15371531900018],[18.347269108727062,63.294107716812704,143.3502118214965],[18.347335415287663,63.29411796499691,143.23827880620956],[18.347392736657685,63.294134122373535,143.32491024490446],[18.347417158168316,63.29415164589984,144.74601018894464],[18.347458106377893,63.29416192815788,143.89690955448896],[18.34751300679027,63.29417407201194,143.3285879418254],[18.34756990715598,63.29419241775277,143.79233707860112],[18.347602060605837,63.294212187321065,143.89628249779344],[18.34763889059195,63.29422974189964,143.01830741018057],[18.347684569507457,63.294242890967716,142.65176363661885],[18.347721627733552,63.29425820283998,141.6602350976318],[18.347760648149713,63.29428493707174,141.8957182355225],[18.34779560751564,63.29430099708227,141.66272461041808],[18.347834511882716,63.29431985822575,141.60412231553346],[18.34785592292967,63.29434061387706,143.32285995129496],[18.34787535131746,63.29436499529246,142.69751362409443],[18.34788911033329,63.294384730736766,141.77016872540116],[18.347902375313993,63.294406888123675,142.09918354824185],[18.34791509655212,63.29442776382768,142.3126127049327],[18.347929164447834,63.29445765168986,143.46199582889676],[18.34792503496994,63.29448209141873,142.90504863485694],[18.347928820150003,63.2945106795164,142.97859851364046],[18.347925034559637,63.29453838060029,141.3260218910873],[18.347925594774946,63.294557243364046,141.1407767664641],[18.34793573883477,63.29457830071716,140.7653499506414],[18.34796118968209,63.29460991096837,139.50931498315185],[18.34796672122518,63.29463828223676,137.14908861368895],[18.347979041788772,63.29466240823083,137.92713944986463],[18.347984925277984,63.294684211451305,138.03572602011263],[18.348013874780374,63.29471057267787,137.88866515737027],[18.3480451589033,63.29472475820454,136.16337964404374],[18.348084206358738,63.29474993771441,136.51252591889352],[18.348109930315328,63.294763706914075,136.37238702829927],[18.34815199347729,63.294782484780804,136.48860313929617],[18.348192875610938,63.29480107842389,136.99347129743546],[18.34824344746915,63.29481476333393,136.43834147136658],[18.34828520245744,63.294838229969756,136.26451837364584],[18.348316280905557,63.29485318710803,135.25561008881778],[18.348360336220157,63.29486857471549,134.72960511688143],[18.348385880669618,63.294884596599864,136.36277696490288],[18.348435147652932,63.294902006992224,135.57368347235024],[18.348455842293433,63.29492563904306,134.93324602860957],[18.348503314896266,63.294951325446306,133.476193475537],[18.3485370402901,63.29497860311747,132.71253381855786],[18.348581651102418,63.2950005381575,130.8197125736624],[18.348609415673227,63.295027722222315,130.2625667983666],[18.348637738580045,63.29504748850497,132.15779561456293],[18.348682693522267,63.29506739596546,132.72588514629751],[18.348710732047508,63.29508645469209,132.51444184035063],[18.348738774335956,63.2951075929655,132.58272596262395],[18.348778714823588,63.29512602255877,133.05291121266782],[18.34881974165908,63.29513918367606,132.5274739842862],[18.34884864557939,63.29516338261442,132.15146971866488],[18.348883466335682,63.2951821404001,131.31117283552885],[18.34890861982653,63.29520249292456,131.5033401735127],[18.34893234351206,63.295219856879896,131.41430983133614],[18.348959813640523,63.2952366925132,131.70379501022398],[18.348973379889713,63.29525866804945,130.34408330265433],[18.348981966185164,63.29528772564704,130.54220632463694],[18.348977050859396,63.29531290028404,130.06640176847577],[18.348996837960293,63.29533348733544,131.09932487085462],[18.349002908349675,63.29535522804523,130.74261376354843],[18.34900912917723,63.295380281533106,130.88267900049686],[18.349024179034416,63.29539966845635,129.81513342354447],[18.34903694337371,63.29542537234798,129.90018142573535],[18.34904796201507,63.295446593871254,128.78870411589742],[18.349054267505846,63.295468218078526,128.9752265671268],[18.34906354245825,63.2954885446259,127.82907019369304],[18.349073386197453,63.29551663160964,128.491523318924],[18.349077976043585,63.29554384106626,129.56337281502783],[18.349090525227336,63.295568132075005,129.86573103722185],[18.349090792343937,63.295593707493396,129.9234352717176],[18.34909499855418,63.295618186209936,129.65247090999037],[18.349111766217657,63.29563873293538,128.3585307346657],[18.34912289797848,63.29566699456573,129.68717552907765],[18.349135386100492,63.295691660692405,129.19675909541547],[18.349143382424174,63.295711024511895,128.69501498155296],[18.349152827602214,63.29573326179156,128.86241714656353],[18.34913551809548,63.29576036594307,128.3757315762341],[18.34913063736726,63.29578340754006,128.29190976638347],[18.34912437907493,63.29580569182605,128.27352106757462],[18.34914301723955,63.295826753171156,129.03017997089773],[18.349181816236786,63.2958366979619,128.05261755455285],[18.349202540607717,63.29585500157635,129.04473325423896],[18.34920479287092,63.295883877482915,128.28613560739905],[18.34920746505251,63.29591125951008,129.78155889268965],[18.349215670354422,63.2959378710725,128.59221508912742],[18.34922755503363,63.29595943164492,129.08655154053122],[18.34923557202429,63.29597750180151,130.01868062280118],[18.349249423028525,63.29600216919986,129.41665838472545],[18.34925511761671,63.29602754772979,129.29264876898378],[18.349252866918405,63.29604876938389,128.1148073989898],[18.349257820130557,63.296069012159016,129.1233506919816],[18.34927132627575,63.29608926416195,127.13502015452832],[18.34930389063518,63.29611549433173,127.12234885059297],[18.349305838210462,63.296136196787174,127.71027101855725],[18.349300098808502,63.29615569615328,128.90027431119233],[18.349321547520805,63.29617742941355,127.98764335736632],[18.349315040056453,63.29620417680655,129.0985174383968],[18.349329922420925,63.29623482866154,127.16709927562624],[18.34932309341306,63.296254940253135,127.48900682851672],[18.34931968242951,63.29627807936251,127.60003962088376],[18.34931874249054,63.29630248979816,126.98106655105948],[18.349308062385195,63.29633307659547,127.00737076625228],[18.349300985634343,63.296362236032294,127.55132257472724],[18.349289039185035,63.29638982090299,127.93867542408407],[18.349299832156174,63.29641205575659,126.74155858997256],[18.349297646561133,63.296437371860556,126.8558251131326],[18.34930636537899,63.29646270288114,126.80599997658283],[18.3493040880057,63.29648844671736,127.07266014441848],[18.349303012027217,63.29650793180027,127.07401792425662],[18.349312122164353,63.29653513896927,127.49247523024678],[18.34931722666285,63.29655702136883,127.62828330136836],[18.349318129047663,63.29658401005709,128.23553098831326],[18.349317161322166,63.296616124620336,129.63792872522026],[18.34932433828486,63.29663765206675,129.27679144684225],[18.349333239475868,63.29666386583649,128.56926154345274],[18.349338079475917,63.29668806036755,130.45129555650055],[18.3493268231724,63.296719057244054,128.11676517035812],[18.349321675159977,63.296738467367256,128.93968219589442],[18.34933960890995,63.29675627862971,129.19683117978275],[18.349365533228436,63.296775193347614,129.1820389572531],[18.349371983017477,63.29679970274995,128.220950554125],[18.349370631746517,63.29682406156703,128.1324421679601],[18.349368343735165,63.29684382828279,127.40350999776274],[18.349370178515,63.29686590532699,127.34260666090995],[18.34937098940056,63.296887913600415,125.92124847136438],[18.349353045582372,63.29691457356243,125.84456361550838],[18.349319374719858,63.29693724875368,124.43064648192376],[18.349307173933887,63.296961327473916,124.40315884910524],[18.34928517106712,63.2969952742851,123.8712824638933],[18.349269385783217,63.29701345786256,123.83823323622346],[18.349231877097207,63.297036969250456,123.39328949991614],[18.349213237600726,63.2970620746049,124.14450714830309],[18.349187928138665,63.2970831856761,124.51442397106439],[18.349167413265537,63.297111790266015,123.14595708064735],[18.34912941269944,63.29713322300667,123.50258142966777],[18.349111303079326,63.29715031615542,124.60225910972804],[18.349074908069632,63.29717912423497,124.1640954958275],[18.349048994084534,63.29719362358401,123.31922981794924],[18.349036761498418,63.297219433971776,122.21512390766293],[18.34902844102912,63.297243654358994,121.84242109023035],[18.349017481273645,63.2972702085797,122.5817204369232],[18.349009430219862,63.29729693314426,121.11938595864922],[18.34900902766765,63.29732805447509,121.43599778600037],[18.349006039717768,63.29734884497519,120.82622466702014],[18.3490005837153,63.29736698495149,121.38800198957324],[18.349005414033513,63.29739702924251,122.13699537422508],[18.349021876831063,63.29741932979733,120.9555062521249],[18.349029659702346,63.29743859255851,121.0420469082892],[18.34904207529783,63.29745731443412,120.90926318895072],[18.3490482062778,63.29748072430141,119.77198956068605],[18.349081342592033,63.297492989405946,121.38381431624293],[18.349075265609958,63.297519896519276,119.41461548488587],[18.349128839336057,63.29753181927613,117.89650363661349],[18.349161709907378,63.2975484788612,119.41333512496203],[18.349205778452223,63.29756338350344,119.60546933952719],[18.349249984906347,63.29757554600158,118.88117788918316],[18.349283062361703,63.29758656659345,118.3240775205195],[18.34932929984691,63.29759515662424,116.49436330515891],[18.349372777407762,63.297608181624305,115.99124917108566],[18.349398506897284,63.297625123092175,115.89265672769397],[18.349433157358252,63.29763559854965,114.38706759922206],[18.34947425529807,63.29764964905494,114.7619409635663],[18.34953655361718,63.297669391280564,113.62364443484694],[18.349564686998264,63.29769377760766,114.51554914284497],[18.34961218546077,63.29771316038164,115.21677211299539],[18.349664186950893,63.29772384894987,113.5965392338112],[18.349712696200953,63.29773949674587,114.29077127762139],[18.349757945262837,63.29774801900887,114.16278593428433],[18.349805277763544,63.29775830868153,113.92655152268708],[18.349859695205154,63.29777887065291,111.36604678351432],[18.3498786487369,63.29779657505862,111.62899707537144],[18.34992704172205,63.29781947799632,113.00999103393406],[18.349973768183784,63.297832685017546,113.41433523502201],[18.350016961525146,63.29785133807943,113.32573880255222],[18.350057403533544,63.297870633936526,113.30176669266075],[18.350083480325864,63.29788758430967,112.90141106862575],[18.350122174400997,63.29790624462386,112.06749813724309],[18.350155973026403,63.29792461446313,110.7899932935834],[18.350198214528685,63.29794051675134,111.36116335168481],[18.35022662754928,63.29795630971097,112.31064704898745],[18.350271164712698,63.29797029601662,111.72953000944108],[18.350291216790307,63.29798977051587,112.75692203082144],[18.350318389612543,63.298004793344774,111.97255159541965],[18.350360071349503,63.29802521627979,111.108762989752],[18.350394781336014,63.29804581273128,110.65275354962796],[18.35042618366729,63.298063695379916,110.37298648059368],[18.350458165368895,63.29807550867217,109.48641970846802],[18.350492236670682,63.298100713496694,109.17970499023795],[18.350523556588417,63.29811525819239,107.52298380155116],[18.350573548996316,63.29813413342592,107.63803008012474],[18.350608947525693,63.298153010568114,107.3417031597346],[18.35064381994023,63.29816993216846,106.00820196419954],[18.35068465778189,63.298191194825044,106.4953887341544],[18.35072224214368,63.298208986344456,106.13780477736145],[18.350739330215898,63.29822703445157,105.67572401836514],[18.35076393493425,63.29824565000441,106.03184709418565],[18.350793863044913,63.29826646716602,105.16590315848589],[18.350805368321485,63.29829078407413,104.64303502812982],[18.35082337817429,63.298309793229805,103.00409663189203],[18.350836363380573,63.29832937923063,102.16922436095774],[18.35086602475186,63.298350206914684,101.27666228078306],[18.350884890524554,63.29837900583845,99.8593206871301],[18.350910586139342,63.29839380738238,100.30548876244575],[18.350971040439575,63.298409898667764,100.6583899743855],[18.351009453087883,63.2984269976302,98.64050334598869],[18.35103529934892,63.29844185794689,98.75271261949092],[18.351064328905906,63.298462546093965,99.17293657362461],[18.3510834666463,63.298478479447915,98.60362566728145],[18.351101838847843,63.29850097803277,97.02045832294971],[18.351104267441222,63.298523477329965,97.984085470438],[18.35110799552681,63.29854600321742,97.07180135603994],[18.351112078013845,63.298573509666966,98.04488045163453],[18.351133806020698,63.29859308447114,98.10310598276556],[18.351140052507677,63.298612436464914,96.84060791879892],[18.351139975931417,63.298635717922735,97.41755204927176],[18.351135425720233,63.29866124156973,98.1156843220815],[18.351125948112873,63.29868270694568,97.10158710554242],[18.351112226102103,63.29870410296194,96.98571131750941],[18.351099519684823,63.29872465805643,96.51997594255954],[18.351106692830438,63.29874428305876,97.0720249954611],[18.35110762151569,63.29876565369066,96.85305125638843],[18.351095068008032,63.298798055003516,96.36868098843843],[18.35108492881638,63.29882588272978,96.04516799747944],[18.351079024125013,63.29885073804623,96.64285411220044],[18.351073059207433,63.29887005176398,96.32680212147534],[18.351050221518634,63.29888960171268,95.52680185995996],[18.351040606386043,63.29892107281589,95.95976133085787],[18.351043540720358,63.29894851737308,96.15935586486012],[18.351061549570304,63.29897689681342,94.76031206734478],[18.351069974818298,63.29900617840289,95.77797135245055],[18.35108745959772,63.299022691044684,96.5675745960325],[18.351099622971766,63.29905039322371,94.17861681990325],[18.351123935361684,63.299076418751035,96.38806040771306],[18.351141080448336,63.29910072784902,96.8326228801161],[18.351152507056923,63.29912028809044,97.03763635549694],[18.35117265195119,63.2991470989267,95.48943784274161],[18.351180465934835,63.299165534053856,96.33289065212011],[18.351176976513276,63.29919285292335,95.24965078942478],[18.351174306342575,63.29921939044917,95.22545791231096],[18.351168589535522,63.299246191562645,96.01451777480543],[18.351169830880664,63.2992646749283,96.92928270157427],[18.351157008552452,63.29928195547711,96.0611877432093],[18.35113739004378,63.2993007224249,95.96150433085859],[18.351088728435368,63.29932297271301,95.00241363886744],[18.35103811141981,63.29933324262301,95.06499531958252],[18.35099576759982,63.29934535076339,95.0779193174094],[18.350949169274976,63.29935016231147,95.85456189792603],[18.350898994191347,63.29935525411482,94.20685582235456],[18.350860523426878,63.29936041390719,94.60068568494171],[18.350814252709792,63.29936761324445,94.56668264139444],[18.350779901736146,63.29937690653301,94.79558705259115],[18.350737148845095,63.29939217048775,94.80838532932103],[18.350699670862856,63.29941840855592,95.33228632435203],[18.35066559195875,63.29943172151396,95.0662806853652],[18.35063611614737,63.299444981356366,94.54844107292593],[18.350616638141194,63.29946321160506,94.64304568059742],[18.350580677650917,63.29948255729966,94.19189213681966],[18.350554273928072,63.29949683842248,94.65320062823594],[18.350517559980563,63.29951851921669,94.37052571773529],[18.350491821383912,63.29953936177838,94.2880346821621],[18.350461742419427,63.29956843290282,93.81456900853664],[18.350442504474138,63.29959499505797,93.89048655051738],[18.3504145829923,63.29961898685617,94.58495102915913],[18.35038901901887,63.29963622784572,93.53131946641952],[18.35035623068704,63.29965377482348,93.09006879571825],[18.350323173922813,63.29967731834275,92.91193166654557],[18.350314124496258,63.299703410073334,93.78840477671474],[18.350318823525935,63.29972690413193,94.09711273666471],[18.35031240822711,63.29974880561762,94.25176329351962],[18.350301964666826,63.29976975746238,93.57687295880169],[18.350264095237666,63.29977949721297,93.16004611272365],[18.350243905533,63.29979885900801,94.73853860795498],[18.350226531290037,63.2998172989223,95.88161092251539],[18.35019918426174,63.29984457173568,95.63007343839854],[18.350185240396897,63.299870746231676,94.94917763862759],[18.350154885327825,63.299891372701595,94.98888126108795],[18.35013490777864,63.29991493246998,95.35865580011159],[18.350114917660957,63.299936016800956,94.73057131282985],[18.35008078540954,63.29995303067113,94.84577411506325],[18.350035123560627,63.29996716168795,95.32313092984259],[18.34997771679216,63.29997481272156,94.42645678948611],[18.349924193296935,63.299979231239,94.41370763164014],[18.34987701857884,63.299977089767154,94.65259782783687],[18.349821037737733,63.29998285492483,95.23137077130377],[18.349775258227265,63.29998718436212,95.81440765503794],[18.34972853398334,63.29999249512346,95.85192459169775],[18.349679769189823,63.30000166146288,96.2045325068757],[18.349608098676583,63.300008184428634,95.55926508549601],[18.349560491198606,63.300011788273,95.55949854571372],[18.349518063868615,63.30001483887568,95.78346484806389],[18.34945747356856,63.30001960481537,95.48778737615794],[18.349402898481344,63.30002334100982,95.12107063084841],[18.349355229386926,63.300024496642976,95.11783523391932],[18.349313589037983,63.300022708099604,94.92127614095807],[18.349258502320733,63.30002317603112,96.03707559406757],[18.349213171076702,63.30002724191332,96.1896951040253],[18.349157295116466,63.30003123720214,96.17204480152577],[18.34911582012713,63.3000322398494,96.01776182372123],[18.349063443736963,63.300030532421175,96.52373663429171],[18.34901164498582,63.30003150426369,96.46594078373164],[18.348968426544463,63.30003706686492,96.00419152341783],[18.348906441635712,63.30003672186502,96.52522162999958],[18.348861498688493,63.30003764007607,96.87082410883158],[18.348812265958408,63.30003851937163,96.99194905627519],[18.348768178447592,63.300040970976525,96.6307378122583],[18.34870986813426,63.30004041893697,97.18578251823783],[18.348656089678666,63.30003870228844,97.21880129538476],[18.348613751358847,63.30003912357388,97.42897323239595],[18.348555767823203,63.30003938709548,97.20323713496327],[18.348510526433063,63.30003917593139,97.26988100260496],[18.34844936273609,63.300039090775165,97.76293294783682],[18.34839790595029,63.30003709967625,97.38441996462643],[18.348345684176007,63.30003437406636,96.80754911713302],[18.34829551860056,63.300033779713324,97.07670992892236],[18.34824276743969,63.300037351312696,97.19873945787549],[18.348202643611994,63.300036169820736,96.6917376127094],[18.348139197828495,63.30002998151984,95.7158280480653],[18.34808114162423,63.300028937117894,96.54862421844155],[18.348023451395022,63.300028393836435,97.15696450974792],[18.347977837753255,63.30003026671218,96.41336861811578],[18.34791436569664,63.30002840383234,96.99781863763928],[18.347856178008566,63.300027134301175,96.55520283523947],[18.347806716057327,63.30002126429519,96.80307904072106],[18.347761059527876,63.30002132638051,96.73242377396673],[18.34770572850469,63.30002351021781,96.48487508296967],[18.34765433186915,63.3000257366978,97.48351221252233],[18.347601571855936,63.30002550719445,97.37451793439686],[18.347549748700565,63.300020777425345,97.33156361337751],[18.347501901819818,63.30002125772031,96.9655479695648],[18.34745558273066,63.300017916409175,96.11679868772626],[18.347408135463088,63.3000166604315,97.5918324412778],[18.34735032992581,63.30001428502963,97.70258871186525],[18.347295375761504,63.300009953736385,97.38615685515106],[18.34724398279653,63.300007928204515,97.97780355345458],[18.347197189590883,63.30000454276161,97.6531377164647],[18.347142324604302,63.30000286184728,97.30862908624113],[18.347091356743952,63.30000309933379,98.25648690573871],[18.34703541183869,63.29999490561159,98.22791298944503],[18.34697808453734,63.29999134641396,100.05407826043665],[18.346939622025243,63.29998232026196,99.63706982694566],[18.346891182232525,63.29997611807954,99.48915161658078],[18.34684169884791,63.2999685431961,101.47155318129808],[18.346795516317673,63.299962105894,100.77089429181069],[18.346755910470307,63.29995627677105,100.10920062661171],[18.34670596644825,63.29994905576462,98.40369222220033],[18.34666253272501,63.29993867442222,99.30716861598194],[18.34661856544493,63.29992965685575,99.05529628507793],[18.346576017636554,63.29992032239687,100.07925486192107],[18.346528537639685,63.299904436703905,99.79443233460188],[18.346495156652807,63.299894434166156,99.64725014660507],[18.346437822920734,63.29989046268052,99.91592790186405],[18.346386030091487,63.29988271817254,101.24660038854927],[18.346351768829606,63.29986222915938,100.05764760822058],[18.346323461688907,63.29984637673223,100.74560270551592],[18.346279758121444,63.29983925123138,102.16291208658367],[18.3462322671665,63.299826228247426,102.77115975599736],[18.346195623911605,63.299811472732635,102.89326190855354],[18.346153802178947,63.29979509414734,102.89290620293468],[18.346122757326572,63.2997828535162,102.41835808381438],[18.346074378581026,63.299769032365816,103.06411014311016],[18.346036015276034,63.299756887996985,102.97337203007191],[18.346000571147286,63.29974461247177,103.18835180532187],[18.34596511779547,63.29972877793546,102.08872903697193],[18.345916154030157,63.29970988185659,103.03266136255115],[18.345876786900806,63.29969327635598,103.29086098074913],[18.345841885737133,63.29968099582643,103.73470584023744],[18.345799965070167,63.299662504745626,104.32404988072813],[18.345759779746356,63.29964424247316,102.03640519175678],[18.345716544212742,63.299630634727336,103.62752267438918],[18.345682402283558,63.29961643625936,103.31865557655692],[18.345643055746365,63.29960134818749,103.83790920116007],[18.345606993310763,63.2995849920938,104.20289507415146],[18.345562003650006,63.29956862409026,105.20001086965203],[18.345510247367784,63.299556408417466,106.41187762003392],[18.34546843525371,63.29953787875035,106.88881240785122],[18.345444876590882,63.2995196093954,105.66728476062417],[18.345387545847952,63.29949628817129,106.31164554692805],[18.34534023237134,63.299481797142754,106.68998470902443],[18.345305742038146,63.299460719851346,106.18956758547574],[18.345267651539018,63.29943977675833,106.49065649975091],[18.34523550403113,63.29942436020747,106.54691295698285],[18.345201873279418,63.299400723910274,106.00641983281821],[18.345153481551556,63.29938529572756,107.32914526574314],[18.34511190982851,63.29936899660909,105.98777592275292],[18.34506668816685,63.29935801585218,106.21081529092044],[18.34502257878137,63.29934930937622,107.2567087803036],[18.344980803887115,63.29933588282441,105.79113124776632],[18.344926669117257,63.29933587874732,104.21238714642823],[18.344891240690274,63.299325705923636,104.69661634042859],[18.34484513425729,63.29931387832277,105.73338788561523],[18.3448097824167,63.29930436773056,104.1403092937544],[18.34476073233035,63.29930084116128,104.03414482623339],[18.344718964955756,63.29930338199918,103.780482086353],[18.344674092985453,63.29929893781337,103.76670205406845],[18.344598490891748,63.299289288419935,104.785912620835],[18.34453747861277,63.29928336965742,105.7697930233553],[18.344469664905613,63.29928608909416,107.04090347047895],[18.34442431208202,63.29928659181345,106.67123226635158],[18.344368612522022,63.299287769934494,106.6412690076977],[18.344319356295763,63.29928232969098,106.62041124049574],[18.34425556585753,63.299274249093806,107.6748963650316],[18.344205127555245,63.29926852314618,107.20286250021309],[18.34416378324803,63.29926563526731,105.53448852244765],[18.344090228341056,63.29926338635798,106.68355058599263],[18.344046817941322,63.299264679449564,107.29736276622862],[18.34398786806108,63.29926643382372,107.12015442643315],[18.34393278700348,63.29925819564499,106.64528272300959],[18.34389455771328,63.299249945016115,107.83943755645305],[18.34383836665852,63.29924210266429,107.83421377744526],[18.34378286898208,63.29923774441127,107.19675430096686],[18.34372641724688,63.299224987280866,107.6366991493851],[18.3436594624015,63.29920960085508,107.1877689640969],[18.343596094587305,63.29920085163266,105.66465557552874],[18.343561480394914,63.29919081841246,105.83350739721209],[18.34350817478451,63.299177359714584,106.22776906285435],[18.343447995756055,63.29916473409165,105.88243756815791],[18.343379940942626,63.29914459371711,105.88855671137571],[18.34333094190801,63.299132745187684,105.78748951014131],[18.34327113911154,63.29912067064041,105.54337606951594],[18.34321698563722,63.29910128462853,105.78046933934093],[18.343148711189,63.299081334816634,106.2301832139492],[18.34309063909266,63.29906841768301,105.95634091179818],[18.343032461838167,63.29905312950149,106.96593515854329],[18.34297187048357,63.29904024018189,106.12356746941805],[18.34291072578549,63.2990293441802,106.53223247546703],[18.342849199475776,63.299024531484605,106.97929257713258],[18.342785419758822,63.29901940566925,107.78734269551933],[18.342740020523895,63.29900834301613,106.19724290911108],[18.342687929226642,63.29900004902088,106.43086434807628],[18.34263238419068,63.2989960797322,107.164935272187],[18.34256794211178,63.29899584363674,106.09618712123483],[18.34250268868818,63.29900167995006,105.88522783759981],[18.342438176396318,63.29900581371172,106.07518528122455],[18.342379353731815,63.299004451419584,106.13879452552646],[18.342322189294215,63.29900333783265,105.48307132162154],[18.34226308512692,63.29900268156125,105.95967705920339],[18.34220404781012,63.299008673088245,105.11409718263894],[18.342142339700903,63.299014608384894,106.53061836957932],[18.34207617445329,63.29901689767457,106.52956658788025],[18.34200938412929,63.299018770571486,106.62582698836923],[18.34194458497391,63.29901337795157,106.73569260817021],[18.34188628233196,63.29901017844062,105.71507353335619],[18.34182698694159,63.29901133470968,105.75841744430363],[18.341766203515043,63.29901023046574,104.75661298818886],[18.341707924568063,63.29901856983972,104.5968260364607],[18.34164458197729,63.299017823774186,103.91303309705108],[18.34158354959512,63.29901831425999,104.47651464585215],[18.34152596193144,63.2990296563192,104.12920174375176],[18.341464292226945,63.29904026028904,104.84803132899106],[18.341409706361716,63.29905210102617,104.73725298047066],[18.34135461717527,63.29906156153002,104.55183097720146],[18.341307600346642,63.299076130932065,104.48957029730082],[18.341258454664057,63.29908766998397,104.44313621427864],[18.341202626948448,63.29909211587826,103.5080535877496],[18.341142223274275,63.299099657707366,104.5289517454803],[18.341085043320373,63.29910372339637,103.87189976032823],[18.341028920657635,63.299111623228335,104.59150596894324],[18.340967906908855,63.299111996794274,103.36750265862793],[18.340902387255035,63.29911555760565,104.69931888207793],[18.340845824678087,63.299119438847946,103.90442425385118],[18.340800660297962,63.29913238679346,104.31765893101692],[18.340748159566765,63.29914244453216,104.24778414145112],[18.34068505138781,63.299134772497986,103.64036261104047],[18.34062649342545,63.299141006512,103.21251644007862],[18.340571727891327,63.29915054676789,103.42972131539136],[18.34052067304818,63.299164296438875,103.53231859114021],[18.34045982723976,63.299175517304704,104.03408877272159],[18.340401103756417,63.29918453492268,104.31603365205228],[18.340342961657466,63.29919302677648,104.66649085655808],[18.340288007758488,63.29919809563109,103.75383340660483],[18.3402390832691,63.29921444650199,103.96876378171146],[18.340184872732255,63.29922169119428,103.98978013172746],[18.34013638568479,63.29923188639698,103.82711653597653],[18.340094894561005,63.29924903079453,103.31321879755706],[18.340044709900138,63.299263930931275,102.72794278897345],[18.339992186491518,63.29927694873179,103.23885565344244],[18.33995205963206,63.29929487107776,102.94924984034151],[18.339906700271758,63.29931216004113,102.85876458976418],[18.339870482132728,63.29933318260575,102.67174346651882],[18.339826774087765,63.29935179888932,102.3098156992346],[18.339792975589194,63.2993710590179,102.90498723834753],[18.339755105839888,63.299389794192415,102.23481415584683],[18.339711703299326,63.29940649049696,102.06440275348723],[18.33967160078959,63.2994261162779,102.01475365273654],[18.33963964443842,63.29944956021114,101.73427212797105],[18.339597795772498,63.29947042794891,100.17594894673675],[18.339576060184893,63.29949362488241,100.49405406694859],[18.339546704202743,63.29951625992918,100.39675296097994],[18.339506608528655,63.29953603617225,100.10742187686265],[18.339463349171893,63.29955610110711,99.77481092140079],[18.339427768242704,63.29957706390739,101.36517608445138],[18.339403747827284,63.2996016779362,100.62745756562799],[18.339389580739507,63.29962549748567,102.1325131682679],[18.339390885743338,63.29965069983023,102.60941545944661],[18.339375291067075,63.29967703753149,102.15023292507976],[18.339360874480185,63.29970214935245,101.3710011895746],[18.339344611364062,63.29972875232614,101.86432854924351],[18.339320378849685,63.299752292930314,101.5873596901074],[18.339300939618724,63.299779146838894,102.18923415895551],[18.33928851256209,63.299807136993834,101.74760686978698],[18.33927423655638,63.29983259703275,102.03908176254481],[18.339251961854348,63.29985563522604,102.37383299693465],[18.33922027064093,63.29987903200517,102.14581917133182],[18.339186085659584,63.29989766056344,101.58232421707362],[18.339139308286867,63.299917854507676,101.72385950479656],[18.339100505920477,63.299935918930075,101.8179404810071],[18.33905700627636,63.29995226361704,101.43148164264858],[18.339001901206355,63.29996446605813,101.87826637737453],[18.33894496383483,63.299977323899554,101.25040188524872],[18.338879105925162,63.299983659475295,101.83200256992131],[18.33881443135449,63.29999069594326,101.99737825151533],[18.338746212817064,63.29998489874888,100.38113478571177],[18.338686654985086,63.299986082653675,101.75482011307031],[18.338633969422176,63.29999398885416,103.52303524687886],[18.33857353091226,63.299990812016404,103.78445451427251],[18.33852338648971,63.29998710833613,105.20238543488085],[18.33846822571799,63.29998844727293,104.07424142491072],[18.338413356458954,63.299985292704434,102.5025889063254],[18.338352835225486,63.29998227663826,103.72655674815178],[18.338293849908894,63.299984438759424,104.147181824781],[18.338251288511415,63.29998323507446,103.86539395339787],[18.33818761335629,63.29998493704471,102.87640872783959],[18.338117947178834,63.299984629959035,103.1616450631991],[18.33803966963992,63.299984710777686,104.76995590515435],[18.33797932415202,63.29998797150129,103.62621402554214],[18.337924092867357,63.29999297515648,104.46353494655341],[18.33787004601604,63.29998888161693,104.31026248261333],[18.33781602503941,63.29999084805898,104.49553787335753],[18.337760312876714,63.29998714723007,105.02022848557681],[18.33771539255337,63.29998222020447,104.22733285743743],[18.337657363280492,63.29998137025803,104.07423228211701],[18.337584214338946,63.299982170799105,105.04249794781208],[18.33753061779774,63.29997972262588,103.53434722777456],[18.33747258407922,63.29998139121551,103.73093793448061],[18.337401745514544,63.29998223923893,104.23576856497675],[18.337342195740618,63.299980204908664,104.11555190570652],[18.3372802740086,63.29998031358742,104.16782105527818],[18.337217786327912,63.29998283427389,105.77108615636826],[18.337153225416213,63.29998273367694,105.84043853450567],[18.33711287110779,63.29997875064974,104.93313376419246],[18.337068224040273,63.29998296856467,104.74603349901736],[18.33700908016741,63.299986845241044,104.70746038574725],[18.336967815685497,63.299991817739844,104.47063624951988],[18.336910351421835,63.29999008609014,103.6647928468883],[18.336848925155802,63.2999954286286,103.87865204364061],[18.336791169904075,63.29999851979117,103.19196791760623],[18.33674884983208,63.3000031468124,103.0021387282759],[18.336692934310346,63.30000616486739,102.76516336295754],[18.33663090422872,63.300008336575175,103.64495348650962],[18.33657837126282,63.300008825860935,103.61576500535011],[18.336510628228016,63.300012502378884,103.75749092549086],[18.336439581093376,63.300015452639116,104.04591498803347],[18.336386038781686,63.30001194967132,103.61709921434522],[18.33632040747346,63.30001050942883,104.10397477541119],[18.336262458609156,63.300022231081336,104.10381745919585],[18.33620471005159,63.30002828591388,103.8509813491255],[18.336158817515003,63.30003260426337,103.55709552858025],[18.33610650627941,63.300031456833175,103.89304573182017],[18.336040336445002,63.30003396145315,103.57048989832401],[18.335989496513346,63.300039880646864,103.2169715501368],[18.335941595219655,63.300043646392815,102.71099353674799],[18.335885955965452,63.30004868463359,102.80959117598832],[18.335825018943257,63.30004316790608,103.16653829719871],[18.3357731202456,63.300039093727264,103.41854329966009],[18.335723321713186,63.30004158191621,104.31217025499791],[18.335656002585285,63.30004119941563,104.4688709108159],[18.335589853896717,63.300039768752825,104.51792934536934],[18.335526274161868,63.30003713580139,104.56728819850832],[18.33546726672137,63.300033913013,103.22122679278255],[18.3354069812801,63.30003177045253,103.00057539716363],[18.335345364714204,63.30003572501667,101.91464802715927],[18.33528901372363,63.30004014600352,101.36256368737668],[18.335234093679325,63.30005253372293,102.56925570592284],[18.335194682524197,63.300076936898655,102.90185074880719],[18.335163257075003,63.300099894892945,101.80503842234612],[18.335141423360874,63.30012559895089,101.71899849828333],[18.335100192605513,63.30014299919349,101.43969179317355],[18.335057705927277,63.30016146594284,101.64772930834442],[18.335014366567346,63.30017817694362,100.86353967245668],[18.334971149603057,63.300194585632795,101.11794710531831],[18.33492748193519,63.300209386359235,100.67079364415258],[18.334882504015724,63.300224652799194,101.1573329064995],[18.33483332894298,63.30023691048106,101.52107970416546],[18.3347857908601,63.30025395769391,101.01634263340384],[18.334745235690228,63.30027095315638,100.92421809211373],[18.33469806959641,63.30028450618549,100.83271965943277],[18.33464391563871,63.30029424921627,100.45768750365824],[18.33459416797772,63.30031121522614,100.63588348962367],[18.334542959286704,63.300323127567935,101.45762895233929],[18.334490373530485,63.30033459939568,101.19973743986338],[18.334434209460934,63.3003463491772,100.57311744708568],[18.3343791372435,63.30035866335975,100.49959246907383],[18.334327471549788,63.300370479048496,100.42858385108411],[18.33426949170786,63.30038430040438,100.98215044196695],[18.334211774102656,63.30039154612004,100.4862061701715],[18.334157959142072,63.300393960599735,100.12038677744567],[18.33411452996069,63.30040083406141,100.55731723736972],[18.33406758782066,63.30040852372168,101.72944543883204],[18.334017461964656,63.30041558949306,102.1497564651072],[18.333966635697177,63.30042275400045,101.99406451638788],[18.33391062561855,63.300430649219265,102.38663060683757],[18.33386278013624,63.30044314240381,101.42699500266463],[18.333809691955963,63.30045236419507,102.1076745390892],[18.333758573401678,63.30045840105507,101.35475093126297],[18.333707492797082,63.30046443342829,101.15626895334572],[18.333645702335392,63.30047173058478,101.98359730094671],[18.333585577927217,63.30047883099518,101.20910364855081],[18.333528805505185,63.300485535547075,100.73742773290724],[18.3334692569746,63.30049249325585,100.49490883015096],[18.333410917191287,63.30050006278386,100.98380178119987],[18.333346473402475,63.300508424305434,100.5431150905788],[18.33328937797112,63.3005166607612,100.54966669809073],[18.333234411357232,63.30052511941736,100.19068901985884],[18.333174611246324,63.30053432188034,100.2430513612926],[18.333113914053463,63.30054408115098,99.41641000565141],[18.33305689541751,63.300553922180335,99.38350612297654],[18.332998276393848,63.300564155270756,99.84153142478317],[18.33294667135509,63.30057332253997,99.51380752399564],[18.33288754698236,63.300584065544875,99.47514700051397],[18.33283020316827,63.30059499898495,98.76343335025012],[18.33276829551985,63.300606802576446,98.81219674274325],[18.33271202320528,63.3006175317151,98.1590606532991],[18.332652469617525,63.300628886472666,98.39615039154887],[18.332590976368788,63.30064061105313,98.40294839628041],[18.332530698907124,63.30065210383086,97.69507537409663],[18.33247259710322,63.300663181782205,97.8611992271617],[18.332412122237432,63.30067471219626,98.52903210557997],[18.33234691951025,63.300687566943616,99.16077981237322],[18.332281993430243,63.30070045794369,99.33939852472395],[18.332220563145327,63.300712220285114,99.88557352125645],[18.332159682382652,63.30072337421116,100.30008950456977],[18.332105604538118,63.30073328178578,99.15990338660777],[18.332048282910655,63.30074378365216,99.18311284668744],[18.33199503762333,63.30075353868813,98.24441594351083],[18.331939041323952,63.30076379773861,98.52196363545954],[18.331881400657416,63.30077435805553,97.80308284796774],[18.331821476501876,63.30078485065964,98.31816736608744],[18.331765272408713,63.30079605918682,97.77919807936996],[18.33171080342599,63.30080705018226,98.27142158523202],[18.331652148741153,63.30081941826319,98.48767215386033],[18.331590320066024,63.300833434647366,98.52282515075058],[18.331532266960533,63.300847166942106,97.95855532214046],[18.331478249590216,63.30085994459086,98.59956393856555],[18.331418269938485,63.3008750596545,98.19740251172334],[18.331346862316085,63.30090168774235,97.8983893180266],[18.331320161820916,63.30091668285831,97.60550533048809],[18.331298454725463,63.30093224493535,97.87571441475302],[18.331267469745118,63.30095832986441,97.50993941351771],[18.331253492737105,63.30097634274228,97.6220627548173],[18.33123308875847,63.301005986997744,97.48007990978658],[18.33121732719888,63.301032982169716,96.93288049846888],[18.331204059294283,63.3010597538095,96.74728377722204],[18.33119115294441,63.301086530295684,96.8555126003921],[18.331178327402306,63.301115553986726,97.07102733943611],[18.331166529896826,63.30114310836991,96.92540780920535],[18.331155910968242,63.301170861505625,97.19148206524551],[18.33114490573139,63.30119801446008,97.12907083425671],[18.33113400859039,63.30122490070877,96.71390158403665],[18.331123079480864,63.30124846171801,95.48498494923115],[18.331113618912216,63.30127482639505,96.55641381070018],[18.331107868609145,63.30130301999217,96.63245196733624],[18.33110241253617,63.301329771043655,96.4596891105175],[18.33109679449377,63.301357316204395,96.93029661942273],[18.33109404653054,63.301383310039284,96.4979670746252],[18.331090877259392,63.30141052205634,96.52962542977184],[18.331087662710864,63.301438122839905,96.37030052486807],[18.33108443222,63.30146586050117,96.01362543273717],[18.331081431625883,63.3014916242335,95.61392955388874],[18.331076851653343,63.301518697995355,96.0993756307289],[18.33106935539983,63.30154268672427,97.17069277539849],[18.331069009854282,63.301520810575354,98.42360826767981],[18.331108538864118,63.3015417348511,95.33891180250794]]}}]}