{"type":"FeatureCollection","features":[{"type":"Feature","properties":{"_gpxType":"trk","time":"2026-05-22T12:36:44Z","coordinateProperties":{"times":["2026-05-22T12:36:44Z","2026-05-22T12:36:46Z","2026-05-22T12:36:48Z","2026-05-22T12:36:50Z","2026-05-22T12:36:52Z","2026-05-22T12:36:54Z","2026-05-22T12:36:56Z","2026-05-22T12:36:58Z","2026-05-22T12:37:00Z","2026-05-22T12:37:02Z","2026-05-22T12:37:04Z","2026-05-22T12:37:06Z","2026-05-22T12:37:08Z","2026-05-22T12:37:10Z","2026-05-22T12:37:12Z","2026-05-22T12:37:14Z","2026-05-22T12:37:16Z","2026-05-22T12:37:18Z","2026-05-22T12:37:20Z","2026-05-22T12:37:22Z","2026-05-22T12:37:24Z","2026-05-22T12:37:26Z","2026-05-22T12:37:28Z","2026-05-22T12:37:30Z","2026-05-22T12:37:32Z","2026-05-22T12:37:34Z","2026-05-22T12:37:36Z","2026-05-22T12:37:38Z","2026-05-22T12:37:40Z","2026-05-22T12:37:42Z","2026-05-22T12:37:44Z","2026-05-22T12:37:46Z","2026-05-22T12:37:48Z","2026-05-22T12:37:50Z","2026-05-22T12:37:52Z","2026-05-22T12:37:54Z","2026-05-22T12:37:56Z","2026-05-22T12:37:58Z","2026-05-22T12:38:00Z","2026-05-22T12:38:02Z","2026-05-22T12:38:04Z","2026-05-22T12:38:06Z","2026-05-22T12:38:08Z","2026-05-22T12:38:10Z","2026-05-22T12:38:12Z","2026-05-22T12:38:14Z","2026-05-22T12:38:16Z","2026-05-22T12:38:18Z","2026-05-22T12:38:20Z","2026-05-22T12:38:22Z","2026-05-22T12:38:24Z","2026-05-22T12:38:26Z","2026-05-22T12:38:28Z","2026-05-22T12:38:30Z","2026-05-22T12:38:32Z","2026-05-22T12:38:34Z","2026-05-22T12:38:36Z","2026-05-22T12:38:38Z","2026-05-22T12:38:40Z","2026-05-22T12:38:42Z","2026-05-22T12:38:44Z","2026-05-22T12:38:46Z","2026-05-22T12:38:48Z","2026-05-22T12:38:50Z","2026-05-22T12:38:52Z","2026-05-22T12:38:54Z","2026-05-22T12:38:56Z","2026-05-22T12:38:58Z","2026-05-22T12:39:00Z","2026-05-22T12:39:02Z","2026-05-22T12:39:04Z","2026-05-22T12:39:06Z","2026-05-22T12:39:08Z","2026-05-22T12:39:10Z","2026-05-22T12:39:12Z","2026-05-22T12:39:14Z","2026-05-22T12:39:16Z","2026-05-22T12:39:18Z","2026-05-22T12:39:20Z","2026-05-22T12:39:22Z","2026-05-22T12:39:24Z","2026-05-22T12:39:26Z","2026-05-22T12:39:28Z","2026-05-22T12:39:30Z","2026-05-22T12:39:32Z","2026-05-22T12:39:34Z","2026-05-22T12:39:36Z","2026-05-22T12:39:38Z","2026-05-22T12:39:40Z","2026-05-22T12:39:42Z","2026-05-22T12:39:44Z","2026-05-22T12:39:46Z","2026-05-22T12:39:48Z","2026-05-22T12:39:50Z","2026-05-22T12:39:52Z","2026-05-22T12:39:54Z","2026-05-22T12:39:56Z","2026-05-22T12:39:58Z","2026-05-22T12:40:00Z","2026-05-22T12:40:02Z","2026-05-22T12:40:04Z","2026-05-22T12:40:06Z","2026-05-22T12:40:08Z","2026-05-22T12:40:10Z","2026-05-22T12:40:12Z","2026-05-22T12:40:14Z","2026-05-22T12:40:16Z","2026-05-22T12:40:18Z","2026-05-22T12:40:20Z","2026-05-22T12:40:22Z","2026-05-22T12:40:24Z","2026-05-22T12:40:26Z","2026-05-22T12:40:28Z","2026-05-22T12:40:30Z","2026-05-22T12:40:32Z","2026-05-22T12:40:34Z","2026-05-22T12:40:36Z","2026-05-22T12:40:38Z","2026-05-22T12:40:40Z","2026-05-22T12:40:42Z","2026-05-22T12:40:44Z","2026-05-22T12:40:46Z","2026-05-22T12:40:48Z","2026-05-22T12:40:50Z","2026-05-22T12:40:52Z","2026-05-22T12:40:54Z","2026-05-22T12:40:56Z","2026-05-22T12:40:58Z","2026-05-22T12:41:00Z","2026-05-22T12:41:02Z","2026-05-22T12:41:04Z","2026-05-22T12:41:06Z","2026-05-22T12:41:08Z","2026-05-22T12:41:10Z","2026-05-22T12:41:12Z","2026-05-22T12:41:14Z","2026-05-22T12:41:16Z","2026-05-22T12:41:18Z","2026-05-22T12:41:20Z","2026-05-22T12:41:22Z","2026-05-22T12:41:24Z","2026-05-22T12:41:26Z","2026-05-22T12:41:28Z","2026-05-22T12:41:30Z","2026-05-22T12:41:32Z","2026-05-22T12:41:34Z","2026-05-22T12:41:36Z","2026-05-22T12:41:38Z","2026-05-22T12:41:40Z","2026-05-22T12:41:42Z","2026-05-22T12:41:44Z","2026-05-22T12:41:46Z","2026-05-22T12:41:48Z","2026-05-22T12:41:50Z","2026-05-22T12:41:52Z","2026-05-22T12:41:54Z","2026-05-22T12:41:56Z","2026-05-22T12:41:58Z","2026-05-22T12:42:00Z","2026-05-22T12:42:02Z","2026-05-22T12:42:04Z","2026-05-22T12:42:06Z","2026-05-22T12:42:08Z","2026-05-22T12:42:12Z","2026-05-22T12:42:15Z","2026-05-22T12:42:17Z","2026-05-22T12:42:18Z","2026-05-22T12:42:19Z","2026-05-22T12:42:20Z","2026-05-22T12:42:21Z","2026-05-22T12:42:22Z","2026-05-22T12:42:23Z","2026-05-22T12:42:26Z","2026-05-22T12:42:28Z","2026-05-22T12:42:30Z","2026-05-22T12:42:33Z","2026-05-22T12:42:35Z","2026-05-22T12:42:37Z","2026-05-22T12:42:38Z","2026-05-22T12:42:40Z","2026-05-22T12:42:42Z","2026-05-22T12:42:44Z","2026-05-22T12:42:46Z","2026-05-22T12:42:48Z","2026-05-22T12:42:50Z","2026-05-22T12:42:52Z","2026-05-22T12:42:55Z","2026-05-22T12:42:56Z","2026-05-22T12:42:58Z","2026-05-22T12:43:00Z","2026-05-22T12:43:02Z","2026-05-22T12:43:04Z","2026-05-22T12:43:06Z","2026-05-22T12:43:08Z","2026-05-22T12:43:10Z","2026-05-22T12:43:12Z","2026-05-22T12:43:14Z","2026-05-22T12:43:16Z","2026-05-22T12:43:18Z","2026-05-22T12:43:20Z","2026-05-22T12:43:22Z","2026-05-22T12:43:24Z","2026-05-22T12:43:26Z","2026-05-22T12:43:28Z","2026-05-22T12:43:30Z","2026-05-22T12:43:32Z","2026-05-22T12:43:34Z","2026-05-22T12:43:36Z","2026-05-22T12:43:38Z","2026-05-22T12:43:40Z","2026-05-22T12:43:42Z","2026-05-22T12:43:44Z","2026-05-22T12:43:46Z","2026-05-22T12:43:48Z","2026-05-22T12:43:50Z","2026-05-22T12:43:52Z","2026-05-22T12:43:54Z","2026-05-22T12:43:56Z","2026-05-22T12:43:58Z","2026-05-22T12:44:00Z","2026-05-22T12:44:02Z","2026-05-22T12:44:04Z","2026-05-22T12:44:06Z","2026-05-22T12:44:08Z","2026-05-22T12:44:11Z","2026-05-22T12:44:13Z","2026-05-22T12:44:15Z","2026-05-22T12:44:17Z","2026-05-22T12:44:19Z","2026-05-22T12:44:21Z","2026-05-22T12:44:23Z","2026-05-22T12:44:25Z","2026-05-22T12:44:27Z","2026-05-22T12:44:29Z","2026-05-22T12:44:31Z","2026-05-22T12:44:33Z","2026-05-22T12:44:35Z","2026-05-22T12:44:37Z","2026-05-22T12:44:39Z","2026-05-22T12:44:41Z","2026-05-22T12:44:43Z","2026-05-22T12:44:45Z","2026-05-22T12:44:48Z","2026-05-22T12:44:50Z","2026-05-22T12:44:52Z","2026-05-22T12:44:54Z","2026-05-22T12:44:57Z","2026-05-22T12:45:00Z","2026-05-22T12:45:02Z","2026-05-22T12:45:05Z","2026-05-22T12:45:07Z","2026-05-22T12:45:09Z","2026-05-22T12:45:11Z","2026-05-22T12:45:13Z","2026-05-22T12:45:15Z","2026-05-22T12:45:17Z","2026-05-22T12:45:19Z","2026-05-22T12:45:21Z","2026-05-22T12:45:23Z","2026-05-22T12:45:25Z","2026-05-22T12:45:27Z","2026-05-22T12:45:29Z","2026-05-22T12:45:31Z","2026-05-22T12:45:33Z","2026-05-22T12:45:35Z","2026-05-22T12:45:37Z","2026-05-22T12:45:39Z","2026-05-22T12:45:41Z","2026-05-22T12:45:43Z","2026-05-22T12:45:45Z","2026-05-22T12:45:47Z","2026-05-22T12:45:49Z","2026-05-22T12:45:51Z","2026-05-22T12:45:53Z","2026-05-22T12:45:55Z","2026-05-22T12:45:57Z","2026-05-22T12:45:59Z","2026-05-22T12:46:01Z","2026-05-22T12:46:03Z","2026-05-22T12:46:05Z","2026-05-22T12:46:07Z","2026-05-22T12:46:09Z","2026-05-22T12:46:11Z","2026-05-22T12:46:13Z","2026-05-22T12:46:15Z","2026-05-22T12:46:17Z","2026-05-22T12:46:19Z","2026-05-22T12:46:21Z","2026-05-22T12:46:23Z","2026-05-22T12:46:25Z","2026-05-22T12:46:27Z","2026-05-22T12:46:29Z","2026-05-22T12:46:31Z","2026-05-22T12:46:33Z","2026-05-22T12:46:35Z","2026-05-22T12:46:37Z","2026-05-22T12:46:39Z","2026-05-22T12:46:41Z","2026-05-22T12:46:43Z","2026-05-22T12:46:45Z","2026-05-22T12:46:47Z","2026-05-22T12:46:49Z","2026-05-22T12:46:51Z","2026-05-22T12:46:53Z","2026-05-22T12:46:55Z","2026-05-22T12:46:57Z","2026-05-22T12:46:59Z","2026-05-22T12:47:01Z","2026-05-22T12:47:03Z","2026-05-22T12:47:05Z","2026-05-22T12:47:07Z","2026-05-22T12:47:09Z","2026-05-22T12:47:11Z","2026-05-22T12:47:13Z","2026-05-22T12:47:15Z","2026-05-22T12:47:17Z","2026-05-22T12:47:19Z","2026-05-22T12:47:21Z","2026-05-22T12:47:23Z","2026-05-22T12:47:25Z","2026-05-22T12:47:27Z","2026-05-22T12:47:29Z","2026-05-22T12:47:31Z","2026-05-22T12:47:33Z","2026-05-22T12:47:35Z","2026-05-22T12:47:37Z","2026-05-22T12:47:39Z","2026-05-22T12:47:41Z","2026-05-22T12:47:43Z","2026-05-22T12:47:45Z","2026-05-22T12:47:47Z","2026-05-22T12:47:49Z","2026-05-22T12:47:51Z","2026-05-22T12:47:53Z","2026-05-22T12:47:55Z","2026-05-22T12:47:57Z","2026-05-22T12:47:59Z","2026-05-22T12:48:01Z","2026-05-22T12:48:03Z","2026-05-22T12:48:05Z","2026-05-22T12:48:07Z","2026-05-22T12:48:09Z","2026-05-22T12:48:11Z","2026-05-22T12:48:13Z","2026-05-22T12:48:15Z","2026-05-22T12:48:17Z","2026-05-22T12:48:19Z","2026-05-22T12:48:21Z","2026-05-22T12:48:23Z","2026-05-22T12:48:25Z","2026-05-22T12:48:27Z","2026-05-22T12:48:29Z","2026-05-22T12:48:31Z","2026-05-22T12:48:33Z","2026-05-22T12:48:35Z","2026-05-22T12:48:37Z","2026-05-22T12:48:39Z","2026-05-22T12:48:41Z","2026-05-22T12:48:43Z","2026-05-22T12:48:45Z","2026-05-22T12:48:47Z","2026-05-22T12:48:49Z","2026-05-22T12:48:51Z","2026-05-22T12:48:53Z","2026-05-22T12:48:55Z","2026-05-22T12:48:57Z","2026-05-22T12:48:59Z","2026-05-22T12:49:01Z","2026-05-22T12:49:03Z","2026-05-22T12:49:05Z","2026-05-22T12:49:07Z","2026-05-22T12:49:09Z","2026-05-22T12:49:11Z","2026-05-22T12:49:13Z","2026-05-22T12:49:15Z","2026-05-22T12:49:17Z","2026-05-22T12:49:19Z","2026-05-22T12:49:21Z","2026-05-22T12:49:23Z","2026-05-22T12:49:25Z","2026-05-22T12:49:27Z","2026-05-22T12:49:29Z","2026-05-22T12:49:31Z","2026-05-22T12:49:33Z","2026-05-22T12:49:35Z","2026-05-22T12:49:37Z","2026-05-22T12:49:39Z","2026-05-22T12:49:41Z","2026-05-22T12:49:43Z","2026-05-22T12:49:45Z","2026-05-22T12:49:47Z","2026-05-22T12:49:49Z","2026-05-22T12:49:51Z","2026-05-22T12:49:53Z","2026-05-22T12:49:55Z","2026-05-22T12:49:57Z","2026-05-22T12:49:59Z","2026-05-22T12:50:01Z","2026-05-22T12:50:03Z","2026-05-22T12:50:05Z","2026-05-22T12:50:07Z","2026-05-22T12:50:09Z","2026-05-22T12:50:11Z","2026-05-22T12:50:13Z","2026-05-22T12:50:15Z","2026-05-22T12:50:17Z","2026-05-22T12:50:19Z","2026-05-22T12:50:21Z","2026-05-22T12:50:23Z","2026-05-22T12:50:25Z","2026-05-22T12:50:27Z","2026-05-22T12:50:29Z","2026-05-22T12:50:31Z","2026-05-22T12:50:33Z","2026-05-22T12:50:35Z","2026-05-22T12:50:37Z","2026-05-22T12:50:39Z","2026-05-22T12:50:41Z","2026-05-22T12:50:43Z","2026-05-22T12:50:45Z","2026-05-22T12:50:47Z","2026-05-22T12:50:49Z","2026-05-22T12:50:51Z","2026-05-22T12:50:53Z","2026-05-22T12:50:55Z","2026-05-22T12:50:57Z","2026-05-22T12:50:59Z","2026-05-22T12:51:01Z","2026-05-22T12:51:03Z","2026-05-22T12:51:05Z","2026-05-22T12:51:07Z","2026-05-22T12:51:09Z","2026-05-22T12:51:11Z","2026-05-22T12:51:13Z","2026-05-22T12:51:15Z","2026-05-22T12:51:17Z","2026-05-22T12:51:19Z","2026-05-22T12:51:21Z","2026-05-22T12:51:23Z","2026-05-22T12:51:25Z","2026-05-22T12:51:27Z","2026-05-22T12:51:29Z","2026-05-22T12:51:31Z","2026-05-22T12:51:33Z","2026-05-22T12:51:35Z","2026-05-22T12:51:37Z","2026-05-22T12:51:39Z","2026-05-22T12:51:41Z","2026-05-22T12:51:43Z","2026-05-22T12:51:45Z","2026-05-22T12:51:47Z","2026-05-22T12:51:49Z","2026-05-22T12:51:51Z","2026-05-22T12:51:53Z","2026-05-22T12:51:55Z","2026-05-22T12:51:57Z","2026-05-22T12:51:59Z","2026-05-22T12:52:01Z","2026-05-22T12:52:03Z","2026-05-22T12:52:05Z","2026-05-22T12:52:07Z","2026-05-22T12:52:09Z","2026-05-22T12:52:11Z","2026-05-22T12:52:13Z","2026-05-22T12:52:15Z","2026-05-22T12:52:17Z","2026-05-22T12:52:19Z","2026-05-22T12:52:21Z","2026-05-22T12:52:23Z","2026-05-22T12:52:25Z","2026-05-22T12:52:27Z","2026-05-22T12:52:29Z","2026-05-22T12:52:31Z","2026-05-22T12:52:33Z","2026-05-22T12:52:35Z","2026-05-22T12:52:37Z","2026-05-22T12:52:39Z","2026-05-22T12:52:42Z","2026-05-22T12:52:47Z","2026-05-22T12:52:49Z","2026-05-22T12:52:51Z","2026-05-22T12:52:52Z","2026-05-22T12:52:53Z","2026-05-22T12:52:54Z","2026-05-22T12:52:55Z","2026-05-22T12:52:56Z","2026-05-22T12:52:58Z","2026-05-22T12:53:00Z","2026-05-22T12:53:03Z","2026-05-22T12:53:05Z","2026-05-22T12:53:07Z","2026-05-22T12:53:09Z","2026-05-22T12:53:11Z","2026-05-22T12:53:13Z","2026-05-22T12:53:15Z","2026-05-22T12:53:17Z","2026-05-22T12:53:20Z","2026-05-22T12:53:22Z","2026-05-22T12:53:24Z","2026-05-22T12:53:26Z","2026-05-22T12:53:28Z","2026-05-22T12:53:30Z","2026-05-22T12:53:32Z","2026-05-22T12:53:35Z","2026-05-22T12:53:37Z","2026-05-22T12:53:39Z","2026-05-22T12:53:41Z","2026-05-22T12:53:43Z","2026-05-22T12:53:45Z","2026-05-22T12:53:47Z","2026-05-22T12:53:49Z","2026-05-22T12:53:51Z","2026-05-22T12:53:53Z","2026-05-22T12:53:55Z","2026-05-22T12:53:57Z","2026-05-22T12:53:59Z","2026-05-22T12:54:01Z","2026-05-22T12:54:03Z","2026-05-22T12:54:05Z","2026-05-22T12:54:07Z","2026-05-22T12:54:09Z","2026-05-22T12:54:11Z","2026-05-22T12:54:13Z","2026-05-22T12:54:15Z","2026-05-22T12:54:17Z","2026-05-22T12:54:19Z","2026-05-22T12:54:21Z","2026-05-22T12:54:23Z","2026-05-22T12:54:25Z","2026-05-22T12:54:27Z","2026-05-22T12:54:29Z","2026-05-22T12:54:31Z","2026-05-22T12:54:33Z","2026-05-22T12:54:34Z","2026-05-22T12:54:36Z","2026-05-22T12:54:38Z","2026-05-22T12:54:40Z","2026-05-22T12:54:42Z","2026-05-22T12:54:44Z","2026-05-22T12:54:46Z","2026-05-22T12:54:48Z","2026-05-22T12:54:50Z","2026-05-22T12:54:52Z","2026-05-22T12:54:54Z","2026-05-22T12:54:56Z","2026-05-22T12:54:58Z","2026-05-22T12:55:00Z","2026-05-22T12:55:02Z","2026-05-22T12:55:04Z","2026-05-22T12:55:06Z","2026-05-22T12:55:08Z","2026-05-22T12:55:10Z","2026-05-22T12:55:12Z","2026-05-22T12:55:14Z","2026-05-22T12:55:16Z","2026-05-22T12:55:18Z","2026-05-22T12:55:20Z","2026-05-22T12:55:22Z","2026-05-22T12:55:24Z","2026-05-22T12:55:26Z","2026-05-22T12:55:28Z","2026-05-22T12:55:30Z","2026-05-22T12:55:32Z","2026-05-22T12:55:34Z","2026-05-22T12:55:36Z","2026-05-22T12:55:38Z","2026-05-22T12:55:40Z","2026-05-22T12:55:42Z","2026-05-22T12:55:44Z","2026-05-22T12:55:46Z","2026-05-22T12:55:48Z","2026-05-22T12:55:50Z","2026-05-22T12:55:52Z","2026-05-22T12:55:54Z","2026-05-22T12:55:56Z","2026-05-22T12:55:58Z","2026-05-22T12:56:00Z","2026-05-22T12:56:02Z","2026-05-22T12:56:04Z","2026-05-22T12:56:06Z","2026-05-22T12:56:08Z","2026-05-22T12:56:10Z","2026-05-22T12:56:12Z","2026-05-22T12:56:14Z","2026-05-22T12:56:16Z","2026-05-22T12:56:18Z","2026-05-22T12:56:20Z","2026-05-22T12:56:22Z","2026-05-22T12:56:24Z","2026-05-22T12:56:26Z","2026-05-22T12:56:28Z","2026-05-22T12:56:30Z","2026-05-22T12:56:32Z","2026-05-22T12:56:34Z","2026-05-22T12:56:36Z","2026-05-22T12:56:38Z","2026-05-22T12:56:40Z","2026-05-22T12:56:42Z","2026-05-22T12:56:44Z","2026-05-22T12:56:46Z","2026-05-22T12:56:48Z","2026-05-22T12:56:50Z","2026-05-22T12:56:52Z","2026-05-22T12:56:54Z","2026-05-22T12:56:56Z","2026-05-22T12:56:58Z","2026-05-22T12:57:00Z","2026-05-22T12:57:02Z","2026-05-22T12:57:04Z","2026-05-22T12:57:06Z","2026-05-22T12:57:09Z","2026-05-22T12:57:11Z","2026-05-22T12:57:13Z","2026-05-22T12:57:15Z","2026-05-22T12:57:17Z","2026-05-22T12:57:19Z","2026-05-22T12:57:21Z","2026-05-22T12:57:23Z","2026-05-22T12:57:25Z","2026-05-22T12:57:27Z","2026-05-22T12:57:29Z","2026-05-22T12:57:31Z","2026-05-22T12:57:33Z","2026-05-22T12:57:35Z","2026-05-22T12:57:37Z","2026-05-22T12:57:39Z","2026-05-22T12:57:41Z","2026-05-22T12:57:43Z","2026-05-22T12:57:45Z","2026-05-22T12:57:47Z","2026-05-22T12:57:49Z","2026-05-22T12:57:51Z","2026-05-22T12:57:53Z","2026-05-22T12:57:55Z","2026-05-22T12:57:57Z","2026-05-22T12:57:59Z","2026-05-22T12:58:01Z","2026-05-22T12:58:04Z","2026-05-22T12:58:06Z","2026-05-22T12:58:08Z","2026-05-22T12:58:10Z","2026-05-22T12:58:12Z","2026-05-22T12:58:14Z","2026-05-22T12:58:16Z","2026-05-22T12:58:18Z","2026-05-22T12:58:20Z","2026-05-22T12:58:22Z","2026-05-22T12:58:24Z","2026-05-22T12:58:26Z","2026-05-22T12:58:28Z","2026-05-22T12:58:30Z","2026-05-22T12:58:32Z","2026-05-22T12:58:34Z","2026-05-22T12:58:36Z","2026-05-22T12:58:38Z","2026-05-22T12:58:40Z","2026-05-22T12:58:42Z","2026-05-22T12:58:44Z","2026-05-22T12:58:46Z","2026-05-22T12:58:48Z","2026-05-22T12:58:50Z","2026-05-22T12:58:52Z","2026-05-22T12:58:54Z","2026-05-22T12:58:56Z","2026-05-22T12:58:58Z","2026-05-22T12:59:00Z","2026-05-22T12:59:02Z","2026-05-22T12:59:04Z","2026-05-22T12:59:06Z","2026-05-22T12:59:08Z","2026-05-22T12:59:10Z","2026-05-22T12:59:12Z","2026-05-22T12:59:14Z","2026-05-22T12:59:16Z","2026-05-22T12:59:18Z","2026-05-22T12:59:20Z","2026-05-22T12:59:22Z","2026-05-22T12:59:24Z","2026-05-22T12:59:26Z","2026-05-22T12:59:28Z","2026-05-22T12:59:30Z","2026-05-22T12:59:32Z","2026-05-22T12:59:34Z","2026-05-22T12:59:36Z","2026-05-22T12:59:38Z","2026-05-22T12:59:40Z","2026-05-22T12:59:42Z","2026-05-22T12:59:44Z","2026-05-22T12:59:46Z","2026-05-22T12:59:48Z","2026-05-22T12:59:50Z","2026-05-22T12:59:52Z","2026-05-22T12:59:54Z","2026-05-22T12:59:56Z","2026-05-22T12:59:58Z","2026-05-22T13:00:00Z","2026-05-22T13:00:02Z","2026-05-22T13:00:04Z","2026-05-22T13:00:06Z","2026-05-22T13:00:08Z","2026-05-22T13:00:10Z","2026-05-22T13:00:12Z","2026-05-22T13:00:14Z","2026-05-22T13:00:16Z","2026-05-22T13:00:18Z","2026-05-22T13:00:20Z","2026-05-22T13:00:22Z","2026-05-22T13:00:24Z","2026-05-22T13:00:26Z","2026-05-22T13:00:28Z","2026-05-22T13:00:30Z","2026-05-22T13:00:32Z","2026-05-22T13:00:34Z","2026-05-22T13:00:36Z","2026-05-22T13:00:38Z","2026-05-22T13:00:40Z","2026-05-22T13:00:42Z","2026-05-22T13:00:44Z","2026-05-22T13:00:46Z","2026-05-22T13:00:48Z","2026-05-22T13:00:50Z","2026-05-22T13:00:52Z","2026-05-22T13:00:54Z","2026-05-22T13:00:56Z","2026-05-22T13:00:58Z","2026-05-22T13:01:00Z","2026-05-22T13:01:02Z","2026-05-22T13:01:04Z","2026-05-22T13:01:06Z","2026-05-22T13:01:08Z","2026-05-22T13:01:10Z","2026-05-22T13:01:12Z","2026-05-22T13:01:14Z","2026-05-22T13:01:16Z","2026-05-22T13:01:18Z","2026-05-22T13:01:20Z","2026-05-22T13:01:22Z","2026-05-22T13:01:24Z","2026-05-22T13:01:26Z","2026-05-22T13:01:28Z","2026-05-22T13:01:30Z","2026-05-22T13:01:32Z","2026-05-22T13:01:34Z","2026-05-22T13:01:36Z","2026-05-22T13:01:38Z","2026-05-22T13:01:40Z","2026-05-22T13:01:42Z","2026-05-22T13:01:44Z","2026-05-22T13:01:46Z","2026-05-22T13:01:48Z","2026-05-22T13:01:50Z","2026-05-22T13:01:52Z","2026-05-22T13:01:54Z","2026-05-22T13:01:56Z","2026-05-22T13:01:58Z","2026-05-22T13:02:00Z"]}},"geometry":{"type":"LineString","coordinates":[[18.330059333575733,63.30050186700455,98.03388683870435],[18.330113539584268,63.300491013920855,97.67077542934567],[18.330162838926565,63.300481151023114,97.32878673262894],[18.330216836018614,63.30047094117994,97.44200316350907],[18.33026721923128,63.30046141465596,97.36814679577947],[18.330325180182633,63.30045045530571,97.34656019788235],[18.330380432854707,63.30044100463276,97.19007844571024],[18.33043804105238,63.30043095792112,97.24500280991197],[18.330495142181068,63.300420999640195,96.89830922335386],[18.33054912771468,63.30041158470967,96.77500960044563],[18.330603682886252,63.30040207043712,96.50724292639643],[18.330660035266572,63.300392242734354,96.6531937615946],[18.330715266748715,63.30038261051484,96.39452534168959],[18.33077219668183,63.30037268208886,96.16867636330426],[18.330831050863274,63.300362418080425,96.07959328778088],[18.330889771715754,63.30035217732315,96.02143149916083],[18.330947348227795,63.3003421361389,95.77593113202602],[18.331005311027177,63.30033202758152,95.73040323611349],[18.331059497416405,63.30032257762265,95.4023835035041],[18.331116030669573,63.300312428667034,95.36312747653574],[18.33117156072705,63.30030234416945,95.18256010953337],[18.33122579427033,63.3002924951227,94.89995402656496],[18.33128133064647,63.30028240947518,94.90617423225194],[18.33133710713938,63.30027228022346,94.97643439285457],[18.331394562941668,63.30026184600029,95.26484155841172],[18.331452026892983,63.30025152390627,95.35852206777781],[18.331510943451118,63.30024077654364,95.02339667454362],[18.331570426207332,63.30023004532498,95.30221094936132],[18.33162873942508,63.30021987576107,95.21698687039316],[18.33168456428657,63.30020635894214,95.57855408359319],[18.331737080015476,63.30019125386936,95.87935537379235],[18.33178606292701,63.30017414691077,95.98962847329676],[18.331837435585083,63.30015877007509,96.1400452312082],[18.331884039680947,63.300141440753066,96.51702955458313],[18.331925455624607,63.30012077565899,96.49175506271422],[18.33196523722913,63.30010003578348,96.66800615936518],[18.33200508337871,63.300078811063,96.6631333148107],[18.332042341429798,63.3000571946159,96.69934056419879],[18.332076619203672,63.30003459264106,96.89142349828035],[18.33210785667763,63.300010912979275,96.90712401270866],[18.332136697418292,63.29998641593175,97.03391236905009],[18.332159490207022,63.29996198660134,96.89274644479156],[18.332177338157308,63.2999361704939,97.1117976391688],[18.33219265376831,63.29990913549336,97.50817648693919],[18.332208372181853,63.299881389438546,97.77129431441426],[18.33222329186827,63.29985505312831,97.83650031965226],[18.332222549784568,63.29982895811071,98.16829585749656],[18.332228752657837,63.299801984574735,98.2733258549124],[18.332235037832568,63.29977465315174,98.66308545134962],[18.3322411647511,63.2997480099141,98.98884699307382],[18.332247223873363,63.29972166149549,98.97920753154904],[18.332253265871152,63.29969538753558,99.11826860532165],[18.332259128050516,63.299669895531494,99.36090403515846],[18.332265128963417,63.2996438002386,99.45897276420146],[18.332271221763026,63.299617305372806,99.51183749176562],[18.332277350926766,63.299590171716474,99.67712977062911],[18.33228691130327,63.29956208478075,100.00313656870276],[18.332296457654163,63.29953403907841,100.1495119323954],[18.332305759575668,63.299506711476255,100.16076511051506],[18.332314261449223,63.29947898409015,100.25634850375354],[18.33232458585765,63.29945140276906,100.28865980077535],[18.332334154111795,63.29942329272153,100.48102432955056],[18.332343392572632,63.29939615154985,100.36650234367698],[18.332355356053785,63.29936789848078,100.49461930803955],[18.332371397445943,63.29934130097495,100.62760553322732],[18.33238709353414,63.299315276001366,100.66385139711201],[18.332403014705285,63.2992888778266,100.94549657776952],[18.33242209010431,63.299260899604185,101.2333248918876],[18.332445580708416,63.29923488931577,101.308369201608],[18.332468464138906,63.299209551335885,101.5343921482563],[18.332491976158487,63.29918351735007,101.80298230610788],[18.332515198568277,63.29915780403548,101.79439431149513],[18.33253863117252,63.29913185796769,102.10526534449309],[18.33256210793156,63.29910586303253,102.26560586132109],[18.332585318444323,63.29908016287648,102.37454156763852],[18.332608112922525,63.29905492338644,103.08172492869198],[18.3326356859689,63.299028602657884,103.10156552772969],[18.33266619760688,63.29900484630557,103.46166209783405],[18.33269554782632,63.29898199422401,103.49538147542626],[18.332724520937784,63.29895943576522,103.73625722900033],[18.332753293471715,63.29893703346173,103.78136927541345],[18.332780332373897,63.29891598097576,104.26430804468691],[18.33281259570265,63.29889536848705,104.33875932451338],[18.33284879651136,63.29887506304152,104.22753097862005],[18.332885342382642,63.29885480718649,104.68893258180469],[18.33291857522344,63.29883324970641,104.72538525331765],[18.33296328547379,63.29881459474117,104.97067104279995],[18.333008687575003,63.298795957386716,105.40415157191455],[18.33305030634343,63.29877655460873,105.38735436741263],[18.333088596572388,63.29875579133085,105.86916680447757],[18.333135196976695,63.298739159272515,106.0468258485198],[18.333178689732517,63.29872363636753,106.1448301943019],[18.33322474933211,63.29870719732805,106.12171238753945],[18.333268947971803,63.29869142248777,106.16676088515669],[18.33331057323861,63.29867656610366,106.05616054031998],[18.33334440735995,63.298664490437965,106.09815178997815],[18.33338947972845,63.29864840374537,106.1264129281044],[18.333436376439675,63.29863286936603,106.46446129493415],[18.333482366659535,63.29861866873915,106.64787264447659],[18.33352524514341,63.2986054289311,106.24315827712417],[18.333571398835122,63.29859117782365,106.50332721695304],[18.333621227351497,63.2985757920264,107.07130743190646],[18.333666378119943,63.29856185060123,107.19909523520619],[18.333715296736457,63.29854674575873,106.99606256000698],[18.333761481099906,63.29853248517232,107.14187885075808],[18.33380703671071,63.29851841873916,107.2642314368859],[18.333852867900543,63.29850426721616,107.50659744348377],[18.333900378392638,63.298491228632834,107.41839524079114],[18.333946428039905,63.29847923876062,107.8250346230343],[18.33399902467846,63.298465544251336,107.92155408859253],[18.334047974037613,63.298452799387334,108.33256920892745],[18.334099460785836,63.29843939385951,108.22346983198076],[18.33415260221018,63.29842555751655,108.3641995517537],[18.334200684683122,63.29841303834733,108.62951005809009],[18.33425312322836,63.29839938500734,108.1377422939986],[18.334300874889724,63.29838695197639,108.64453838951886],[18.334353466017937,63.298373258901805,108.64050530921668],[18.33440255246362,63.2983604783408,109.34063546359539],[18.334453036781266,63.29834733381449,110.08684511296451],[18.334503378863626,63.298334226315646,110.4674666468054],[18.334553998831904,63.298321046481774,110.48907231353223],[18.334604387864548,63.29830792675793,110.61143330670893],[18.334656301894714,63.29829440998751,110.95120979566127],[18.334706435117614,63.298281356881304,111.50637643504888],[18.33475592478745,63.29826847132578,112.42628130316734],[18.33480501798468,63.29825568900552,112.69431405607611],[18.334855272867486,63.29824260421858,113.2588452519849],[18.334903630875324,63.29823001332003,113.63916369061917],[18.334952688129242,63.29821724035408,113.8370649041608],[18.335001544980788,63.29820451957227,113.70541521441191],[18.335053179235455,63.29819107562964,113.47260813694447],[18.335104660850998,63.298177671456074,114.20486363768578],[18.335155036674937,63.29816367012684,114.34207935724407],[18.33520455100055,63.29814740406033,114.34570503607392],[18.335249164931902,63.2981327478635,114.70476947817951],[18.335298745414065,63.298118407195034,114.92626577429473],[18.33534470460793,63.2981013619548,114.87843074183911],[18.335389343497614,63.29808735665781,115.82853851560503],[18.335438235128294,63.29807063606472,115.2643876792863],[18.33548538330152,63.29805514733607,115.04111569840461],[18.335531331311948,63.29803764806851,115.19248124305159],[18.335577036743082,63.2980214219022,115.37117082253098],[18.335619839829533,63.29800436646976,115.5487641915679],[18.335659788139974,63.2979848897239,115.52519057039171],[18.335704282733314,63.29796965338373,116.20117199700326],[18.335747281097476,63.297951640611466,116.1619016053155],[18.335788072171958,63.29793392931344,116.56141933426261],[18.33583195565916,63.29791757116944,116.86724082287401],[18.335873138325933,63.29789989582424,117.1125005716458],[18.335911507521285,63.29788095722865,117.26905022189021],[18.335954318592346,63.297863822292506,117.52678375132382],[18.335988349817697,63.29784452319569,117.8457457004115],[18.336028428987735,63.297828185808775,118.33587315957993],[18.336067652423516,63.29781197745226,118.44449253659695],[18.33610780824541,63.2977959949129,118.97704106103629],[18.336152995363616,63.29777988738314,119.9665280552581],[18.336202213685233,63.297763330252785,121.10815392248333],[18.33624578501673,63.29774299312761,121.35399216320366],[18.336291840603828,63.29772725818714,121.15739604551345],[18.3363409516602,63.297713677698916,121.82343999762088],[18.33638546662915,63.29770136815534,121.849807982333],[18.33642643772793,63.29769003857931,122.46800491586328],[18.33647427420162,63.297676810544225,122.24466569162905],[18.336512194455626,63.297668147494655,122.81441546417773],[18.336540199129253,63.297642868242704,122.92104340530932],[18.33655603589103,63.2976111968208,122.17520863655955],[18.336561489195162,63.2975903633504,122.19168568961322],[18.33655862913802,63.29756966945858,122.13426708057523],[18.33654976581334,63.297547780828474,122.36836313363165],[18.336546117568176,63.29752440260907,122.26361292228103],[18.336543775662513,63.29749860579582,122.47401582542807],[18.336542058055997,63.297475243302046,122.33702589944005],[18.336574294954143,63.29744878466248,122.3981869444251],[18.336597872142942,63.29742087390294,122.0542718861252],[18.336628858657747,63.29739791589607,122.00328392535448],[18.336653866863095,63.29736893284428,121.9833656642586],[18.336677344621222,63.29734945378791,122.40729835815728],[18.336700734012673,63.29732605762683,123.21096034254879],[18.33671981493825,63.29731017296489,123.68110716436058],[18.336734860688555,63.2972869215732,123.70973655767739],[18.33675162591789,63.297268371707894,123.33276279084384],[18.336769746175854,63.297242712712105,123.63834843412042],[18.33680419821368,63.297220906226784,124.39611629210413],[18.33682205691781,63.29719468184299,124.67600413877517],[18.33683574612209,63.297174102496975,124.46177482418716],[18.336842494586968,63.29715223672224,124.33425155468285],[18.33687160296611,63.29711638054642,124.09035777952522],[18.33688310092492,63.29709680564696,124.44928573817015],[18.336890815962022,63.29707412714242,124.2232442656532],[18.3369020572562,63.29705381273361,124.09938799962401],[18.33691353822911,63.29702417824353,123.73446883819997],[18.33692826410291,63.297002875250655,124.9090085029602],[18.336952668285452,63.296984738305326,125.61477228999138],[18.336971809352114,63.29696201942758,125.590277235955],[18.337008124476757,63.29693737616076,125.92420181073248],[18.337037922672515,63.296916910649365,126.19539361912757],[18.33707313146838,63.296893528877696,126.07042071036994],[18.337096858150602,63.29687156647675,125.9581707296893],[18.33712086624699,63.29685674018537,126.2943880641833],[18.337143460887578,63.29683384902026,126.73045948613435],[18.337177042429243,63.29681487955969,127.39350785501301],[18.337225537546917,63.29679272243202,127.0174779612571],[18.337257318340146,63.29677194104243,127.48672012984753],[18.337295559759966,63.29675316757056,127.82358025666326],[18.33734533196058,63.29673628337693,128.08314149454236],[18.337392523937407,63.29672160790491,128.63539739511907],[18.33743685582864,63.29670425839521,129.28798587899655],[18.337479477671657,63.29668413305447,128.74815654940903],[18.33752546139307,63.2966690622227,128.61031286790967],[18.33755501042601,63.29665615758182,129.3348428979516],[18.337611001881147,63.29664367648549,128.50464140530676],[18.33765023290468,63.296625582012624,129.25779589358717],[18.3376959474804,63.29660696386754,129.80864483863115],[18.337743899326515,63.29658999932278,129.99376850482076],[18.33778257245471,63.296574367570315,130.26480110455304],[18.337822483934932,63.29655287835404,130.41313701123],[18.337850606296588,63.29653372251166,130.76020829752088],[18.33788842294008,63.29651570301592,131.78348593506962],[18.337912989083456,63.29648975878394,132.47333282791078],[18.337935282141782,63.29647153526903,132.20226066745818],[18.337955513602818,63.29645288384155,132.255522351712],[18.33798190223271,63.29643623108994,132.9181808102876],[18.338001887146586,63.29641788239252,132.8147690379992],[18.338025988322784,63.29639818721985,133.33674457203597],[18.338058925153437,63.29637326694171,133.95960806123912],[18.33808924336061,63.29635431631351,134.5605037054047],[18.338113943723684,63.29633254160978,134.89407248888165],[18.338137448004144,63.296314215856334,134.9430426247418],[18.338161281233926,63.29629800721769,134.93957225885242],[18.338185916409692,63.29627783111579,135.5540325390175],[18.338217460088607,63.29626009299348,135.81537928525358],[18.338248537655538,63.29623845991497,136.14731024298817],[18.338279151274513,63.296218857098054,136.61135560180992],[18.338302719134447,63.29619788751862,136.92366505227983],[18.338329614097226,63.29618244658007,136.8390233470127],[18.3383445513042,63.29616194387162,137.32910838443786],[18.338358570810332,63.29614035941047,137.6935743931681],[18.338389683488618,63.296117943182544,137.39956303033978],[18.338415180878457,63.29609886400864,137.9775998685509],[18.338430057476256,63.29608143334037,138.5635473066941],[18.33844717071651,63.296062836219015,139.08888466004282],[18.338469561334577,63.296040744144314,139.55189137719572],[18.33850174158065,63.296019258557926,140.23457121104002],[18.338526424483774,63.29599826775008,140.07603341899812],[18.338554135965317,63.29598122746595,140.21332137286663],[18.338572936063596,63.295963170514916,140.74644506257027],[18.338599747998813,63.29593956114393,140.8507558023557],[18.338621173685237,63.29591502359694,141.05802790634334],[18.338642822181246,63.295899197059995,141.53356466721743],[18.33867580057173,63.295874467345335,142.0675104232505],[18.33870179327122,63.295855565153175,142.70083350874484],[18.338730169395824,63.29584200400739,142.34085503779352],[18.33876207929797,63.295824407058745,143.42376733385026],[18.338788000732972,63.29580397608259,143.8974877828732],[18.33882403076532,63.29578381200822,144.11173490714282],[18.338857797652516,63.29577022994739,144.13578379899263],[18.33889771356661,63.29575768674937,144.67109188530594],[18.33893595183559,63.29574515092344,145.4059910615906],[18.338977843469607,63.29573203058116,145.1503663258627],[18.33901195612197,63.29571900010128,145.28751805238426],[18.339060893019838,63.29570444279732,145.42118753585964],[18.339103330852215,63.29568838208663,145.02504886407405],[18.339141456300364,63.2956716903483,145.02026979252696],[18.339191965252923,63.295657126399846,145.36498334538192],[18.33924122281231,63.2956414611518,144.88508533779532],[18.33928573265257,63.29562667995397,145.25426710676402],[18.33932895189867,63.29560756759141,145.77664435934275],[18.33937072515846,63.295589433289095,145.3767673401162],[18.339413669992194,63.29556997220943,145.66108411364257],[18.339458022304836,63.295552009598836,146.07035194244236],[18.339503340086143,63.2955372210403,145.88393879588693],[18.339547452256607,63.2955201305682,146.06253276672214],[18.339592874083234,63.29550270215768,145.77121794316918],[18.339635287556735,63.29548725769569,145.91490552015603],[18.339680285755286,63.295470344337936,145.96824797429144],[18.339726810144708,63.29545187830796,145.83947173226625],[18.339768906977866,63.29543339705625,145.8495421530679],[18.33981410887136,63.29541624201982,145.75802884623408],[18.339865090099792,63.29540286198642,145.48516121227294],[18.33990911687306,63.2953830276954,145.84782194998115],[18.339957999800074,63.295364947857465,145.8328990805894],[18.340003428819507,63.29534665699026,146.03648408595473],[18.340055816402092,63.29533358172394,146.2001375881955],[18.340107594861095,63.29531987328007,145.7021434120834],[18.34016156621273,63.295311865339315,144.74325586296618],[18.340212354488273,63.29529502832937,145.53694797772914],[18.34025950974329,63.29527761233881,145.10682908818126],[18.34031007488148,63.29526448611312,145.1383969336748],[18.34035576714349,63.29524885135824,145.13588438928127],[18.340401086228844,63.295232506355966,144.91946214903146],[18.340446239453044,63.29521656566619,144.59683595970273],[18.340494582269127,63.29520258456531,144.33929492440075],[18.340545516961356,63.29518804132445,144.17840779852122],[18.340597665945356,63.29517641320837,144.31888658646494],[18.340644533933418,63.29516076242092,144.51161153335124],[18.340696148296107,63.29514514723623,144.33574418723583],[18.340748211833446,63.295131059268485,144.32010899111629],[18.340799853119965,63.29511607860854,144.15600537601858],[18.340856348872435,63.295105333124404,144.03206360898912],[18.340906405678563,63.29508819498193,143.84723541419953],[18.340962065842827,63.295074576058255,143.80026019271463],[18.341014397220306,63.29506156521944,143.6856449926272],[18.341064455680346,63.295045903901915,144.06402379460633],[18.341110678782425,63.2950289345197,144.4330608388409],[18.341155900522793,63.29501248398508,143.62880341988057],[18.34120282821999,63.29499735536897,143.51000786572695],[18.341258103107325,63.294986972133536,143.79219715017825],[18.341308229260033,63.29497397752528,143.70267425850034],[18.341366867447224,63.29496203351429,143.3080974491313],[18.34142206441653,63.29494963162294,142.98685285728425],[18.341463088930297,63.29493331466733,142.93896919768304],[18.34150753580231,63.29491697348119,143.0982845770195],[18.341545562392948,63.29489833999699,143.50392751023173],[18.341583639334807,63.29487956448916,143.23260718677193],[18.341630599156986,63.29486323078206,143.50575919821858],[18.341682731558254,63.294850799600724,143.52107470668852],[18.341737458198395,63.29484130169376,143.62512447219342],[18.34179163889739,63.29483169002495,143.89777710475028],[18.341843498395612,63.29482097844893,144.19404924008995],[18.341891397470086,63.29480730605195,144.24709966313094],[18.341938976594797,63.29479403855891,144.3205140316859],[18.341989991813374,63.29478239622763,144.44594506174326],[18.342042661826255,63.29477481787295,144.16868468932807],[18.342069145358234,63.2947896270647,143.6965213092044],[18.34210381244593,63.29481073371645,143.49746071361005],[18.342125257883243,63.29483663126746,143.8992282487452],[18.3421242479667,63.29486220944298,143.94643854349852],[18.342137074777934,63.294886125914495,143.5772051755339],[18.342148671179128,63.29491156603081,143.90077084116638],[18.342160610384767,63.29493677358705,143.76011769287288],[18.342176052241996,63.294961866335115,143.63446672912687],[18.342191770873786,63.29498730600752,143.76824249699712],[18.34220139213257,63.295012082104684,143.83350491244346],[18.342226460356276,63.29503369909296,144.12994921114296],[18.3422523473073,63.29505389737176,144.01198279764503],[18.34227129126951,63.29508026467644,144.12223946861923],[18.34230170356807,63.29510258003141,144.27282000239938],[18.342330250737923,63.29512597429741,144.00090216565877],[18.342356407955958,63.29514927235911,144.18474953994155],[18.342387228366196,63.29517214062417,144.33806111756712],[18.342422324284005,63.295194423183155,144.38406696543097],[18.34245702115862,63.29521420280377,144.54631521273404],[18.34249590300889,63.29523285955631,144.00303401052952],[18.342533067621122,63.29525397580407,144.10730407759547],[18.34256528606708,63.29527553465632,143.92037354130298],[18.342605020295558,63.29529606266454,144.05630639381707],[18.342641511982897,63.29531731417975,143.83539912477136],[18.34267537584051,63.29533924004327,143.55054991412908],[18.34270787973566,63.2953622762436,143.83969457261264],[18.342739323348123,63.29538437023827,143.54186391085386],[18.342775941647208,63.29540573096319,143.610306115821],[18.34281200344074,63.295427175861256,143.47006612084806],[18.342843767542032,63.29544925669803,143.6783404359594],[18.342868687020836,63.29547077973071,143.57504968065768],[18.34289281751804,63.29549254777243,143.26757628377527],[18.342926106981977,63.29551630388412,142.98327429033816],[18.342967729825848,63.29553981826953,143.10366685781628],[18.34299227606259,63.2955670830347,142.9221461834386],[18.343024791303034,63.29559281141815,143.01621725875884],[18.34306395157221,63.295615291916086,142.5554528348148],[18.34310423919877,63.29563699038752,142.57501986436546],[18.343137412968353,63.2956595918096,142.7466728836298],[18.343169953581025,63.2956814613912,143.7604370387271],[18.343217338744612,63.29569988170365,143.01027358602732],[18.343261970115964,63.29572132383174,142.89017640426755],[18.343308095895274,63.29573977345393,143.12379014957696],[18.343355047207133,63.295755961763355,142.8595203626901],[18.343408443106576,63.295772102918534,142.80692278780043],[18.343458274145263,63.29578982662579,142.62830304726958],[18.343506464496684,63.295806932149304,142.59574552625418],[18.34354697125742,63.295828414369595,143.05332948360592],[18.343582952903837,63.295845478678466,142.52333476487547],[18.34359938410915,63.29587559531929,142.19521127082407],[18.34361325178899,63.295901459673296,142.07786715682596],[18.34363131541998,63.295926586487695,141.42566118389368],[18.343640836091833,63.295954636194104,141.68617767747492],[18.34363178948237,63.29598168948837,141.5566208967939],[18.34363131996521,63.29601100279456,141.84516971558332],[18.343631643940896,63.296037574179365,141.39587476942688],[18.343610507247753,63.29606332682618,140.730659567751],[18.343601369943023,63.29609124412005,141.5509717175737],[18.343581576481576,63.296117057746095,141.43268441129476],[18.34356785808274,63.2961467611767,142.12527106702328],[18.343542798734294,63.296171917761505,141.59483670257032],[18.34353758640529,63.29620120332563,142.00363166444004],[18.343524405547786,63.29622702862187,142.04980499576777],[18.34350649344142,63.296255516421304,142.59660234022886],[18.34349122262834,63.296282818610244,142.55082989484072],[18.34347038547462,63.2963063976917,142.09126173704863],[18.343460188349713,63.29633212130425,142.0230396995321],[18.343448216331595,63.29635835023475,141.7346718236804],[18.343437968773983,63.296386043866505,141.22390563320369],[18.34342657720254,63.29641298639312,141.3396210083738],[18.34342374227733,63.29644050799909,141.6241059685126],[18.34341279849273,63.29646516302798,140.44614014402032],[18.34340199173629,63.296489824080766,140.26780071202666],[18.343404749957912,63.29651878094089,140.18897687271237],[18.343392759490836,63.29654660148499,139.9428328210488],[18.343374992595127,63.29657461245108,139.52857835497707],[18.343365628335373,63.29660296217128,139.03457499016076],[18.34335002435406,63.29662985917512,138.4884678684175],[18.343325798585777,63.29665282937748,137.86549665406346],[18.343311980520433,63.29667690825249,137.13348079565912],[18.343278781182565,63.2966999379035,137.4297861084342],[18.34325209247922,63.29672748777488,137.42499577719718],[18.343225226665474,63.2967517984177,136.78326210100204],[18.343190778238082,63.29677386823397,137.26117523387074],[18.343157479770216,63.29679677941608,136.5987420398742],[18.34312450700266,63.29681678282997,136.09021613933146],[18.343083504008668,63.2968365576914,135.74835358466953],[18.343043250608815,63.29685602818841,135.39143200125545],[18.343006912235115,63.29687713527138,135.49533007107675],[18.342964812832022,63.29689677470858,135.52766025718302],[18.342922346220828,63.29691693620668,135.25533173326403],[18.342894254276924,63.29694249080535,134.8581036347896],[18.342847176750155,63.29696110195003,134.81656246818602],[18.342801639724517,63.2969782279991,134.87998062372208],[18.342759220214855,63.29700047351356,135.0301835872233],[18.34270442975655,63.297016008481435,134.81933128554374],[18.342656732196424,63.29703639633444,134.90942311380059],[18.342603317805736,63.29705350398368,134.5796259669587],[18.342550189178045,63.297069669057215,134.62616524100304],[18.342499815346848,63.297085304570544,134.689381217584],[18.34244776066167,63.297098787897546,134.1246700529009],[18.342395180389165,63.297112843550494,133.74047989863902],[18.342340522214243,63.29712656775774,133.5206968653947],[18.342290235742038,63.297140806032665,132.9276476688683],[18.34223934810185,63.29715359319378,132.81775733456016],[18.34218925438357,63.29716525233677,132.59667639341205],[18.34213649825094,63.29718056605239,132.88009928073734],[18.342087279916203,63.29719346409364,132.17875214107335],[18.342042130643424,63.297208271729055,131.4178211223334],[18.34199241959512,63.29722175628571,131.51468627993017],[18.341948767137442,63.29724074590504,131.86144120898098],[18.34190116753022,63.29725452074015,131.34711416997015],[18.341856443175505,63.297271103426084,131.64116000011563],[18.341809599528283,63.297282721934536,130.8991908589378],[18.341761009787483,63.297297138850666,131.05697157606483],[18.341712824492834,63.29731038735542,130.89654327277094],[18.341665008843634,63.297323534216595,130.3300898456946],[18.34161597021457,63.29733701736946,130.32101763226092],[18.341569894813052,63.297348876086154,129.60960617754608],[18.341517762891765,63.297362432385675,129.236040183343],[18.341468467718816,63.29737483066573,130.05432361364365],[18.341421235922283,63.297386723159605,130.04883410409093],[18.341368845253466,63.29739991461151,129.48543173074722],[18.341315845367085,63.29741270431931,129.1232172017917],[18.341259582104424,63.297424215118085,129.06794970761985],[18.34120702300938,63.297433320763886,129.33100869692862],[18.341156773348416,63.297445330007044,129.66262150835246],[18.3410987590892,63.29745327020856,129.42907396052033],[18.341036204352868,63.2974551809102,129.11550632305443],[18.340974579382152,63.29745187850538,128.41572495549917],[18.340910839307547,63.297449705971104,128.1681143362075],[18.340848498027565,63.2974445268723,127.19656154233962],[18.340785774757403,63.29743668536068,127.16509315930307],[18.340728307120973,63.297428059611306,127.17984388023615],[18.34067133745009,63.29741950861152,126.84891575574875],[18.340613310102235,63.29741079885091,126.68375877663493],[18.340558995188974,63.297404567723184,126.56677330471575],[18.340502679546706,63.29739911060564,126.42114164214581],[18.340442502855165,63.29739385833734,126.1513063730672],[18.340382147572644,63.29738859048878,125.85446482524276],[18.340324318348785,63.297383543113874,125.90523667819798],[18.340268156737626,63.29737888384953,125.61217921040952],[18.340211676825422,63.297374311237334,125.57167787197977],[18.340155347243872,63.29736975079142,125.24853013083339],[18.340095574905387,63.297364911622154,125.06413966417313],[18.340036774250514,63.29736015112295,124.88367996830493],[18.33998097066704,63.29735679359723,124.66199247539043],[18.339922777705116,63.297357737164084,124.47029860317707],[18.33986445935897,63.29735868276406,124.40350913256407],[18.339806936689694,63.297359615462945,124.42584186885506],[18.33974755517621,63.297360578301706,124.36682490352541],[18.33968858511537,63.297361534468905,124.12135128863156],[18.339630536750242,63.297362475691465,124.11353331711143],[18.339574758509638,63.297365690162266,124.28436635900289],[18.339537898739398,63.29737295472789,124.09943900909275],[18.33950293868569,63.29738289264803,124.66227798443288],[18.339460700498048,63.297408303241205,124.69731072243303],[18.339434112848178,63.29744168031601,124.70726304128766],[18.339425650733215,63.297461026041425,124.63887950964272],[18.33941895053835,63.29748177767419,124.46389509364963],[18.339409410621037,63.297506841423825,124.3849360467866],[18.339406310513215,63.29753430867129,124.50533000659198],[18.3394085344811,63.29756466070725,124.33978524245322],[18.33940662794618,63.29759446261047,124.59493055846542],[18.33939074467032,63.29761974826902,124.394640061073],[18.33937655855133,63.297645295040994,123.8715122481808],[18.33936264974703,63.29766951505368,124.04857109114528],[18.33933710494904,63.2976903770957,123.62579557672143],[18.339294534422756,63.29770612407084,123.82872620224953],[18.339260807625898,63.297727171706036,123.27230789605528],[18.33922596664291,63.29775134978635,123.57306698709726],[18.339188439700973,63.29777049906513,124.22930706012994],[18.339152443242337,63.297792151309004,123.60532044060528],[18.33911724390439,63.297816055312744,122.72327367868274],[18.33911533856077,63.2978462589222,123.2930847061798],[18.339143791739723,63.297869497678796,123.2935094088316],[18.33915159555193,63.29789349720212,122.80856706853956],[18.339155738626555,63.297916692745915,122.58752095606178],[18.339154673718188,63.297946543827514,122.69192460738122],[18.339149505724293,63.29796722177351,121.86272704508156],[18.339146885288887,63.29799341587943,120.56777652725577],[18.33915269246828,63.29801569964989,120.72504550497979],[18.33915269620086,63.29803450635848,120.37009038962424],[18.339165185682305,63.298061483040684,118.85511791147292],[18.339201352745018,63.29808672857743,119.06875918339938],[18.33925232088451,63.29810391901398,119.35748093295842],[18.339289357466527,63.29811432470035,119.01801835745573],[18.33933778378055,63.29813096467473,118.66536137461662],[18.33938950440239,63.298146776135816,118.5148319285363],[18.339428012000297,63.29816408010452,118.57925982773304],[18.339444229382337,63.29818477270048,119.05619210470468],[18.33945941296486,63.29820641461765,119.12376529630274],[18.33947961876193,63.29822687759936,118.06902286037803],[18.33950523175979,63.29824771802277,117.64920337684453],[18.339544855306993,63.298270064332264,118.15421778801829],[18.339597422377764,63.29828383463964,117.74950016848743],[18.339646934470167,63.29829952393917,116.30718178581446],[18.339697706986993,63.29831799982381,116.5219005132094],[18.339745506579863,63.29833737652062,116.5595073979348],[18.339788892796616,63.298356285272114,116.7833957169205],[18.33984667516574,63.29836486679507,117.33919149357826],[18.339886453156602,63.29838530309712,117.7717073308304],[18.339928249386883,63.29839561940372,117.50636456161737],[18.33997124579275,63.29841562146647,117.36354050692171],[18.340008105735816,63.29843332542571,117.4540493991226],[18.340042753497414,63.298459327900375,117.47484254091978],[18.340050808712196,63.29848780916327,117.84978635795414],[18.340055182173984,63.29850583685154,117.81855765171349],[18.340062741515453,63.2985306698327,117.31835150811821],[18.340082194155272,63.29855132393342,116.89528992306441],[18.34010373105158,63.298566592836195,117.82817618642002],[18.340124626433926,63.29858763246607,117.35532301850617],[18.340132575856938,63.29861354637958,116.86247509624809],[18.340139341750284,63.29863540857494,116.53503736015409],[18.340141528879283,63.29866150973398,116.59537034202367],[18.340146566198698,63.29868280657288,115.73810450453311],[18.340141247210248,63.2987078020509,115.48505554907024],[18.340157816931345,63.29872591162331,114.29119449481368],[18.340176346556223,63.29875268412433,114.69754910934716],[18.340186979101645,63.298779577111645,114.72516668587923],[18.340194386812197,63.29880306624155,114.44048914220184],[18.34020198794079,63.2988274033926,113.70775853097439],[18.340200886729146,63.29885469551913,113.07861011009663],[18.340191887178896,63.298877308320456,112.77328033559024],[18.340180027276475,63.29890129838001,112.22229984402657],[18.340184548876895,63.29892757596247,112.04459574259818],[18.34018758023095,63.298949272430434,110.89712254330516],[18.34017828929391,63.29897500793004,110.55063348729163],[18.340169032474563,63.298998428205174,110.02163586206734],[18.340148148101765,63.29902017597504,109.47028507012874],[18.34013569175282,63.299044653956514,109.50046877842396],[18.340112052103443,63.29906631793179,108.658233798109],[18.34009737340832,63.29908924468218,108.4162909751758],[18.34009647291,63.29910896486312,107.92895169183612],[18.340100129065192,63.29913544706684,107.6337401047349],[18.340088907960904,63.29916009231942,107.52352744713426],[18.34007721678619,63.299184085875076,107.01142208185047],[18.3400654147612,63.299207780846885,106.76185793615878],[18.340042916104494,63.29922901422364,106.24248924665153],[18.339990681145743,63.29924427528792,105.72581332083791],[18.339942826890212,63.299260024593366,105.39851087797433],[18.33989506786279,63.299274718404185,105.02635383885354],[18.339854223494797,63.2992929219593,104.72914380207658],[18.339823562797847,63.29931611003596,104.35077342018485],[18.33978682540729,63.299336446474804,104.29442389961332],[18.339746443716976,63.29935588157102,104.00885532051325],[18.339708364680437,63.299374954591684,103.69641452562064],[18.339670043414777,63.29939456173419,103.4686503764242],[18.33963137535864,63.29941420218836,103.27094141021371],[18.339592413520666,63.2994338869845,102.98998811934143],[18.339559867151937,63.29945452001033,102.78850173670799],[18.339528278612214,63.299475899312505,102.81803637929261],[18.339500019382076,63.299497848674065,103.31613879743963],[18.339469857676615,63.2995170888094,103.48210844490677],[18.33944385611393,63.29953886116451,103.88781253807247],[18.339419894691414,63.29956129151195,104.26310461387038],[18.33939872461662,63.29958363618209,104.38471083343029],[18.339380522540356,63.299606880680656,104.34962271619588],[18.339362974535973,63.299630612039344,103.95502987876534],[18.33934872399853,63.29965658522305,103.8777155149728],[18.339326366023926,63.299679510928534,104.0770907169208],[18.339311795167422,63.29970372185077,103.65519057121128],[18.339302142323525,63.29972913949908,103.54044020175934],[18.339287419873088,63.299754318045544,103.71990578528494],[18.33926833854773,63.29977815847267,103.64522833190858],[18.33923567175828,63.299798808210134,103.30767126381397],[18.339200327033122,63.299818954489815,103.05087363999337],[18.33917163270976,63.29984260113948,103.00182414241135],[18.339136892682895,63.2998639242661,103.27030765358359],[18.339097976041433,63.29988246309643,103.31990750320256],[18.33905234964148,63.299897527192456,102.97229822259396],[18.339004689812636,63.299913363229095,102.79877788294107],[18.3389516040972,63.29992450361778,102.89143095165491],[18.338896495167226,63.299931506038796,102.76524060592055],[18.338837555118538,63.299934507355324,102.68393806181848],[18.33878041344556,63.29993549901304,102.92515059001744],[18.3387262661247,63.29993729081404,103.32665983494371],[18.338671901355635,63.29994204325183,103.61644712649286],[18.33861642306959,63.29994239326969,103.78837762773037],[18.338554846926968,63.29994101975277,103.86252638231963],[18.338493843430182,63.29993664282292,104.11069457232952],[18.33843500073527,63.2999376195685,104.14222434069961],[18.33837676209793,63.29993998784521,104.25541508663446],[18.338318060455897,63.299940208997135,104.30798624455929],[18.33825839539706,63.299940817238536,104.87995397113264],[18.33819843103521,63.29994210842649,105.1821745056659],[18.338144712751983,63.29993910380807,104.93732237163931],[18.338074126959665,63.299939323214154,105.12149468343705],[18.33801232066508,63.29994163776532,105.37092279084027],[18.3379515533758,63.29994147154817,105.2201491612941],[18.33789343854185,63.29993835042301,105.21425877977163],[18.337837478166186,63.29993836602162,105.54275346826762],[18.337777601462296,63.299939768346356,105.77221780549735],[18.33772001051984,63.299946554911166,106.29040014278144],[18.33766146204325,63.29994576265663,106.57524913921952],[18.337603958054657,63.299938954361835,106.2672721305862],[18.337546243167356,63.29993677051132,106.67658482678235],[18.337487799272107,63.29993671065831,106.55612129718065],[18.337429542662154,63.29993691281863,106.45542087964714],[18.337372945323725,63.29993738267158,106.47836711164564],[18.33731809618421,63.29993881825497,106.7525639263913],[18.337259058566268,63.29994102715605,106.53877573274076],[18.33720350672832,63.29994728391519,106.32388823758811],[18.33715321194095,63.29994513896482,106.20545163657516],[18.337098619240244,63.29995178846442,107.40515237953514],[18.33704424115414,63.29995024883133,107.17043225467205],[18.336993735526143,63.299956493644935,107.4947519954294],[18.33694173340887,63.299960875437115,107.53212245274335],[18.336887961538185,63.29996381908521,107.03304966632277],[18.336834226488833,63.29997270921597,107.11222870554775],[18.33677989596729,63.29997070157169,107.39537018537521],[18.336724356928112,63.29996457687007,107.6649532392621],[18.33666914672121,63.29996254862331,108.08675787784159],[18.336611842361467,63.29996068458558,107.53555367793888],[18.336534986696844,63.29996506299892,106.60559821035713],[18.336470644361132,63.29996840637777,107.0931141236797],[18.336406050570346,63.29997182651145,107.58814263343811],[18.336354494231685,63.29997784707325,107.72186934761703],[18.336304284432064,63.29997722810108,107.26293682679534],[18.336251041726836,63.29998084808503,107.62101187836379],[18.33618984606815,63.299982282673604,107.26228951849043],[18.3361190679785,63.29998609531564,107.45659242197871],[18.336049517575848,63.29998827927596,107.16452006809413],[18.33599599909245,63.29999571985018,106.88764188066125],[18.335938917627296,63.29999494243527,106.5031841751188],[18.335872700255976,63.30000022728015,106.29400246031582],[18.335815476421942,63.30000003143056,105.76449215225875],[18.335750707001548,63.30000155636262,105.89822465088218],[18.33569387186991,63.30000567595633,105.7102360939607],[18.335630792715744,63.30000871414332,105.73333012871444],[18.33557242839925,63.300012611257294,105.51867965701967],[18.335507816457667,63.30001191236244,105.58107269089669],[18.335447974447113,63.30000553351264,105.20905322209],[18.335389513705845,63.300005119113415,104.96313181519508],[18.33533076058304,63.30000879852954,104.74170474521816],[18.335273877513952,63.300016729107654,104.29796160571277],[18.33522296960135,63.300034347093664,104.35050921700895],[18.335185055091596,63.300055371867956,104.24896808341146],[18.335156642881213,63.300077774552115,104.23631012439728],[18.33512245856955,63.30009929090282,104.35285572428256],[18.33509210435473,63.30012083378336,104.230693500489],[18.335054771223778,63.30013963389892,103.94945395737886],[18.33500809496229,63.30015672140444,104.0293844062835],[18.334958461038717,63.30017313299288,103.95256756618619],[18.334912489008268,63.30019096394589,103.82075278367847],[18.334866809422916,63.300207109193074,103.4768136749044],[18.334822472871988,63.30022441052883,103.3360178116709],[18.33477830208442,63.30024047975838,103.11832752637565],[18.334732741383608,63.300257008418384,103.08577137254179],[18.33468516309125,63.30027386294456,102.8198750205338],[18.334634375648392,63.300290933194816,102.76599919050932],[18.334583317816588,63.30030679887614,102.65896859019995],[18.334527987277685,63.30032152499113,102.57348261866719],[18.334475839038646,63.30033427614789,102.1498650489375],[18.334422731531095,63.300346181298806,102.01699232961982],[18.3343709897016,63.30035760676054,101.54103240184486],[18.33431376651318,63.30036751565851,101.29657186660916],[18.33425558512857,63.300377720164455,101.73567635845393],[18.334196709895142,63.300387827571406,101.9385032132268],[18.334135748698937,63.30039747581393,102.27542814891785],[18.334078169803348,63.30040658872613,102.48492237459868],[18.334020419230185,63.30041517262594,102.90548106748611],[18.333961973518104,63.300423411184234,103.02672633808106],[18.3339010136741,63.30043213387084,103.09939487371594],[18.333841484179363,63.300439297888225,102.97928600385785],[18.333778354475466,63.30044678994417,103.44375192187726],[18.33371749505445,63.30045397715425,103.5901626655832],[18.333656099919732,63.300461227623806,103.78566155768931],[18.333598034669848,63.300468084860896,103.68882523104548],[18.333540759406898,63.30047484879516,103.83317856024951],[18.33348391271951,63.30048289705061,103.64330565463752],[18.33342775413769,63.30048854144783,103.04642019420862],[18.333367648753367,63.300496340065486,103.18787445407361],[18.333307165648787,63.30050444206194,103.0159114971757],[18.33324845835881,63.30051347635737,103.35018205549568],[18.33319050809037,63.30052239416039,103.30479581281543],[18.33313261122047,63.300531841936774,103.67973296903074],[18.33307517438902,63.30054223994729,103.6080964896828],[18.33302080206717,63.300554133067735,103.79678444750607],[18.332966111263183,63.30056702364667,103.72323734499514],[18.33290949578271,63.30057819979885,103.45928164664656],[18.332852599727154,63.30058653718437,103.22966426145285],[18.332796524607364,63.300598121677595,103.15173816028982],[18.332741039110132,63.30060706753122,103.05067703314126],[18.332683536205444,63.30061469466461,102.67128370236605],[18.332631647943355,63.3006262840434,102.58193589560688],[18.3325759440766,63.30063617124099,102.2072150874883],[18.33251935478997,63.30064452328262,102.20086348522455],[18.33246416015755,63.30065504694372,102.10772353410721],[18.33240968685235,63.30066543307105,102.05790057592094],[18.332354027759745,63.300676349735156,102.0038233678788],[18.33229908390065,63.30068725876893,101.86684899777174],[18.332250071729977,63.30070091537081,101.56879840604961],[18.332194565215634,63.300709111850004,101.20358125958592],[18.332139612951206,63.30071795573698,100.44018204975873],[18.332088425923438,63.300731453898635,100.29387136362493],[18.33203480505644,63.30074139001764,99.9944693185389],[18.331977854565892,63.3007490538371,99.65708574932069],[18.331922733756215,63.30075709900374,99.29490870982409],[18.33186900459799,63.30076824494337,99.12060124240816],[18.331818731368248,63.30078117991276,98.79575616214424],[18.331768035589658,63.300793045796716,98.86506471596658],[18.331710665205687,63.30080309224249,99.08076700009406],[18.331652345706907,63.300813653701134,99.18667632341385],[18.3315965438021,63.30082340315392,99.00374512281269],[18.331546909576304,63.30083855051416,98.87921930104494],[18.331497880992984,63.30085530082986,98.63834199123085],[18.331443262842757,63.30086842775357,98.41921667940915],[18.331393327334997,63.30088225814978,98.22108250111341],[18.331344866873554,63.30090275988597,98.07914185151458],[18.331306785168003,63.30092570427731,97.80171158444136],[18.33127566847749,63.30095142777131,97.92004342470318],[18.331252543119806,63.300977475609365,97.71223111264408],[18.331234684931,63.30100361395252,97.61458906065673],[18.331218825723987,63.30103040456853,97.61496307700872],[18.331205113391118,63.301057566726485,97.73232392314821],[18.33119278571367,63.30108314265254,97.40827275719494],[18.331180657032657,63.301109805934445,97.42402523569763],[18.33117004740934,63.301135982802926,97.36048205848783],[18.331159407943993,63.301162233298584,97.1704657766968],[18.33114876518329,63.301188491923796,97.21339020784944],[18.331138505128298,63.30121380630289,97.29702805820853],[18.331128240328013,63.30123913239321,97.07201404310763],[18.33111733269267,63.30126604457265,97.30362773127854],[18.33110996789591,63.30129272679213,97.09526921156794],[18.331104575667187,63.30131916480926,96.78810010757297],[18.331099249423865,63.30134527930369,96.69390561617911],[18.33109521484541,63.30137327789161,96.79950205702335],[18.331092036966318,63.30140056381607,96.70010393671691],[18.33108893810049,63.30142717132102,96.64791466202587],[18.331085916728124,63.301453113444204,96.87415483314544],[18.331082924993073,63.301478801087775,97.11714404541999],[18.331079820370146,63.30150459617154,97.19771766010672]]}}]}