{"type":"FeatureCollection","features":[{"type":"Feature","properties":{"_gpxType":"trk","time":"2026-05-22T12:29:31Z","coordinateProperties":{"times":[["2026-05-22T12:29:31Z","2026-05-22T12:29:34Z","2026-05-22T12:29:37Z"],["2026-05-22T12:29:46Z","2026-05-22T12:29:48Z","2026-05-22T12:29:50Z","2026-05-22T12:29:52Z","2026-05-22T12:29:54Z","2026-05-22T12:29:56Z","2026-05-22T12:29:58Z","2026-05-22T12:30:00Z","2026-05-22T12:30:02Z","2026-05-22T12:30:04Z","2026-05-22T12:30:06Z","2026-05-22T12:30:08Z","2026-05-22T12:30:10Z","2026-05-22T12:30:12Z","2026-05-22T12:30:14Z","2026-05-22T12:30:16Z","2026-05-22T12:30:18Z","2026-05-22T12:30:20Z","2026-05-22T12:30:22Z","2026-05-22T12:30:24Z","2026-05-22T12:30:26Z","2026-05-22T12:30:28Z","2026-05-22T12:30:30Z","2026-05-22T12:30:32Z","2026-05-22T12:30:34Z","2026-05-22T12:30:35Z","2026-05-22T12:30:37Z","2026-05-22T12:30:39Z","2026-05-22T12:30:41Z","2026-05-22T12:30:43Z","2026-05-22T12:30:45Z","2026-05-22T12:30:47Z","2026-05-22T12:30:49Z","2026-05-22T12:30:51Z","2026-05-22T12:30:53Z","2026-05-22T12:30:55Z","2026-05-22T12:30:57Z","2026-05-22T12:30:59Z","2026-05-22T12:31:01Z","2026-05-22T12:31:03Z","2026-05-22T12:31:05Z","2026-05-22T12:31:07Z","2026-05-22T12:31:09Z","2026-05-22T12:31:11Z","2026-05-22T12:31:13Z","2026-05-22T12:31:15Z","2026-05-22T12:31:17Z","2026-05-22T12:31:19Z","2026-05-22T12:31:21Z","2026-05-22T12:31:23Z","2026-05-22T12:31:25Z","2026-05-22T12:31:27Z","2026-05-22T12:31:29Z","2026-05-22T12:31:31Z","2026-05-22T12:31:33Z","2026-05-22T12:31:35Z","2026-05-22T12:31:37Z","2026-05-22T12:31:39Z","2026-05-22T12:31:41Z","2026-05-22T12:31:43Z","2026-05-22T12:31:45Z","2026-05-22T12:31:47Z","2026-05-22T12:31:49Z","2026-05-22T12:31:51Z","2026-05-22T12:31:53Z","2026-05-22T12:31:55Z","2026-05-22T12:31:57Z","2026-05-22T12:31:59Z","2026-05-22T12:32:01Z","2026-05-22T12:32:03Z","2026-05-22T12:32:05Z","2026-05-22T12:32:07Z","2026-05-22T12:32:09Z","2026-05-22T12:32:11Z","2026-05-22T12:32:13Z","2026-05-22T12:32:15Z","2026-05-22T12:32:17Z","2026-05-22T12:32:19Z","2026-05-22T12:32:21Z","2026-05-22T12:32:23Z","2026-05-22T12:32:25Z","2026-05-22T12:32:27Z","2026-05-22T12:32:29Z","2026-05-22T12:32:31Z","2026-05-22T12:32:33Z","2026-05-22T12:32:35Z","2026-05-22T12:32:37Z","2026-05-22T12:32:39Z","2026-05-22T12:32:41Z","2026-05-22T12:32:43Z","2026-05-22T12:32:45Z","2026-05-22T12:32:47Z","2026-05-22T12:32:49Z","2026-05-22T12:32:51Z","2026-05-22T12:32:53Z","2026-05-22T12:32:55Z","2026-05-22T12:32:58Z","2026-05-22T12:33:00Z","2026-05-22T12:33:02Z","2026-05-22T12:33:04Z","2026-05-22T12:33:06Z","2026-05-22T12:33:08Z","2026-05-22T12:33:10Z","2026-05-22T12:33:12Z","2026-05-22T12:33:14Z","2026-05-22T12:33:16Z","2026-05-22T12:33:18Z","2026-05-22T12:33:20Z","2026-05-22T12:33:22Z","2026-05-22T12:33:24Z","2026-05-22T12:33:26Z","2026-05-22T12:33:28Z","2026-05-22T12:33:30Z","2026-05-22T12:33:32Z","2026-05-22T12:33:34Z","2026-05-22T12:33:36Z","2026-05-22T12:33:38Z","2026-05-22T12:33:40Z","2026-05-22T12:33:42Z","2026-05-22T12:33:44Z","2026-05-22T12:33:46Z","2026-05-22T12:33:48Z","2026-05-22T12:33:50Z","2026-05-22T12:33:52Z","2026-05-22T12:33:54Z","2026-05-22T12:33:56Z","2026-05-22T12:33:58Z","2026-05-22T12:34:00Z","2026-05-22T12:34:02Z","2026-05-22T12:34:04Z","2026-05-22T12:34:06Z","2026-05-22T12:34:08Z","2026-05-22T12:34:10Z","2026-05-22T12:34:12Z","2026-05-22T12:34:14Z","2026-05-22T12:34:16Z","2026-05-22T12:34:18Z","2026-05-22T12:34:20Z","2026-05-22T12:34:22Z","2026-05-22T12:34:24Z","2026-05-22T12:34:26Z","2026-05-22T12:34:28Z","2026-05-22T12:34:30Z","2026-05-22T12:34:32Z","2026-05-22T12:34:34Z","2026-05-22T12:34:36Z","2026-05-22T12:34:38Z","2026-05-22T12:34:40Z","2026-05-22T12:34:42Z","2026-05-22T12:34:44Z","2026-05-22T12:34:46Z","2026-05-22T12:34:48Z","2026-05-22T12:34:50Z","2026-05-22T12:34:52Z","2026-05-22T12:34:54Z","2026-05-22T12:34:56Z","2026-05-22T12:34:58Z","2026-05-22T12:35:00Z","2026-05-22T12:35:02Z","2026-05-22T12:35:04Z","2026-05-22T12:35:06Z","2026-05-22T12:35:08Z","2026-05-22T12:35:10Z","2026-05-22T12:35:12Z","2026-05-22T12:35:14Z","2026-05-22T12:35:16Z","2026-05-22T12:35:18Z","2026-05-22T12:35:20Z","2026-05-22T12:35:22Z","2026-05-22T12:35:24Z","2026-05-22T12:35:26Z","2026-05-22T12:35:28Z","2026-05-22T12:35:30Z","2026-05-22T12:35:32Z","2026-05-22T12:35:34Z","2026-05-22T12:35:36Z","2026-05-22T12:35:38Z","2026-05-22T12:35:40Z","2026-05-22T12:35:42Z","2026-05-22T12:35:44Z","2026-05-22T12:35:46Z","2026-05-22T12:35:48Z","2026-05-22T12:35:50Z","2026-05-22T12:35:52Z","2026-05-22T12:35:54Z","2026-05-22T12:35:56Z","2026-05-22T12:35:58Z","2026-05-22T12:36:00Z","2026-05-22T12:36:02Z","2026-05-22T12:36:04Z","2026-05-22T12:36:06Z","2026-05-22T12:36:08Z","2026-05-22T12:36:10Z","2026-05-22T12:36:12Z","2026-05-22T12:36:14Z","2026-05-22T12:36:16Z","2026-05-22T12:36:18Z","2026-05-22T12:36:20Z","2026-05-22T12:36:22Z"]]}},"geometry":{"type":"MultiLineString","coordinates":[[[18.331109364673104,63.30148567272109,95.71608022321016],[18.331114488943424,63.30146336752317,95.76302703842521],[18.33112359508617,63.30143865776133,95.90685300715268]],[[18.33113060013195,63.30142081813948,96.61066540051252],[18.331138838304984,63.3014001430016,96.26027649734169],[18.331134737797676,63.30137457598767,96.84780666511506],[18.331132047060482,63.301351196098004,97.00944093987346],[18.33113738926802,63.30132761115139,97.29026797786355],[18.331142248128355,63.301305774954564,97.63848215341568],[18.331150671445574,63.30128316082125,97.71630521398038],[18.331159555606405,63.30126198560216,97.94614377710968],[18.331169933736792,63.30124162155252,98.25135469529778],[18.331169541809448,63.301217460298204,98.45592353027314],[18.331173810373727,63.30119453723742,98.74806795455515],[18.33117457826442,63.301169490919655,99.02764993719757],[18.331187069830303,63.30114729099817,99.35028080828488],[18.331199963131663,63.30112460932546,99.35551899299026],[18.331205890236202,63.301099853119815,99.29844001308084],[18.331221477822286,63.301073998441574,99.40598333533853],[18.331239341980694,63.30105266190532,99.1756332879886],[18.331258161450474,63.30103022233937,99.1494264556095],[18.331274621754513,63.30100450197657,99.1352326059714],[18.331292761780446,63.30098433322859,99.14012452960014],[18.331317667744976,63.30096346419614,99.03778572753072],[18.33134699092413,63.30094628399822,99.007619115524],[18.3313737558106,63.30092719620125,98.84291069768369],[18.331404545118232,63.300907829346905,98.8118249438703],[18.33144127733746,63.30088907648407,98.51320229750127],[18.331465757974666,63.30087268445662,98.42606270685792],[18.331515447499743,63.30085416309522,98.56610076129436],[18.33156445775646,63.300840336182105,98.61395995784551],[18.331616635971297,63.30082574695924,98.3307470139116],[18.331664049191314,63.30081272466747,98.60711220651865],[18.331714692466516,63.30080138474383,98.84129778761417],[18.33177718403135,63.300793063184784,99.11849332321435],[18.331812809314073,63.300777802880994,98.69779680389911],[18.331868065185358,63.30076711480286,98.83182406798005],[18.331921879284298,63.30075725555477,98.68874019850045],[18.331976688929828,63.30074721390783,98.74900312256068],[18.332028590247102,63.30073770509552,98.82846963498741],[18.332080055913593,63.30072827609281,98.78814776055515],[18.33212759574742,63.30071956634439,98.3711405172944],[18.332183592051127,63.30070930730122,98.55545805580914],[18.332238008663676,63.30069933765984,98.5829499522224],[18.332290434557926,63.30068897608311,98.54036365635693],[18.332342760349835,63.30067858686374,98.84148371778429],[18.332393458722045,63.300668520759224,98.74230144452304],[18.33244964063747,63.30065781529722,98.8513368088752],[18.332508704728312,63.30065174756886,98.48955910559744],[18.332561033609448,63.30064023556107,98.49325684364885],[18.332617129453883,63.30062946719813,98.19879153557122],[18.33267234539412,63.30061757225198,98.16242595016956],[18.332729904338645,63.30060988904203,98.00177538953722],[18.332787481517716,63.30059902336747,97.85399558208883],[18.332843194440134,63.30058922420241,97.86911609303206],[18.332900371660628,63.300578224457546,97.77103041484952],[18.33295450143784,63.3005677996139,97.6776064503938],[18.333010888785733,63.300557670340545,97.70071375742555],[18.333067510471295,63.30054753346279,97.83765135146677],[18.333126841009786,63.300538104411906,97.88896692637354],[18.333188379149707,63.30053087344321,98.13972799573094],[18.33324592962479,63.30051942344985,98.3573448928073],[18.333307118932847,63.300510124650266,98.55455710645765],[18.333366945664242,63.30050011212655,98.94116449169815],[18.333426377628232,63.300488720044434,98.81399741396308],[18.333489604209397,63.30048088997106,98.68512262124568],[18.33355138357954,63.30047359412285,98.88950078189373],[18.333614503166647,63.30046613999946,99.4325579116121],[18.33367254477614,63.300459285561644,99.74734249617904],[18.333733774288465,63.30045205464919,100.16314293909818],[18.333793079557523,63.30044505097965,100.53082290943712],[18.333854896366347,63.30043768381124,100.91322021838278],[18.333917991492676,63.30042961092467,101.12863286212087],[18.333975825036397,63.300421458661475,101.14477618597448],[18.334032826965544,63.30041342361984,100.98106954153627],[18.334091165667132,63.30040453189437,101.18413500674069],[18.334150740157263,63.30039510314516,101.38647873327136],[18.33420818446658,63.30038582169852,100.93752172309905],[18.33426544601379,63.30037607904284,101.35178825445473],[18.334321302563072,63.30036609648374,101.28227222431451],[18.334378811551034,63.30035526648579,101.57668455783278],[18.33443466191805,63.300343546872725,101.7111721066758],[18.334492300357457,63.300330251062036,102.00118539482355],[18.334547819741683,63.300316675602005,101.81973990704864],[18.334606090435933,63.30030348319645,102.17740954644978],[18.334657229968407,63.30028758681554,102.21079842280596],[18.334709809716713,63.30027437990107,102.5373430037871],[18.334758048271098,63.30025946163029,102.12867490574718],[18.334802796484215,63.300243105681766,102.4179887007922],[18.33485387534995,63.300224523302575,102.53283904120326],[18.334903837127978,63.300207101138746,102.30684921797365],[18.334952049550342,63.30018829250203,102.25677101686597],[18.334995539780618,63.300169973960074,102.48700053151697],[18.335032487442668,63.300151610437965,102.32347541954368],[18.335063498305807,63.30013140382968,102.1401977520436],[18.335097127022227,63.300106956290776,102.42350477259606],[18.335124204434486,63.30008501689506,102.51394693274051],[18.335146051389422,63.300064584276434,102.43775677587837],[18.33516486913366,63.30003908006898,102.27902265731245],[18.335163625541675,63.30000927199723,101.93792608939111],[18.335149070114937,63.29998888253379,101.32387103233486],[18.335128682092446,63.29997282749278,100.32336242124438],[18.335093824329952,63.299949877663906,99.92753877770156],[18.335057204139055,63.299925767488425,99.45620435383171],[18.335020791886812,63.299900971077506,99.13977203331888],[18.334983199674365,63.2998752027978,99.33292626496404],[18.33494875481937,63.29985147013192,99.35007218271494],[18.334909389034678,63.29982664034373,99.55455993581563],[18.334874391299447,63.2998045656568,99.10416199546307],[18.334835579534136,63.29978196219899,99.13918316550553],[18.334793855708856,63.29975907211201,99.34962019138038],[18.33475176610475,63.2997361443442,99.02927799709141],[18.33471098447171,63.29971392905962,99.06896787974983],[18.33466912093551,63.299692979247844,98.63748710975051],[18.33462719182349,63.29967498931541,98.6171713527292],[18.334574451541975,63.29965655740767,98.35375871602446],[18.334521642809797,63.29964327219217,97.69273125845939],[18.33446665100072,63.299631944337754,97.70329262502491],[18.3344023134102,63.29962236025609,98.09745117463171],[18.33434286337125,63.29961456936161,97.98390542622656],[18.334285048215044,63.299607966172445,98.23572215531021],[18.334227741892317,63.299602275236275,98.03343571908772],[18.334166140968687,63.29959803663989,97.71931258775294],[18.334099356224915,63.299594093292725,97.89649230148643],[18.33403694338325,63.299590794173426,97.81716752704233],[18.333973400190207,63.29958904153587,97.736163681373],[18.333909285595055,63.29958773737191,97.9372036755085],[18.333845277321178,63.29958875968696,97.91349501069635],[18.33378063456636,63.29959040051734,97.70340222027153],[18.333714157497592,63.29959310634161,97.77276471816003],[18.333645802404487,63.29959671625481,98.01572908367962],[18.333581185028432,63.29960128279437,98.43556110095233],[18.333521350544853,63.299606048785535,98.41909491084516],[18.33345731505436,63.29961192011046,98.40176151134074],[18.33339787413748,63.29961737017219,98.29072802048177],[18.33333977654477,63.29962359440501,98.01458133943379],[18.333278635987323,63.29963043530347,98.07451165281236],[18.333220765924164,63.299637562018404,98.16392402723432],[18.33316313570146,63.29964510400138,98.1177398711443],[18.33310642762386,63.29965252532115,98.09423140995204],[18.333048035906003,63.29966072821449,98.35346281901002],[18.33299050989738,63.29966914529401,98.40735667478293],[18.332934171509432,63.29967839626352,98.36547893844545],[18.332872843922903,63.29968869449282,98.64563822094351],[18.332814602642248,63.29969920093535,98.6531365737319],[18.33276841255782,63.29970797365942,98.92704604100436],[18.332719474042428,63.29971829350692,98.36722051631659],[18.332664954995888,63.2997303740805,98.28211071249098],[18.33261155571843,63.29974389375083,98.00771251041442],[18.332559717099148,63.29975778827421,97.678321599029],[18.33250883879673,63.29977251788935,97.64505359064788],[18.332459996565063,63.29978786474138,98.00119650084525],[18.33241099957266,63.29980392637997,97.70136835984886],[18.33236936580995,63.299824013212266,97.93111285101622],[18.332326250892585,63.29984151579696,98.1433729911223],[18.332281104118792,63.299855914188804,98.09626288618892],[18.332235825114083,63.299870354858456,97.93034776579589],[18.332191291428874,63.299882967540455,98.01355414185673],[18.332155447002723,63.29990371527957,97.79962387122214],[18.3321311041475,63.299928028380805,97.47216694522649],[18.332144935818654,63.29997994911765,97.66427251510322],[18.332117354332883,63.3000038909364,97.31215515453368],[18.332084024639062,63.30002616498199,97.38187990896404],[18.332053992993067,63.30004964718357,97.66935256496072],[18.33201773559219,63.300071603065234,97.34555121697485],[18.331974579913425,63.30009110507602,97.41499791946262],[18.33193089946955,63.30010975308724,97.21848387923092],[18.33188842422857,63.300128787864615,97.20517217647284],[18.33184303777622,63.300147884691924,97.06505811214447],[18.33179722864856,63.30016618084733,97.37195853888988],[18.33175146384356,63.30018295980925,96.69877776596695],[18.33169835216089,63.30019921328026,96.70452485326678],[18.331641688517195,63.30021415889786,96.63435343466699],[18.331585201394788,63.30022687547202,96.58071216661483],[18.331525864555825,63.300238164747796,96.6142400149256],[18.3314675509302,63.300248591068126,96.54010198265314],[18.33141169160372,63.300258735361886,96.78969745337963],[18.33135559858979,63.300268922099605,97.04573935177177],[18.33129603056571,63.30027973991812,96.95140756014735],[18.331238031534934,63.30029027278479,96.68615404702723],[18.331180578127952,63.30030070657176,96.98603536840528],[18.331124313417046,63.3003109244851,96.74011914711446],[18.331068751598977,63.30032096371608,97.32411623746157],[18.33101339602878,63.30033061758198,96.93483108934015],[18.330957305278957,63.30034039965715,96.97078516427428],[18.330900726987654,63.300350266751195,96.93832901958376],[18.33084353349758,63.30036024114348,97.08757451735437],[18.330788497914554,63.30036983920454,97.37209016177803],[18.330731226354555,63.30037982720509,97.16278732195497],[18.330674056909526,63.30038979739907,97.44851073436439],[18.330616685091094,63.30039980288312,97.44290416967124],[18.330558885862768,63.30040988292384,97.29519668314606],[18.33049989147638,63.30042017137846,97.23023693356663],[18.330443364716185,63.30043002948875,97.12182166147977],[18.33038870897129,63.300439561297964,97.21086431760341],[18.33034007059803,63.30045272554327,97.22799246199429],[18.33028522528363,63.30046309110567,97.26337298192084],[18.330229684904882,63.300473458953974,97.0872332463041],[18.330175548551065,63.30048483088092,97.71110916137695],[18.33012495138108,63.30049854842861,97.28377163317055],[18.330066747998554,63.30050817270817,97.27022216562182],[18.330010359585422,63.30051697538056,97.45838056597859]]]}}]}