<?xml version="1.0" encoding="UTF-8"?>
<TrainingCenterDatabase xsi:schemaLocation="http://www.garmin.com/xmlschemas/TrainingCenterDatabase/v2 http://www.garmin.com/xmlschemas/TrainingCenterDatabasev2.xsd" xmlns:ns5="http://www.garmin.com/xmlschemas/ActivityGoals/v1" xmlns:ns3="http://www.garmin.com/xmlschemas/ActivityExtension/v2" xmlns:ns2="http://www.garmin.com/xmlschemas/UserProfile/v2" xmlns="http://www.garmin.com/xmlschemas/TrainingCenterDatabase/v2" xmlns:xsi="http://www.w3.org/2001/XMLSchema-instance">
 <Folders/>
 <Courses>
  <Course>
   <Name>Byathlon 5,5km</Name>
   <Lap>
    <TotalTimeSeconds>1852.6879511328364</TotalTimeSeconds>
    <DistanceMeters>5431.663134861798</DistanceMeters>
    <Intensity>Active</Intensity>
   </Lap>
   <Track>
    <Trackpoint>
     <Time>2026-07-22T14:42:14+00:00</Time>
     <Position>
      <LatitudeDegrees>63.3012500</LatitudeDegrees>
      <LongitudeDegrees>18.3313300</LongitudeDegrees>
     </Position>
     <AltitudeMeters>120.19</AltitudeMeters>
     <DistanceMeters>0.0</DistanceMeters>
    </Trackpoint>
    <Trackpoint>
     <Time>2026-07-22T14:42:22+00:00</Time>
     <Position>
      <LatitudeDegrees>63.3014300</LatitudeDegrees>
      <LongitudeDegrees>18.3312400</LongitudeDegrees>
     </Position>
     <AltitudeMeters>119.94</AltitudeMeters>
     <DistanceMeters>20.532510697742445</DistanceMeters>
    </Trackpoint>
    <Trackpoint>
     <Time>2026-07-22T14:42:30+00:00</Time>
     <Position>
      <LatitudeDegrees>63.3017600</LatitudeDegrees>
      <LongitudeDegrees>18.3311300</LongitudeDegrees>
     </Position>
     <AltitudeMeters>119.54</AltitudeMeters>
     <DistanceMeters>57.66969081941394</DistanceMeters>
    </Trackpoint>
    <Trackpoint>
     <Time>2026-07-22T14:42:38+00:00</Time>
     <Position>
      <LatitudeDegrees>63.3024400</LatitudeDegrees>
      <LongitudeDegrees>18.3317100</LongitudeDegrees>
     </Position>
     <AltitudeMeters>118.07000000000001</AltitudeMeters>
     <DistanceMeters>138.7174847108846</DistanceMeters>
    </Trackpoint>
    <Trackpoint>
     <Time>2026-07-22T14:42:46+00:00</Time>
     <Position>
      <LatitudeDegrees>63.3024300</LatitudeDegrees>
      <LongitudeDegrees>18.3317100</LongitudeDegrees>
     </Position>
     <AltitudeMeters>118.08</AltitudeMeters>
     <DistanceMeters>138.7174847108846</DistanceMeters>
    </Trackpoint>
    <Trackpoint>
     <Time>2026-07-22T14:42:54+00:00</Time>
     <Position>
      <LatitudeDegrees>63.3027200</LatitudeDegrees>
      <LongitudeDegrees>18.3319500</LongitudeDegrees>
     </Position>
     <AltitudeMeters>117.5</AltitudeMeters>
     <DistanceMeters>173.15205955221808</DistanceMeters>
    </Trackpoint>
    <Trackpoint>
     <Time>2026-07-22T14:43:02+00:00</Time>
     <Position>
      <LatitudeDegrees>63.3029200</LatitudeDegrees>
      <LongitudeDegrees>18.3322000</LongitudeDegrees>
     </Position>
     <AltitudeMeters>117.23000000000002</AltitudeMeters>
     <DistanceMeters>198.68113983521133</DistanceMeters>
    </Trackpoint>
    <Trackpoint>
     <Time>2026-07-22T14:43:10+00:00</Time>
     <Position>
      <LatitudeDegrees>63.3029200</LatitudeDegrees>
      <LongitudeDegrees>18.3321900</LongitudeDegrees>
     </Position>
     <AltitudeMeters>117.25</AltitudeMeters>
     <DistanceMeters>198.68113983521133</DistanceMeters>
    </Trackpoint>
    <Trackpoint>
     <Time>2026-07-22T14:43:19+00:00</Time>
     <Position>
      <LatitudeDegrees>63.3031700</LatitudeDegrees>
      <LongitudeDegrees>18.3325000</LongitudeDegrees>
     </Position>
     <AltitudeMeters>117.02000000000001</AltitudeMeters>
     <DistanceMeters>230.5314072616172</DistanceMeters>
    </Trackpoint>
    <Trackpoint>
     <Time>2026-07-22T14:43:27+00:00</Time>
     <Position>
      <LatitudeDegrees>63.3035800</LatitudeDegrees>
      <LongitudeDegrees>18.3332800</LongitudeDegrees>
     </Position>
     <AltitudeMeters>117.17</AltitudeMeters>
     <DistanceMeters>290.5588558451765</DistanceMeters>
    </Trackpoint>
    <Trackpoint>
     <Time>2026-07-22T14:43:35+00:00</Time>
     <Position>
      <LatitudeDegrees>63.3037100</LatitudeDegrees>
      <LongitudeDegrees>18.3336200</LongitudeDegrees>
     </Position>
     <AltitudeMeters>117.48000000000002</AltitudeMeters>
     <DistanceMeters>312.88253270202847</DistanceMeters>
    </Trackpoint>
    <Trackpoint>
     <Time>2026-07-22T14:43:43+00:00</Time>
     <Position>
      <LatitudeDegrees>63.3037100</LatitudeDegrees>
      <LongitudeDegrees>18.3336100</LongitudeDegrees>
     </Position>
     <AltitudeMeters>117.48000000000002</AltitudeMeters>
     <DistanceMeters>312.88253270202847</DistanceMeters>
    </Trackpoint>
    <Trackpoint>
     <Time>2026-07-22T14:43:51+00:00</Time>
     <Position>
      <LatitudeDegrees>63.3039400</LatitudeDegrees>
      <LongitudeDegrees>18.3342200</LongitudeDegrees>
     </Position>
     <AltitudeMeters>117.79</AltitudeMeters>
     <DistanceMeters>352.70126191872555</DistanceMeters>
    </Trackpoint>
    <Trackpoint>
     <Time>2026-07-22T14:43:59+00:00</Time>
     <Position>
      <LatitudeDegrees>63.3041700</LatitudeDegrees>
      <LongitudeDegrees>18.3351900</LongitudeDegrees>
     </Position>
     <AltitudeMeters>118.94</AltitudeMeters>
     <DistanceMeters>407.5422066009206</DistanceMeters>
    </Trackpoint>
    <Trackpoint>
     <Time>2026-07-22T14:44:07+00:00</Time>
     <Position>
      <LatitudeDegrees>63.3042800</LatitudeDegrees>
      <LongitudeDegrees>18.3350800</LongitudeDegrees>
     </Position>
     <AltitudeMeters>119.29</AltitudeMeters>
     <DistanceMeters>420.9634333990367</DistanceMeters>
    </Trackpoint>
    <Trackpoint>
     <Time>2026-07-22T14:44:15+00:00</Time>
     <Position>
      <LatitudeDegrees>63.3042800</LatitudeDegrees>
      <LongitudeDegrees>18.3350900</LongitudeDegrees>
     </Position>
     <AltitudeMeters>119.25</AltitudeMeters>
     <DistanceMeters>420.9634333990367</DistanceMeters>
    </Trackpoint>
    <Trackpoint>
     <Time>2026-07-22T14:44:24+00:00</Time>
     <Position>
      <LatitudeDegrees>63.3044400</LatitudeDegrees>
      <LongitudeDegrees>18.3349400</LongitudeDegrees>
     </Position>
     <AltitudeMeters>119.79</AltitudeMeters>
     <DistanceMeters>440.28568900404247</DistanceMeters>
    </Trackpoint>
    <Trackpoint>
     <Time>2026-07-22T14:44:32+00:00</Time>
     <Position>
      <LatitudeDegrees>63.3048500</LatitudeDegrees>
      <LongitudeDegrees>18.3340400</LongitudeDegrees>
     </Position>
     <AltitudeMeters>122.62</AltitudeMeters>
     <DistanceMeters>504.3726955848838</DistanceMeters>
    </Trackpoint>
    <Trackpoint>
     <Time>2026-07-22T14:44:40+00:00</Time>
     <Position>
      <LatitudeDegrees>63.3053700</LatitudeDegrees>
      <LongitudeDegrees>18.3324500</LongitudeDegrees>
     </Position>
     <AltitudeMeters>128.17000000000002</AltitudeMeters>
     <DistanceMeters>602.7048656323938</DistanceMeters>
    </Trackpoint>
    <Trackpoint>
     <Time>2026-07-22T14:44:48+00:00</Time>
     <Position>
      <LatitudeDegrees>63.3051200</LatitudeDegrees>
      <LongitudeDegrees>18.3332000</LongitudeDegrees>
     </Position>
     <AltitudeMeters>125.63000000000002</AltitudeMeters>
     <DistanceMeters>649.398731186092</DistanceMeters>
    </Trackpoint>
    <Trackpoint>
     <Time>2026-07-22T14:44:56+00:00</Time>
     <Position>
      <LatitudeDegrees>63.3053700</LatitudeDegrees>
      <LongitudeDegrees>18.3324500</LongitudeDegrees>
     </Position>
     <AltitudeMeters>128.17000000000002</AltitudeMeters>
     <DistanceMeters>696.0925967397903</DistanceMeters>
    </Trackpoint>
    <Trackpoint>
     <Time>2026-07-22T14:45:04+00:00</Time>
     <Position>
      <LatitudeDegrees>63.3057800</LatitudeDegrees>
      <LongitudeDegrees>18.3320400</LongitudeDegrees>
     </Position>
     <AltitudeMeters>128.53</AltitudeMeters>
     <DistanceMeters>746.1167757239346</DistanceMeters>
    </Trackpoint>
    <Trackpoint>
     <Time>2026-07-22T14:45:12+00:00</Time>
     <Position>
      <LatitudeDegrees>63.3062200</LatitudeDegrees>
      <LongitudeDegrees>18.3317200</LongitudeDegrees>
     </Position>
     <AltitudeMeters>128.82000000000002</AltitudeMeters>
     <DistanceMeters>797.6341353731763</DistanceMeters>
    </Trackpoint>
    <Trackpoint>
     <Time>2026-07-22T14:45:20+00:00</Time>
     <Position>
      <LatitudeDegrees>63.3065400</LatitudeDegrees>
      <LongitudeDegrees>18.3314000</LongitudeDegrees>
     </Position>
     <AltitudeMeters>128.77</AltitudeMeters>
     <DistanceMeters>836.6772138283143</DistanceMeters>
    </Trackpoint>
    <Trackpoint>
     <Time>2026-07-22T14:45:29+00:00</Time>
     <Position>
      <LatitudeDegrees>63.3068400</LatitudeDegrees>
      <LongitudeDegrees>18.3309700</LongitudeDegrees>
     </Position>
     <AltitudeMeters>128.93</AltitudeMeters>
     <DistanceMeters>876.3883606040963</DistanceMeters>
    </Trackpoint>
    <Trackpoint>
     <Time>2026-07-22T14:45:37+00:00</Time>
     <Position>
      <LatitudeDegrees>63.3068700</LatitudeDegrees>
      <LongitudeDegrees>18.3308700</LongitudeDegrees>
     </Position>
     <AltitudeMeters>128.9</AltitudeMeters>
     <DistanceMeters>882.4003006141265</DistanceMeters>
    </Trackpoint>
    <Trackpoint>
     <Time>2026-07-22T14:45:45+00:00</Time>
     <Position>
      <LatitudeDegrees>63.3068400</LatitudeDegrees>
      <LongitudeDegrees>18.3309700</LongitudeDegrees>
     </Position>
     <AltitudeMeters>128.93</AltitudeMeters>
     <DistanceMeters>882.4003006141265</DistanceMeters>
    </Trackpoint>
    <Trackpoint>
     <Time>2026-07-22T14:45:53+00:00</Time>
     <Position>
      <LatitudeDegrees>63.3071400</LatitudeDegrees>
      <LongitudeDegrees>18.3312400</LongitudeDegrees>
     </Position>
     <AltitudeMeters>130.53</AltitudeMeters>
     <DistanceMeters>918.4144653697278</DistanceMeters>
    </Trackpoint>
    <Trackpoint>
     <Time>2026-07-22T14:46:01+00:00</Time>
     <Position>
      <LatitudeDegrees>63.3078200</LatitudeDegrees>
      <LongitudeDegrees>18.3317900</LongitudeDegrees>
     </Position>
     <AltitudeMeters>138.33</AltitudeMeters>
     <DistanceMeters>998.9358923328432</DistanceMeters>
    </Trackpoint>
    <Trackpoint>
     <Time>2026-07-22T14:46:09+00:00</Time>
     <Position>
      <LatitudeDegrees>63.3083400</LatitudeDegrees>
      <LongitudeDegrees>18.3320000</LongitudeDegrees>
     </Position>
     <AltitudeMeters>143.44</AltitudeMeters>
     <DistanceMeters>1057.7541847030182</DistanceMeters>
    </Trackpoint>
    <Trackpoint>
     <Time>2026-07-22T14:46:17+00:00</Time>
     <Position>
      <LatitudeDegrees>63.3089600</LatitudeDegrees>
      <LongitudeDegrees>18.3321900</LongitudeDegrees>
     </Position>
     <AltitudeMeters>145.71</AltitudeMeters>
     <DistanceMeters>1127.4081894361484</DistanceMeters>
    </Trackpoint>
    <Trackpoint>
     <Time>2026-07-22T14:46:25+00:00</Time>
     <Position>
      <LatitudeDegrees>63.3094000</LatitudeDegrees>
      <LongitudeDegrees>18.3321100</LongitudeDegrees>
     </Position>
     <AltitudeMeters>146.1</AltitudeMeters>
     <DistanceMeters>1176.5413253480024</DistanceMeters>
    </Trackpoint>
    <Trackpoint>
     <Time>2026-07-22T14:46:34+00:00</Time>
     <Position>
      <LatitudeDegrees>63.3097600</LatitudeDegrees>
      <LongitudeDegrees>18.3322400</LongitudeDegrees>
     </Position>
     <AltitudeMeters>143.33</AltitudeMeters>
     <DistanceMeters>1217.1314000246086</DistanceMeters>
    </Trackpoint>
    <Trackpoint>
     <Time>2026-07-22T14:46:42+00:00</Time>
     <Position>
      <LatitudeDegrees>63.3100100</LatitudeDegrees>
      <LongitudeDegrees>18.3326500</LongitudeDegrees>
     </Position>
     <AltitudeMeters>145.73</AltitudeMeters>
     <DistanceMeters>1251.6893840120272</DistanceMeters>
    </Trackpoint>
    <Trackpoint>
     <Time>2026-07-22T14:46:50+00:00</Time>
     <Position>
      <LatitudeDegrees>63.3103300</LatitudeDegrees>
      <LongitudeDegrees>18.3329700</LongitudeDegrees>
     </Position>
     <AltitudeMeters>148.34</AltitudeMeters>
     <DistanceMeters>1290.7316000299686</DistanceMeters>
    </Trackpoint>
    <Trackpoint>
     <Time>2026-07-22T14:46:58+00:00</Time>
     <Position>
      <LatitudeDegrees>63.3106700</LatitudeDegrees>
      <LongitudeDegrees>18.3333700</LongitudeDegrees>
     </Position>
     <AltitudeMeters>154.61</AltitudeMeters>
     <DistanceMeters>1333.5303204010534</DistanceMeters>
    </Trackpoint>
    <Trackpoint>
     <Time>2026-07-22T14:47:06+00:00</Time>
     <Position>
      <LatitudeDegrees>63.3109500</LatitudeDegrees>
      <LongitudeDegrees>18.3333100</LongitudeDegrees>
     </Position>
     <AltitudeMeters>161.21</AltitudeMeters>
     <DistanceMeters>1364.837114510387</DistanceMeters>
    </Trackpoint>
    <Trackpoint>
     <Time>2026-07-22T14:47:14+00:00</Time>
     <Position>
      <LatitudeDegrees>63.3112300</LatitudeDegrees>
      <LongitudeDegrees>18.3332100</LongitudeDegrees>
     </Position>
     <AltitudeMeters>162.53</AltitudeMeters>
     <DistanceMeters>1396.3982855027318</DistanceMeters>
    </Trackpoint>
    <Trackpoint>
     <Time>2026-07-22T14:47:22+00:00</Time>
     <Position>
      <LatitudeDegrees>63.3115300</LatitudeDegrees>
      <LongitudeDegrees>18.3333600</LongitudeDegrees>
     </Position>
     <AltitudeMeters>163.57000000000002</AltitudeMeters>
     <DistanceMeters>1430.618563898582</DistanceMeters>
    </Trackpoint>
    <Trackpoint>
     <Time>2026-07-22T14:47:30+00:00</Time>
     <Position>
      <LatitudeDegrees>63.3118800</LatitudeDegrees>
      <LongitudeDegrees>18.3338000</LongitudeDegrees>
     </Position>
     <AltitudeMeters>167.74</AltitudeMeters>
     <DistanceMeters>1475.3524615039773</DistanceMeters>
    </Trackpoint>
    <Trackpoint>
     <Time>2026-07-22T14:47:39+00:00</Time>
     <Position>
      <LatitudeDegrees>63.3122900</LatitudeDegrees>
      <LongitudeDegrees>18.3342400</LongitudeDegrees>
     </Position>
     <AltitudeMeters>171.41</AltitudeMeters>
     <DistanceMeters>1526.0076057562799</DistanceMeters>
    </Trackpoint>
    <Trackpoint>
     <Time>2026-07-22T14:47:47+00:00</Time>
     <Position>
      <LatitudeDegrees>63.3124000</LatitudeDegrees>
      <LongitudeDegrees>18.3341300</LongitudeDegrees>
     </Position>
     <AltitudeMeters>172.23000000000002</AltitudeMeters>
     <DistanceMeters>1539.4281973888192</DistanceMeters>
    </Trackpoint>
    <Trackpoint>
     <Time>2026-07-22T14:47:55+00:00</Time>
     <Position>
      <LatitudeDegrees>63.3125200</LatitudeDegrees>
      <LongitudeDegrees>18.3337400</LongitudeDegrees>
     </Position>
     <AltitudeMeters>174.6</AltitudeMeters>
     <DistanceMeters>1563.058696665904</DistanceMeters>
    </Trackpoint>
    <Trackpoint>
     <Time>2026-07-22T14:48:03+00:00</Time>
     <Position>
      <LatitudeDegrees>63.3127600</LatitudeDegrees>
      <LongitudeDegrees>18.3328000</LongitudeDegrees>
     </Position>
     <AltitudeMeters>181.19000000000003</AltitudeMeters>
     <DistanceMeters>1617.106631375132</DistanceMeters>
    </Trackpoint>
    <Trackpoint>
     <Time>2026-07-22T14:48:11+00:00</Time>
     <Position>
      <LatitudeDegrees>63.3129300</LatitudeDegrees>
      <LongitudeDegrees>18.3318800</LongitudeDegrees>
     </Position>
     <AltitudeMeters>190.03</AltitudeMeters>
     <DistanceMeters>1666.8329283950227</DistanceMeters>
    </Trackpoint>
    <Trackpoint>
     <Time>2026-07-22T14:48:19+00:00</Time>
     <Position>
      <LatitudeDegrees>63.3130700</LatitudeDegrees>
      <LongitudeDegrees>18.3311200</LongitudeDegrees>
     </Position>
     <AltitudeMeters>193.72</AltitudeMeters>
     <DistanceMeters>1707.892597387771</DistanceMeters>
    </Trackpoint>
    <Trackpoint>
     <Time>2026-07-22T14:48:27+00:00</Time>
     <Position>
      <LatitudeDegrees>63.3132600</LatitudeDegrees>
      <LongitudeDegrees>18.3304500</LongitudeDegrees>
     </Position>
     <AltitudeMeters>201.10000000000002</AltitudeMeters>
     <DistanceMeters>1747.4995593209223</DistanceMeters>
    </Trackpoint>
    <Trackpoint>
     <Time>2026-07-22T14:48:35+00:00</Time>
     <Position>
      <LatitudeDegrees>63.3133900</LatitudeDegrees>
      <LongitudeDegrees>18.3295900</LongitudeDegrees>
     </Position>
     <AltitudeMeters>205.87000000000003</AltitudeMeters>
     <DistanceMeters>1792.855515525854</DistanceMeters>
    </Trackpoint>
    <Trackpoint>
     <Time>2026-07-22T14:48:44+00:00</Time>
     <Position>
      <LatitudeDegrees>63.3135100</LatitudeDegrees>
      <LongitudeDegrees>18.3286500</LongitudeDegrees>
     </Position>
     <AltitudeMeters>205.69</AltitudeMeters>
     <DistanceMeters>1841.7016863834342</DistanceMeters>
    </Trackpoint>
    <Trackpoint>
     <Time>2026-07-22T14:48:52+00:00</Time>
     <Position>
      <LatitudeDegrees>63.3135700</LatitudeDegrees>
      <LongitudeDegrees>18.3278100</LongitudeDegrees>
     </Position>
     <AltitudeMeters>199.62</AltitudeMeters>
     <DistanceMeters>1884.2157649683088</DistanceMeters>
    </Trackpoint>
    <Trackpoint>
     <Time>2026-07-22T14:49:00+00:00</Time>
     <Position>
      <LatitudeDegrees>63.3135600</LatitudeDegrees>
      <LongitudeDegrees>18.3269300</LongitudeDegrees>
     </Position>
     <AltitudeMeters>201.51000000000002</AltitudeMeters>
     <DistanceMeters>1928.2155182920649</DistanceMeters>
    </Trackpoint>
    <Trackpoint>
     <Time>2026-07-22T14:49:08+00:00</Time>
     <Position>
      <LatitudeDegrees>63.3137100</LatitudeDegrees>
      <LongitudeDegrees>18.3262900</LongitudeDegrees>
     </Position>
     <AltitudeMeters>202.77</AltitudeMeters>
     <DistanceMeters>1964.2991678292967</DistanceMeters>
    </Trackpoint>
    <Trackpoint>
     <Time>2026-07-22T14:49:16+00:00</Time>
     <Position>
      <LatitudeDegrees>63.3138700</LatitudeDegrees>
      <LongitudeDegrees>18.3257600</LongitudeDegrees>
     </Position>
     <AltitudeMeters>205.0</AltitudeMeters>
     <DistanceMeters>1996.219100428414</DistanceMeters>
    </Trackpoint>
    <Trackpoint>
     <Time>2026-07-22T14:49:24+00:00</Time>
     <Position>
      <LatitudeDegrees>63.3141300</LatitudeDegrees>
      <LongitudeDegrees>18.3246900</LongitudeDegrees>
     </Position>
     <AltitudeMeters>205.20000000000002</AltitudeMeters>
     <DistanceMeters>2057.02734849241</DistanceMeters>
    </Trackpoint>
    <Trackpoint>
     <Time>2026-07-22T14:49:32+00:00</Time>
     <Position>
      <LatitudeDegrees>63.3143500</LatitudeDegrees>
      <LongitudeDegrees>18.3238800</LongitudeDegrees>
     </Position>
     <AltitudeMeters>204.20000000000002</AltitudeMeters>
     <DistanceMeters>2104.341436997086</DistanceMeters>
    </Trackpoint>
    <Trackpoint>
     <Time>2026-07-22T14:49:40+00:00</Time>
     <Position>
      <LatitudeDegrees>63.3146400</LatitudeDegrees>
      <LongitudeDegrees>18.3232100</LongitudeDegrees>
     </Position>
     <AltitudeMeters>202.33</AltitudeMeters>
     <DistanceMeters>2150.8513370753194</DistanceMeters>
    </Trackpoint>
    <Trackpoint>
     <Time>2026-07-22T14:49:49+00:00</Time>
     <Position>
      <LatitudeDegrees>63.3147100</LatitudeDegrees>
      <LongitudeDegrees>18.3228900</LongitudeDegrees>
     </Position>
     <AltitudeMeters>200.85000000000002</AltitudeMeters>
     <DistanceMeters>2168.6420252655244</DistanceMeters>
    </Trackpoint>
    <Trackpoint>
     <Time>2026-07-22T14:49:57+00:00</Time>
     <Position>
      <LatitudeDegrees>63.3146400</LatitudeDegrees>
      <LongitudeDegrees>18.3224000</LongitudeDegrees>
     </Position>
     <AltitudeMeters>199.42000000000002</AltitudeMeters>
     <DistanceMeters>2194.342374546598</DistanceMeters>
    </Trackpoint>
    <Trackpoint>
     <Time>2026-07-22T14:50:05+00:00</Time>
     <Position>
      <LatitudeDegrees>63.3145200</LatitudeDegrees>
      <LongitudeDegrees>18.3219500</LongitudeDegrees>
     </Position>
     <AltitudeMeters>203.52</AltitudeMeters>
     <DistanceMeters>2220.500616966334</DistanceMeters>
    </Trackpoint>
    <Trackpoint>
     <Time>2026-07-22T14:50:13+00:00</Time>
     <Position>
      <LatitudeDegrees>63.3144500</LatitudeDegrees>
      <LongitudeDegrees>18.3212800</LongitudeDegrees>
     </Position>
     <AltitudeMeters>209.68</AltitudeMeters>
     <DistanceMeters>2254.8829191832183</DistanceMeters>
    </Trackpoint>
    <Trackpoint>
     <Time>2026-07-22T14:50:21+00:00</Time>
     <Position>
      <LatitudeDegrees>63.3146600</LatitudeDegrees>
      <LongitudeDegrees>18.3204300</LongitudeDegrees>
     </Position>
     <AltitudeMeters>215.15</AltitudeMeters>
     <DistanceMeters>2303.372141780378</DistanceMeters>
    </Trackpoint>
    <Trackpoint>
     <Time>2026-07-22T14:50:29+00:00</Time>
     <Position>
      <LatitudeDegrees>63.3149200</LatitudeDegrees>
      <LongitudeDegrees>18.3199200</LongitudeDegrees>
     </Position>
     <AltitudeMeters>215.14000000000001</AltitudeMeters>
     <DistanceMeters>2341.9352617656305</DistanceMeters>
    </Trackpoint>
    <Trackpoint>
     <Time>2026-07-22T14:50:37+00:00</Time>
     <Position>
      <LatitudeDegrees>63.3151200</LatitudeDegrees>
      <LongitudeDegrees>18.3193300</LongitudeDegrees>
     </Position>
     <AltitudeMeters>215.73</AltitudeMeters>
     <DistanceMeters>2378.8820438251073</DistanceMeters>
    </Trackpoint>
    <Trackpoint>
     <Time>2026-07-22T14:50:45+00:00</Time>
     <Position>
      <LatitudeDegrees>63.3153000</LatitudeDegrees>
      <LongitudeDegrees>18.3187200</LongitudeDegrees>
     </Position>
     <AltitudeMeters>221.19000000000003</AltitudeMeters>
     <DistanceMeters>2415.363109930148</DistanceMeters>
    </Trackpoint>
    <Trackpoint>
     <Time>2026-07-22T14:50:54+00:00</Time>
     <Position>
      <LatitudeDegrees>63.3155900</LatitudeDegrees>
      <LongitudeDegrees>18.3181900</LongitudeDegrees>
     </Position>
     <AltitudeMeters>222.35000000000002</AltitudeMeters>
     <DistanceMeters>2457.1174515561825</DistanceMeters>
    </Trackpoint>
    <Trackpoint>
     <Time>2026-07-22T14:51:02+00:00</Time>
     <Position>
      <LatitudeDegrees>63.3158300</LatitudeDegrees>
      <LongitudeDegrees>18.3178700</LongitudeDegrees>
     </Position>
     <AltitudeMeters>224.86</AltitudeMeters>
     <DistanceMeters>2488.250565410969</DistanceMeters>
    </Trackpoint>
    <Trackpoint>
     <Time>2026-07-22T14:51:10+00:00</Time>
     <Position>
      <LatitudeDegrees>63.3160100</LatitudeDegrees>
      <LongitudeDegrees>18.3176400</LongitudeDegrees>
     </Position>
     <AltitudeMeters>227.41000000000003</AltitudeMeters>
     <DistanceMeters>2511.3475843552933</DistanceMeters>
    </Trackpoint>
    <Trackpoint>
     <Time>2026-07-22T14:51:18+00:00</Time>
     <Position>
      <LatitudeDegrees>63.3158300</LatitudeDegrees>
      <LongitudeDegrees>18.3176600</LongitudeDegrees>
     </Position>
     <AltitudeMeters>224.66000000000003</AltitudeMeters>
     <DistanceMeters>2531.405729365288</DistanceMeters>
    </Trackpoint>
    <Trackpoint>
     <Time>2026-07-22T14:51:26+00:00</Time>
     <Position>
      <LatitudeDegrees>63.3156300</LatitudeDegrees>
      <LongitudeDegrees>18.3177000</LongitudeDegrees>
     </Position>
     <AltitudeMeters>222.08</AltitudeMeters>
     <DistanceMeters>2553.7544636786515</DistanceMeters>
    </Trackpoint>
    <Trackpoint>
     <Time>2026-07-22T14:51:34+00:00</Time>
     <Position>
      <LatitudeDegrees>63.3154800</LatitudeDegrees>
      <LongitudeDegrees>18.3175800</LongitudeDegrees>
     </Position>
     <AltitudeMeters>221.54000000000002</AltitudeMeters>
     <DistanceMeters>2571.493487817446</DistanceMeters>
    </Trackpoint>
    <Trackpoint>
     <Time>2026-07-22T14:51:42+00:00</Time>
     <Position>
      <LatitudeDegrees>63.3153300</LatitudeDegrees>
      <LongitudeDegrees>18.3173200</LongitudeDegrees>
     </Position>
     <AltitudeMeters>224.14000000000001</AltitudeMeters>
     <DistanceMeters>2592.6493329439827</DistanceMeters>
    </Trackpoint>
    <Trackpoint>
     <Time>2026-07-22T14:51:50+00:00</Time>
     <Position>
      <LatitudeDegrees>63.3151600</LatitudeDegrees>
      <LongitudeDegrees>18.3171700</LongitudeDegrees>
     </Position>
     <AltitudeMeters>224.4</AltitudeMeters>
     <DistanceMeters>2613.0008259750844</DistanceMeters>
    </Trackpoint>
    <Trackpoint>
     <Time>2026-07-22T14:51:59+00:00</Time>
     <Position>
      <LatitudeDegrees>63.3149700</LatitudeDegrees>
      <LongitudeDegrees>18.3172100</LongitudeDegrees>
     </Position>
     <AltitudeMeters>223.00000000000003</AltitudeMeters>
     <DistanceMeters>2634.2413031307406</DistanceMeters>
    </Trackpoint>
    <Trackpoint>
     <Time>2026-07-22T14:52:07+00:00</Time>
     <Position>
      <LatitudeDegrees>63.3148600</LatitudeDegrees>
      <LongitudeDegrees>18.3174500</LongitudeDegrees>
     </Position>
     <AltitudeMeters>222.89</AltitudeMeters>
     <DistanceMeters>2651.381086489842</DistanceMeters>
    </Trackpoint>
    <Trackpoint>
     <Time>2026-07-22T14:52:15+00:00</Time>
     <Position>
      <LatitudeDegrees>63.3146800</LatitudeDegrees>
      <LongitudeDegrees>18.3177500</LongitudeDegrees>
     </Position>
     <AltitudeMeters>220.04000000000002</AltitudeMeters>
     <DistanceMeters>2676.4043696443755</DistanceMeters>
    </Trackpoint>
    <Trackpoint>
     <Time>2026-07-22T14:52:23+00:00</Time>
     <Position>
      <LatitudeDegrees>63.3144900</LatitudeDegrees>
      <LongitudeDegrees>18.3176500</LongitudeDegrees>
     </Position>
     <AltitudeMeters>208.29000000000002</AltitudeMeters>
     <DistanceMeters>2698.133217865244</DistanceMeters>
    </Trackpoint>
    <Trackpoint>
     <Time>2026-07-22T14:52:31+00:00</Time>
     <Position>
      <LatitudeDegrees>63.3143400</LatitudeDegrees>
      <LongitudeDegrees>18.3173700</LongitudeDegrees>
     </Position>
     <AltitudeMeters>202.06</AltitudeMeters>
     <DistanceMeters>2719.917666986925</DistanceMeters>
    </Trackpoint>
    <Trackpoint>
     <Time>2026-07-22T14:52:39+00:00</Time>
     <Position>
      <LatitudeDegrees>63.3142400</LatitudeDegrees>
      <LongitudeDegrees>18.3169300</LongitudeDegrees>
     </Position>
     <AltitudeMeters>208.26000000000002</AltitudeMeters>
     <DistanceMeters>2744.5657467378032</DistanceMeters>
    </Trackpoint>
    <Trackpoint>
     <Time>2026-07-22T14:52:47+00:00</Time>
     <Position>
      <LatitudeDegrees>63.3140700</LatitudeDegrees>
      <LongitudeDegrees>18.3164700</LongitudeDegrees>
     </Position>
     <AltitudeMeters>195.12</AltitudeMeters>
     <DistanceMeters>2774.3417504231725</DistanceMeters>
    </Trackpoint>
    <Trackpoint>
     <Time>2026-07-22T14:52:55+00:00</Time>
     <Position>
      <LatitudeDegrees>63.3139000</LatitudeDegrees>
      <LongitudeDegrees>18.3160900</LongitudeDegrees>
     </Position>
     <AltitudeMeters>190.48000000000002</AltitudeMeters>
     <DistanceMeters>2801.150907537904</DistanceMeters>
    </Trackpoint>
    <Trackpoint>
     <Time>2026-07-22T14:53:04+00:00</Time>
     <Position>
      <LatitudeDegrees>63.3137000</LatitudeDegrees>
      <LongitudeDegrees>18.3156800</LongitudeDegrees>
     </Position>
     <AltitudeMeters>186.25000000000003</AltitudeMeters>
     <DistanceMeters>2831.4071248215305</DistanceMeters>
    </Trackpoint>
    <Trackpoint>
     <Time>2026-07-22T14:53:12+00:00</Time>
     <Position>
      <LatitudeDegrees>63.3134700</LatitudeDegrees>
      <LongitudeDegrees>18.3151400</LongitudeDegrees>
     </Position>
     <AltitudeMeters>180.51</AltitudeMeters>
     <DistanceMeters>2868.606349511704</DistanceMeters>
    </Trackpoint>
    <Trackpoint>
     <Time>2026-07-22T14:53:20+00:00</Time>
     <Position>
      <LatitudeDegrees>63.3133600</LatitudeDegrees>
      <LongitudeDegrees>18.3145000</LongitudeDegrees>
     </Position>
     <AltitudeMeters>176.27</AltitudeMeters>
     <DistanceMeters>2902.8586986920686</DistanceMeters>
    </Trackpoint>
    <Trackpoint>
     <Time>2026-07-22T14:53:28+00:00</Time>
     <Position>
      <LatitudeDegrees>63.3132200</LatitudeDegrees>
      <LongitudeDegrees>18.3139300</LongitudeDegrees>
     </Position>
     <AltitudeMeters>173.63</AltitudeMeters>
     <DistanceMeters>2935.332019778517</DistanceMeters>
    </Trackpoint>
    <Trackpoint>
     <Time>2026-07-22T14:53:36+00:00</Time>
     <Position>
      <LatitudeDegrees>63.3130900</LatitudeDegrees>
      <LongitudeDegrees>18.3133600</LongitudeDegrees>
     </Position>
     <AltitudeMeters>169.83</AltitudeMeters>
     <DistanceMeters>2967.286362615202</DistanceMeters>
    </Trackpoint>
    <Trackpoint>
     <Time>2026-07-22T14:53:44+00:00</Time>
     <Position>
      <LatitudeDegrees>63.3129500</LatitudeDegrees>
      <LongitudeDegrees>18.3125500</LongitudeDegrees>
     </Position>
     <AltitudeMeters>167.26000000000002</AltitudeMeters>
     <DistanceMeters>3010.668663995585</DistanceMeters>
    </Trackpoint>
    <Trackpoint>
     <Time>2026-07-22T14:53:52+00:00</Time>
     <Position>
      <LatitudeDegrees>63.3129000</LatitudeDegrees>
      <LongitudeDegrees>18.3122300</LongitudeDegrees>
     </Position>
     <AltitudeMeters>165.68</AltitudeMeters>
     <DistanceMeters>3027.604174892836</DistanceMeters>
    </Trackpoint>
    <Trackpoint>
     <Time>2026-07-22T14:54:00+00:00</Time>
     <Position>
      <LatitudeDegrees>63.3128100</LatitudeDegrees>
      <LongitudeDegrees>18.3121100</LongitudeDegrees>
     </Position>
     <AltitudeMeters>163.20000000000002</AltitudeMeters>
     <DistanceMeters>3039.2793980588585</DistanceMeters>
    </Trackpoint>
    <Trackpoint>
     <Time>2026-07-22T14:54:09+00:00</Time>
     <Position>
      <LatitudeDegrees>63.3126700</LatitudeDegrees>
      <LongitudeDegrees>18.3121400</LongitudeDegrees>
     </Position>
     <AltitudeMeters>160.57999999999998</AltitudeMeters>
     <DistanceMeters>3054.9327854867875</DistanceMeters>
    </Trackpoint>
    <Trackpoint>
     <Time>2026-07-22T14:54:17+00:00</Time>
     <Position>
      <LatitudeDegrees>63.3125700</LatitudeDegrees>
      <LongitudeDegrees>18.3124700</LongitudeDegrees>
     </Position>
     <AltitudeMeters>157.43</AltitudeMeters>
     <DistanceMeters>3074.8314763171315</DistanceMeters>
    </Trackpoint>
    <Trackpoint>
     <Time>2026-07-22T14:54:25+00:00</Time>
     <Position>
      <LatitudeDegrees>63.3125100</LatitudeDegrees>
      <LongitudeDegrees>18.3129100</LongitudeDegrees>
     </Position>
     <AltitudeMeters>153.69000000000003</AltitudeMeters>
     <DistanceMeters>3097.8165052786644</DistanceMeters>
    </Trackpoint>
    <Trackpoint>
     <Time>2026-07-22T14:54:33+00:00</Time>
     <Position>
      <LatitudeDegrees>63.3123800</LatitudeDegrees>
      <LongitudeDegrees>18.3133800</LongitudeDegrees>
     </Position>
     <AltitudeMeters>148.92000000000002</AltitudeMeters>
     <DistanceMeters>3125.4076108384147</DistanceMeters>
    </Trackpoint>
    <Trackpoint>
     <Time>2026-07-22T14:54:41+00:00</Time>
     <Position>
      <LatitudeDegrees>63.3123000</LatitudeDegrees>
      <LongitudeDegrees>18.3135800</LongitudeDegrees>
     </Position>
     <AltitudeMeters>145.81000000000003</AltitudeMeters>
     <DistanceMeters>3138.794860749812</DistanceMeters>
    </Trackpoint>
    <Trackpoint>
     <Time>2026-07-22T14:54:49+00:00</Time>
     <Position>
      <LatitudeDegrees>63.3122300</LatitudeDegrees>
      <LongitudeDegrees>18.3133500</LongitudeDegrees>
     </Position>
     <AltitudeMeters>144.61</AltitudeMeters>
     <DistanceMeters>3152.6826540399247</DistanceMeters>
    </Trackpoint>
    <Trackpoint>
     <Time>2026-07-22T14:54:57+00:00</Time>
     <Position>
      <LatitudeDegrees>63.3121200</LatitudeDegrees>
      <LongitudeDegrees>18.3128800</LongitudeDegrees>
     </Position>
     <AltitudeMeters>146.39000000000001</AltitudeMeters>
     <DistanceMeters>3179.174599206629</DistanceMeters>
    </Trackpoint>
    <Trackpoint>
     <Time>2026-07-22T14:55:05+00:00</Time>
     <Position>
      <LatitudeDegrees>63.3120400</LatitudeDegrees>
      <LongitudeDegrees>18.3122700</LongitudeDegrees>
     </Position>
     <AltitudeMeters>139.05</AltitudeMeters>
     <DistanceMeters>3210.9396006863417</DistanceMeters>
    </Trackpoint>
    <Trackpoint>
     <Time>2026-07-22T14:55:14+00:00</Time>
     <Position>
      <LatitudeDegrees>63.3119200</LatitudeDegrees>
      <LongitudeDegrees>18.3112200</LongitudeDegrees>
     </Position>
     <AltitudeMeters>139.75</AltitudeMeters>
     <DistanceMeters>3265.097958260255</DistanceMeters>
    </Trackpoint>
    <Trackpoint>
     <Time>2026-07-22T14:55:22+00:00</Time>
     <Position>
      <LatitudeDegrees>63.3119100</LatitudeDegrees>
      <LongitudeDegrees>18.3103800</LongitudeDegrees>
     </Position>
     <AltitudeMeters>139.35</AltitudeMeters>
     <DistanceMeters>3307.1014374941415</DistanceMeters>
    </Trackpoint>
    <Trackpoint>
     <Time>2026-07-22T14:55:30+00:00</Time>
     <Position>
      <LatitudeDegrees>63.3118700</LatitudeDegrees>
      <LongitudeDegrees>18.3094200</LongitudeDegrees>
     </Position>
     <AltitudeMeters>134.93</AltitudeMeters>
     <DistanceMeters>3355.2946594438827</DistanceMeters>
    </Trackpoint>
    <Trackpoint>
     <Time>2026-07-22T14:55:38+00:00</Time>
     <Position>
      <LatitudeDegrees>63.3118300</LatitudeDegrees>
      <LongitudeDegrees>18.3094400</LongitudeDegrees>
     </Position>
     <AltitudeMeters>135.04000000000002</AltitudeMeters>
     <DistanceMeters>3355.2946594438827</DistanceMeters>
    </Trackpoint>
    <Trackpoint>
     <Time>2026-07-22T14:55:46+00:00</Time>
     <Position>
      <LatitudeDegrees>63.3117400</LatitudeDegrees>
      <LongitudeDegrees>18.3087900</LongitudeDegrees>
     </Position>
     <AltitudeMeters>133.39000000000001</AltitudeMeters>
     <DistanceMeters>3389.295032077966</DistanceMeters>
    </Trackpoint>
    <Trackpoint>
     <Time>2026-07-22T14:55:54+00:00</Time>
     <Position>
      <LatitudeDegrees>63.3116400</LatitudeDegrees>
      <LongitudeDegrees>18.3093000</LongitudeDegrees>
     </Position>
     <AltitudeMeters>131.09</AltitudeMeters>
     <DistanceMeters>3417.111907721229</DistanceMeters>
    </Trackpoint>
    <Trackpoint>
     <Time>2026-07-22T14:56:02+00:00</Time>
     <Position>
      <LatitudeDegrees>63.3113900</LatitudeDegrees>
      <LongitudeDegrees>18.3105967</LongitudeDegrees>
     </Position>
     <AltitudeMeters>126.01</AltitudeMeters>
     <DistanceMeters>3487.64889458564</DistanceMeters>
    </Trackpoint>
    <Trackpoint>
     <Time>2026-07-22T14:56:10+00:00</Time>
     <Position>
      <LatitudeDegrees>63.3111400</LatitudeDegrees>
      <LongitudeDegrees>18.3118934</LongitudeDegrees>
     </Position>
     <AltitudeMeters>123.00000000000001</AltitudeMeters>
     <DistanceMeters>3558.1858814507555</DistanceMeters>
    </Trackpoint>
    <Trackpoint>
     <Time>2026-07-22T14:56:19+00:00</Time>
     <Position>
      <LatitudeDegrees>63.3108900</LatitudeDegrees>
      <LongitudeDegrees>18.3131900</LongitudeDegrees>
     </Position>
     <AltitudeMeters>121.09</AltitudeMeters>
     <DistanceMeters>3628.7228594627495</DistanceMeters>
    </Trackpoint>
    <Trackpoint>
     <Time>2026-07-22T14:56:27+00:00</Time>
     <Position>
      <LatitudeDegrees>63.3106300</LatitudeDegrees>
      <LongitudeDegrees>18.3144100</LongitudeDegrees>
     </Position>
     <AltitudeMeters>118.55000000000001</AltitudeMeters>
     <DistanceMeters>3696.2257835048317</DistanceMeters>
    </Trackpoint>
    <Trackpoint>
     <Time>2026-07-22T14:56:35+00:00</Time>
     <Position>
      <LatitudeDegrees>63.3103200</LatitudeDegrees>
      <LongitudeDegrees>18.3156900</LongitudeDegrees>
     </Position>
     <AltitudeMeters>117.60000000000001</AltitudeMeters>
     <DistanceMeters>3768.92087549398</DistanceMeters>
    </Trackpoint>
    <Trackpoint>
     <Time>2026-07-22T14:56:43+00:00</Time>
     <Position>
      <LatitudeDegrees>63.3102100</LatitudeDegrees>
      <LongitudeDegrees>18.3159700</LongitudeDegrees>
     </Position>
     <AltitudeMeters>117.62000000000002</AltitudeMeters>
     <DistanceMeters>3787.516485222519</DistanceMeters>
    </Trackpoint>
    <Trackpoint>
     <Time>2026-07-22T14:56:51+00:00</Time>
     <Position>
      <LatitudeDegrees>63.3102100</LatitudeDegrees>
      <LongitudeDegrees>18.3159800</LongitudeDegrees>
     </Position>
     <AltitudeMeters>117.62000000000002</AltitudeMeters>
     <DistanceMeters>3787.516485222519</DistanceMeters>
    </Trackpoint>
    <Trackpoint>
     <Time>2026-07-22T14:56:59+00:00</Time>
     <Position>
      <LatitudeDegrees>63.3099200</LatitudeDegrees>
      <LongitudeDegrees>18.3168000</LongitudeDegrees>
     </Position>
     <AltitudeMeters>118.32000000000001</AltitudeMeters>
     <DistanceMeters>3839.689637412438</DistanceMeters>
    </Trackpoint>
    <Trackpoint>
     <Time>2026-07-22T14:57:07+00:00</Time>
     <Position>
      <LatitudeDegrees>63.3096000</LatitudeDegrees>
      <LongitudeDegrees>18.3180700</LongitudeDegrees>
     </Position>
     <AltitudeMeters>122.22000000000001</AltitudeMeters>
     <DistanceMeters>3912.484491077922</DistanceMeters>
    </Trackpoint>
    <Trackpoint>
     <Time>2026-07-22T14:57:15+00:00</Time>
     <Position>
      <LatitudeDegrees>63.3095000</LatitudeDegrees>
      <LongitudeDegrees>18.3190100</LongitudeDegrees>
     </Position>
     <AltitudeMeters>126.86</AltitudeMeters>
     <DistanceMeters>3960.775739985073</DistanceMeters>
    </Trackpoint>
    <Trackpoint>
     <Time>2026-07-22T14:57:24+00:00</Time>
     <Position>
      <LatitudeDegrees>63.3094800</LatitudeDegrees>
      <LongitudeDegrees>18.3192300</LongitudeDegrees>
     </Position>
     <AltitudeMeters>127.35000000000002</AltitudeMeters>
     <DistanceMeters>3971.9967086880256</DistanceMeters>
    </Trackpoint>
    <Trackpoint>
     <Time>2026-07-22T14:57:32+00:00</Time>
     <Position>
      <LatitudeDegrees>63.3093300</LatitudeDegrees>
      <LongitudeDegrees>18.3200500</LongitudeDegrees>
     </Position>
     <AltitudeMeters>129.5</AltitudeMeters>
     <DistanceMeters>4016.2583439089426</DistanceMeters>
    </Trackpoint>
    <Trackpoint>
     <Time>2026-07-22T14:57:40+00:00</Time>
     <Position>
      <LatitudeDegrees>63.3091500</LatitudeDegrees>
      <LongitudeDegrees>18.3206700</LongitudeDegrees>
     </Position>
     <AltitudeMeters>131.19</AltitudeMeters>
     <DistanceMeters>4053.163530900243</DistanceMeters>
    </Trackpoint>
    <Trackpoint>
     <Time>2026-07-22T14:57:48+00:00</Time>
     <Position>
      <LatitudeDegrees>63.3089500</LatitudeDegrees>
      <LongitudeDegrees>18.3212200</LongitudeDegrees>
     </Position>
     <AltitudeMeters>129.63000000000002</AltitudeMeters>
     <DistanceMeters>4088.539564759916</DistanceMeters>
    </Trackpoint>
    <Trackpoint>
     <Time>2026-07-22T14:57:56+00:00</Time>
     <Position>
      <LatitudeDegrees>63.3085700</LatitudeDegrees>
      <LongitudeDegrees>18.3218700</LongitudeDegrees>
     </Position>
     <AltitudeMeters>128.82000000000002</AltitudeMeters>
     <DistanceMeters>4141.873964198012</DistanceMeters>
    </Trackpoint>
    <Trackpoint>
     <Time>2026-07-22T14:58:04+00:00</Time>
     <Position>
      <LatitudeDegrees>63.3085700</LatitudeDegrees>
      <LongitudeDegrees>18.3218800</LongitudeDegrees>
     </Position>
     <AltitudeMeters>128.81</AltitudeMeters>
     <DistanceMeters>4141.873964198012</DistanceMeters>
    </Trackpoint>
    <Trackpoint>
     <Time>2026-07-22T14:58:12+00:00</Time>
     <Position>
      <LatitudeDegrees>63.3084000</LatitudeDegrees>
      <LongitudeDegrees>18.3221900</LongitudeDegrees>
     </Position>
     <AltitudeMeters>128.92000000000002</AltitudeMeters>
     <DistanceMeters>4166.331166499883</DistanceMeters>
    </Trackpoint>
    <Trackpoint>
     <Time>2026-07-22T14:58:20+00:00</Time>
     <Position>
      <LatitudeDegrees>63.3081000</LatitudeDegrees>
      <LongitudeDegrees>18.3229300</LongitudeDegrees>
     </Position>
     <AltitudeMeters>130.16</AltitudeMeters>
     <DistanceMeters>4216.165083635807</DistanceMeters>
    </Trackpoint>
    <Trackpoint>
     <Time>2026-07-22T14:58:29+00:00</Time>
     <Position>
      <LatitudeDegrees>63.3080100</LatitudeDegrees>
      <LongitudeDegrees>18.3237200</LongitudeDegrees>
     </Position>
     <AltitudeMeters>132.06</AltitudeMeters>
     <DistanceMeters>4256.910186548053</DistanceMeters>
    </Trackpoint>
    <Trackpoint>
     <Time>2026-07-22T14:58:37+00:00</Time>
     <Position>
      <LatitudeDegrees>63.3080100</LatitudeDegrees>
      <LongitudeDegrees>18.3239200</LongitudeDegrees>
     </Position>
     <AltitudeMeters>133.13</AltitudeMeters>
     <DistanceMeters>4266.9088590628835</DistanceMeters>
    </Trackpoint>
    <Trackpoint>
     <Time>2026-07-22T14:58:45+00:00</Time>
     <Position>
      <LatitudeDegrees>63.3080100</LatitudeDegrees>
      <LongitudeDegrees>18.3239100</LongitudeDegrees>
     </Position>
     <AltitudeMeters>133.17000000000002</AltitudeMeters>
     <DistanceMeters>4266.9088590628835</DistanceMeters>
    </Trackpoint>
    <Trackpoint>
     <Time>2026-07-22T14:58:53+00:00</Time>
     <Position>
      <LatitudeDegrees>63.3080100</LatitudeDegrees>
      <LongitudeDegrees>18.3246000</LongitudeDegrees>
     </Position>
     <AltitudeMeters>135.54000000000002</AltitudeMeters>
     <DistanceMeters>4301.404279239065</DistanceMeters>
    </Trackpoint>
    <Trackpoint>
     <Time>2026-07-22T14:59:01+00:00</Time>
     <Position>
      <LatitudeDegrees>63.3080400</LatitudeDegrees>
      <LongitudeDegrees>18.3254500</LongitudeDegrees>
     </Position>
     <AltitudeMeters>136.35</AltitudeMeters>
     <DistanceMeters>4344.029584548086</DistanceMeters>
    </Trackpoint>
    <Trackpoint>
     <Time>2026-07-22T14:59:09+00:00</Time>
     <Position>
      <LatitudeDegrees>63.3080400</LatitudeDegrees>
      <LongitudeDegrees>18.3264300</LongitudeDegrees>
     </Position>
     <AltitudeMeters>135.84</AltitudeMeters>
     <DistanceMeters>4393.023028848008</DistanceMeters>
    </Trackpoint>
    <Trackpoint>
     <Time>2026-07-22T14:59:17+00:00</Time>
     <Position>
      <LatitudeDegrees>63.3079400</LatitudeDegrees>
      <LongitudeDegrees>18.3271600</LongitudeDegrees>
     </Position>
     <AltitudeMeters>136.09</AltitudeMeters>
     <DistanceMeters>4431.177523303007</DistanceMeters>
    </Trackpoint>
    <Trackpoint>
     <Time>2026-07-22T14:59:25+00:00</Time>
     <Position>
      <LatitudeDegrees>63.3077700</LatitudeDegrees>
      <LongitudeDegrees>18.3281000</LongitudeDegrees>
     </Position>
     <AltitudeMeters>136.20000000000002</AltitudeMeters>
     <DistanceMeters>4481.837307830372</DistanceMeters>
    </Trackpoint>
    <Trackpoint>
     <Time>2026-07-22T14:59:34+00:00</Time>
     <Position>
      <LatitudeDegrees>63.3073300</LatitudeDegrees>
      <LongitudeDegrees>18.3295800</LongitudeDegrees>
     </Position>
     <AltitudeMeters>130.03</AltitudeMeters>
     <DistanceMeters>4570.566061161785</DistanceMeters>
    </Trackpoint>
    <Trackpoint>
     <Time>2026-07-22T14:59:42+00:00</Time>
     <Position>
      <LatitudeDegrees>63.3068400</LatitudeDegrees>
      <LongitudeDegrees>18.3309700</LongitudeDegrees>
     </Position>
     <AltitudeMeters>128.93</AltitudeMeters>
     <DistanceMeters>4658.902527296071</DistanceMeters>
    </Trackpoint>
    <Trackpoint>
     <Time>2026-07-22T14:59:50+00:00</Time>
     <Position>
      <LatitudeDegrees>63.3066200</LatitudeDegrees>
      <LongitudeDegrees>18.3312800</LongitudeDegrees>
     </Position>
     <AltitudeMeters>128.76000000000002</AltitudeMeters>
     <DistanceMeters>4687.880539852905</DistanceMeters>
    </Trackpoint>
    <Trackpoint>
     <Time>2026-07-22T14:59:58+00:00</Time>
     <Position>
      <LatitudeDegrees>63.3065400</LatitudeDegrees>
      <LongitudeDegrees>18.3314000</LongitudeDegrees>
     </Position>
     <AltitudeMeters>128.77</AltitudeMeters>
     <DistanceMeters>4698.616883592455</DistanceMeters>
    </Trackpoint>
    <Trackpoint>
     <Time>2026-07-22T15:00:06+00:00</Time>
     <Position>
      <LatitudeDegrees>63.3062200</LatitudeDegrees>
      <LongitudeDegrees>18.3317200</LongitudeDegrees>
     </Position>
     <AltitudeMeters>128.82000000000002</AltitudeMeters>
     <DistanceMeters>4737.659962047594</DistanceMeters>
    </Trackpoint>
    <Trackpoint>
     <Time>2026-07-22T15:00:14+00:00</Time>
     <Position>
      <LatitudeDegrees>63.3058000</LatitudeDegrees>
      <LongitudeDegrees>18.3320300</LongitudeDegrees>
     </Position>
     <AltitudeMeters>128.54999999999998</AltitudeMeters>
     <DistanceMeters>4786.906671950564</DistanceMeters>
    </Trackpoint>
    <Trackpoint>
     <Time>2026-07-22T15:00:22+00:00</Time>
     <Position>
      <LatitudeDegrees>63.3053700</LatitudeDegrees>
      <LongitudeDegrees>18.3324500</LongitudeDegrees>
     </Position>
     <AltitudeMeters>128.17000000000002</AltitudeMeters>
     <DistanceMeters>4839.16816073673</DistanceMeters>
    </Trackpoint>
    <Trackpoint>
     <Time>2026-07-22T15:00:30+00:00</Time>
     <Position>
      <LatitudeDegrees>63.3048500</LatitudeDegrees>
      <LongitudeDegrees>18.3340400</LongitudeDegrees>
     </Position>
     <AltitudeMeters>122.62</AltitudeMeters>
     <DistanceMeters>4937.50033078424</DistanceMeters>
    </Trackpoint>
    <Trackpoint>
     <Time>2026-07-22T15:00:39+00:00</Time>
     <Position>
      <LatitudeDegrees>63.3047200</LatitudeDegrees>
      <LongitudeDegrees>18.3343100</LongitudeDegrees>
     </Position>
     <AltitudeMeters>121.66</AltitudeMeters>
     <DistanceMeters>4957.2886637543315</DistanceMeters>
    </Trackpoint>
    <Trackpoint>
     <Time>2026-07-22T15:00:47+00:00</Time>
     <Position>
      <LatitudeDegrees>63.3044400</LatitudeDegrees>
      <LongitudeDegrees>18.3349400</LongitudeDegrees>
     </Position>
     <AltitudeMeters>119.79</AltitudeMeters>
     <DistanceMeters>5001.598282514968</DistanceMeters>
    </Trackpoint>
    <Trackpoint>
     <Time>2026-07-22T15:00:55+00:00</Time>
     <Position>
      <LatitudeDegrees>63.3041700</LatitudeDegrees>
      <LongitudeDegrees>18.3351900</LongitudeDegrees>
     </Position>
     <AltitudeMeters>118.94</AltitudeMeters>
     <DistanceMeters>5034.144268332491</DistanceMeters>
    </Trackpoint>
    <Trackpoint>
     <Time>2026-07-22T15:01:03+00:00</Time>
     <Position>
      <LatitudeDegrees>63.3039400</LatitudeDegrees>
      <LongitudeDegrees>18.3342200</LongitudeDegrees>
     </Position>
     <AltitudeMeters>117.79</AltitudeMeters>
     <DistanceMeters>5088.985213014686</DistanceMeters>
    </Trackpoint>
    <Trackpoint>
     <Time>2026-07-22T15:01:11+00:00</Time>
     <Position>
      <LatitudeDegrees>63.3035800</LatitudeDegrees>
      <LongitudeDegrees>18.3332800</LongitudeDegrees>
     </Position>
     <AltitudeMeters>117.17</AltitudeMeters>
     <DistanceMeters>5150.745922295945</DistanceMeters>
    </Trackpoint>
    <Trackpoint>
     <Time>2026-07-22T15:01:19+00:00</Time>
     <Position>
      <LatitudeDegrees>63.3032300</LatitudeDegrees>
      <LongitudeDegrees>18.3326200</LongitudeDegrees>
     </Position>
     <AltitudeMeters>117.03</AltitudeMeters>
     <DistanceMeters>5201.799161223809</DistanceMeters>
    </Trackpoint>
    <Trackpoint>
     <Time>2026-07-22T15:01:27+00:00</Time>
     <Position>
      <LatitudeDegrees>63.3032200</LatitudeDegrees>
      <LongitudeDegrees>18.3326100</LongitudeDegrees>
     </Position>
     <AltitudeMeters>117.03</AltitudeMeters>
     <DistanceMeters>5201.799161223809</DistanceMeters>
    </Trackpoint>
    <Trackpoint>
     <Time>2026-07-22T15:01:35+00:00</Time>
     <Position>
      <LatitudeDegrees>63.3031700</LatitudeDegrees>
      <LongitudeDegrees>18.3325000</LongitudeDegrees>
     </Position>
     <AltitudeMeters>117.02000000000001</AltitudeMeters>
     <DistanceMeters>5209.62341200713</DistanceMeters>
    </Trackpoint>
    <Trackpoint>
     <Time>2026-07-22T15:01:44+00:00</Time>
     <Position>
      <LatitudeDegrees>63.3027200</LatitudeDegrees>
      <LongitudeDegrees>18.3319500</LongitudeDegrees>
     </Position>
     <AltitudeMeters>117.5</AltitudeMeters>
     <DistanceMeters>5266.760331677045</DistanceMeters>
    </Trackpoint>
    <Trackpoint>
     <Time>2026-07-22T15:01:52+00:00</Time>
     <Position>
      <LatitudeDegrees>63.3021900</LatitudeDegrees>
      <LongitudeDegrees>18.3315000</LongitudeDegrees>
     </Position>
     <AltitudeMeters>118.54</AltitudeMeters>
     <DistanceMeters>5329.893071040005</DistanceMeters>
    </Trackpoint>
    <Trackpoint>
     <Time>2026-07-22T15:02:00+00:00</Time>
     <Position>
      <LatitudeDegrees>63.3021800</LatitudeDegrees>
      <LongitudeDegrees>18.3315000</LongitudeDegrees>
     </Position>
     <AltitudeMeters>118.55000000000001</AltitudeMeters>
     <DistanceMeters>5329.893071040005</DistanceMeters>
    </Trackpoint>
    <Trackpoint>
     <Time>2026-07-22T15:02:08+00:00</Time>
     <Position>
      <LatitudeDegrees>63.3017600</LatitudeDegrees>
      <LongitudeDegrees>18.3311300</LongitudeDegrees>
     </Position>
     <AltitudeMeters>119.54</AltitudeMeters>
     <DistanceMeters>5380.165543622117</DistanceMeters>
    </Trackpoint>
    <Trackpoint>
     <Time>2026-07-22T15:02:16+00:00</Time>
     <Position>
      <LatitudeDegrees>63.3014300</LatitudeDegrees>
      <LongitudeDegrees>18.3312400</LongitudeDegrees>
     </Position>
     <AltitudeMeters>119.94</AltitudeMeters>
     <DistanceMeters>5417.302723743789</DistanceMeters>
    </Trackpoint>
    <Trackpoint>
     <Time>2026-07-22T15:02:24+00:00</Time>
     <Position>
      <LatitudeDegrees>63.3013000</LatitudeDegrees>
      <LongitudeDegrees>18.3313000</LongitudeDegrees>
     </Position>
     <AltitudeMeters>120.14000000000001</AltitudeMeters>
     <DistanceMeters>5432.078970551458</DistanceMeters>
    </Trackpoint>
   </Track>
   <Notes>Den korta banan för Byathlon 2026</Notes>
  </Course>
 </Courses>
</TrainingCenterDatabase>
