<?xml version="1.0" encoding="UTF-8"?>
<gpx creator="StravaGPX" version="1.1" xmlns="http://www.topografix.com/GPX/1/1" xmlns:xsi="http://www.w3.org/2001/XMLSchema-instance" xsi:schemaLocation="http://www.topografix.com/GPX/1/1 http://www.topografix.com/GPX/1/1/gpx.xsd">
 <metadata>
  <name>Byathlon 13,5km</name>
  <desc>Den långa distansen för Byathlon 2026</desc>
  <author>
   <name>Hugo Kjellsson</name>
   <link href="https://www.strava.com/athletes/124041293"/>
  </author>
  <copyright author="OpenStreetMap contributors">
   <year>2020</year>
   <license>https://www.openstreetmap.org/copyright</license>
  </copyright>
  <link href="https://www.strava.com/routes/3515004594276652930"/>
 </metadata>
 <trk>
  <name>Byathlon 13,5km</name>
  <desc>Den långa distansen för Byathlon 2026</desc>
  <link href="https://www.strava.com/routes/3515004594276652930"/>
  <type>running</type>
  <trkseg>
   <trkpt lat="63.301390000000005" lon="18.33125">
    <ele>120.03000000000002</ele>
   </trkpt>
   <trkpt lat="63.30176000000001" lon="18.33113">
    <ele>119.33</ele>
   </trkpt>
   <trkpt lat="63.30224000061024" lon="18.331539993188287">
    <ele>118.27000000000001</ele>
   </trkpt>
   <trkpt lat="63.30272000000001" lon="18.331950000000003">
    <ele>117.5</ele>
   </trkpt>
   <trkpt lat="63.30317000000001" lon="18.332500000000003">
    <ele>117.02000000000001</ele>
   </trkpt>
   <trkpt lat="63.303580000000004" lon="18.333280000000002">
    <ele>117.42</ele>
   </trkpt>
   <trkpt lat="63.30366000000001" lon="18.3335">
    <ele>117.42</ele>
   </trkpt>
   <trkpt lat="63.30366000000001" lon="18.33349">
    <ele>117.41000000000001</ele>
   </trkpt>
   <trkpt lat="63.30377000000001" lon="18.33379">
    <ele>117.57000000000001</ele>
   </trkpt>
   <trkpt lat="63.30377000000001" lon="18.33378">
    <ele>117.56</ele>
   </trkpt>
   <trkpt lat="63.30391" lon="18.33415">
    <ele>117.79</ele>
   </trkpt>
   <trkpt lat="63.30391" lon="18.33414">
    <ele>117.78</ele>
   </trkpt>
   <trkpt lat="63.304170000000006" lon="18.33519">
    <ele>119.22</ele>
   </trkpt>
   <trkpt lat="63.304260000000006" lon="18.3351">
    <ele>119.22</ele>
   </trkpt>
   <trkpt lat="63.304260000000006" lon="18.33511">
    <ele>119.19</ele>
   </trkpt>
   <trkpt lat="63.30444000000001" lon="18.334940000000003">
    <ele>120.12</ele>
   </trkpt>
   <trkpt lat="63.30447" lon="18.334860000000003">
    <ele>120.12</ele>
   </trkpt>
   <trkpt lat="63.30485" lon="18.33404">
    <ele>122.62</ele>
   </trkpt>
   <trkpt lat="63.3049" lon="18.33388">
    <ele>123.04</ele>
   </trkpt>
   <trkpt lat="63.30537" lon="18.33245">
    <ele>128.17000000000002</ele>
   </trkpt>
   <trkpt lat="63.30566" lon="18.33217">
    <ele>128.47</ele>
   </trkpt>
   <trkpt lat="63.305800000000005" lon="18.332030000000003">
    <ele>128.54999999999998</ele>
   </trkpt>
   <trkpt lat="63.30622" lon="18.33172">
    <ele>128.82000000000002</ele>
   </trkpt>
   <trkpt lat="63.306540000000005" lon="18.331400000000002">
    <ele>128.77</ele>
   </trkpt>
   <trkpt lat="63.30684000000001" lon="18.33097">
    <ele>128.93</ele>
   </trkpt>
   <trkpt lat="63.307140000000004" lon="18.33124">
    <ele>130.53</ele>
   </trkpt>
   <trkpt lat="63.30763500057091" lon="18.331639993135248">
    <ele>136.95000000000002</ele>
   </trkpt>
   <trkpt lat="63.308130000000006" lon="18.332040000000003">
    <ele>140.74</ele>
   </trkpt>
   <trkpt lat="63.308130000000006" lon="18.332030000000003">
    <ele>140.37000000000003</ele>
   </trkpt>
   <trkpt lat="63.30843000000001" lon="18.33211">
    <ele>143.25</ele>
   </trkpt>
   <trkpt lat="63.30894000000001" lon="18.332140000000003">
    <ele>146.67000000000002</ele>
   </trkpt>
   <trkpt lat="63.30944" lon="18.332150000000002">
    <ele>146.13</ele>
   </trkpt>
   <trkpt lat="63.309610000000006" lon="18.33219">
    <ele>144.17000000000002</ele>
   </trkpt>
   <trkpt lat="63.309740000000005" lon="18.332230000000003">
    <ele>143.23000000000002</ele>
   </trkpt>
   <trkpt lat="63.30995000000001" lon="18.332610000000003">
    <ele>144.78000000000003</ele>
   </trkpt>
   <trkpt lat="63.31033000000001" lon="18.33304">
    <ele>149.19000000000003</ele>
   </trkpt>
   <trkpt lat="63.31062000000001" lon="18.33329">
    <ele>152.2</ele>
   </trkpt>
   <trkpt lat="63.31091000000001" lon="18.33331">
    <ele>160.39000000000001</ele>
   </trkpt>
   <trkpt lat="63.311110000000006" lon="18.333170000000003">
    <ele>165.05</ele>
   </trkpt>
   <trkpt lat="63.31136000000001" lon="18.333170000000003">
    <ele>162.44</ele>
   </trkpt>
   <trkpt lat="63.311800000000005" lon="18.33369">
    <ele>166.43</ele>
   </trkpt>
   <trkpt lat="63.312070000000006" lon="18.33407">
    <ele>170.19</ele>
   </trkpt>
   <trkpt lat="63.31235" lon="18.33434">
    <ele>172.44</ele>
   </trkpt>
   <trkpt lat="63.3126" lon="18.334570000000003">
    <ele>174.36</ele>
   </trkpt>
   <trkpt lat="63.31288000000001" lon="18.334960000000002">
    <ele>177.87000000000003</ele>
   </trkpt>
   <trkpt lat="63.313190000000006" lon="18.335410000000003">
    <ele>176.25</ele>
   </trkpt>
   <trkpt lat="63.31340000000001" lon="18.335790000000003">
    <ele>180.17000000000002</ele>
   </trkpt>
   <trkpt lat="63.31374" lon="18.335910000000002">
    <ele>183.86</ele>
   </trkpt>
   <trkpt lat="63.31398000000001" lon="18.33596">
    <ele>179.46</ele>
   </trkpt>
   <trkpt lat="63.31427000000001" lon="18.33604">
    <ele>178.47000000000003</ele>
   </trkpt>
   <trkpt lat="63.314510000000006" lon="18.33611">
    <ele>178.37</ele>
   </trkpt>
   <trkpt lat="63.31474000000001" lon="18.33624">
    <ele>178.71</ele>
   </trkpt>
   <trkpt lat="63.314910000000005" lon="18.33649">
    <ele>181.23</ele>
   </trkpt>
   <trkpt lat="63.314980000000006" lon="18.337010000000003">
    <ele>183.60000000000002</ele>
   </trkpt>
   <trkpt lat="63.31505000000001" lon="18.33755">
    <ele>185.21</ele>
   </trkpt>
   <trkpt lat="63.31494000000001" lon="18.33793">
    <ele>186.69000000000003</ele>
   </trkpt>
   <trkpt lat="63.31474000000001" lon="18.33878">
    <ele>168.70000000000002</ele>
   </trkpt>
   <trkpt lat="63.31486" lon="18.33941">
    <ele>165.56</ele>
   </trkpt>
   <trkpt lat="63.315000000000005" lon="18.340220000000002">
    <ele>163.17000000000002</ele>
   </trkpt>
   <trkpt lat="63.315090000000005" lon="18.34094">
    <ele>161.4</ele>
   </trkpt>
   <trkpt lat="63.315180000000005" lon="18.341890000000003">
    <ele>157.85000000000002</ele>
   </trkpt>
   <trkpt lat="63.31526" lon="18.342830000000003">
    <ele>156.28</ele>
   </trkpt>
   <trkpt lat="63.31530000000001" lon="18.34438">
    <ele>156.60000000000002</ele>
   </trkpt>
   <trkpt lat="63.31528000000001" lon="18.345010000000002">
    <ele>157.75</ele>
   </trkpt>
   <trkpt lat="63.31537000000001" lon="18.34588">
    <ele>157.62</ele>
   </trkpt>
   <trkpt lat="63.315380000000005" lon="18.34662">
    <ele>157.12</ele>
   </trkpt>
   <trkpt lat="63.31546" lon="18.34732">
    <ele>153.96</ele>
   </trkpt>
   <trkpt lat="63.31548000000001" lon="18.34807">
    <ele>151.66000000000003</ele>
   </trkpt>
   <trkpt lat="63.31546" lon="18.348840000000003">
    <ele>149.28000000000003</ele>
   </trkpt>
   <trkpt lat="63.31564" lon="18.34915">
    <ele>145.17000000000002</ele>
   </trkpt>
   <trkpt lat="63.315900000000006" lon="18.349590000000003">
    <ele>141.35</ele>
   </trkpt>
   <trkpt lat="63.316010000000006" lon="18.35001">
    <ele>139.25</ele>
   </trkpt>
   <trkpt lat="63.31626000000001" lon="18.35028">
    <ele>135.94</ele>
   </trkpt>
   <trkpt lat="63.316500000000005" lon="18.350540000000002">
    <ele>131.81</ele>
   </trkpt>
   <trkpt lat="63.316660000000006" lon="18.35131">
    <ele>126.82000000000001</ele>
   </trkpt>
   <trkpt lat="63.316790000000005" lon="18.35172">
    <ele>123.73</ele>
   </trkpt>
   <trkpt lat="63.316810000000004" lon="18.351770000000002">
    <ele>137.47</ele>
   </trkpt>
   <trkpt lat="63.316990000000004" lon="18.351360000000003">
    <ele>135.17000000000002</ele>
   </trkpt>
   <trkpt lat="63.31732" lon="18.35059">
    <ele>130.83</ele>
   </trkpt>
   <trkpt lat="63.317550000000004" lon="18.350060000000003">
    <ele>127.7</ele>
   </trkpt>
   <trkpt lat="63.31768" lon="18.349770000000003">
    <ele>126.52000000000002</ele>
   </trkpt>
   <trkpt lat="63.31795" lon="18.3489">
    <ele>121.76</ele>
   </trkpt>
   <trkpt lat="63.31821000000001" lon="18.347890000000003">
    <ele>117.0</ele>
   </trkpt>
   <trkpt lat="63.31832000000001" lon="18.347630000000002">
    <ele>115.95</ele>
   </trkpt>
   <trkpt lat="63.31862" lon="18.34728">
    <ele>112.56</ele>
   </trkpt>
   <trkpt lat="63.318830000000005" lon="18.34699">
    <ele>110.44000000000001</ele>
   </trkpt>
   <trkpt lat="63.31898" lon="18.34684">
    <ele>109.28</ele>
   </trkpt>
   <trkpt lat="63.319340000000004" lon="18.345850000000002">
    <ele>107.91</ele>
   </trkpt>
   <trkpt lat="63.319410000000005" lon="18.34568">
    <ele>108.16000000000001</ele>
   </trkpt>
   <trkpt lat="63.319590000000005" lon="18.34569">
    <ele>108.26</ele>
   </trkpt>
   <trkpt lat="63.319750000000006" lon="18.3459">
    <ele>108.46000000000001</ele>
   </trkpt>
   <trkpt lat="63.31974" lon="18.3459">
    <ele>108.46000000000001</ele>
   </trkpt>
   <trkpt lat="63.31983" lon="18.346010000000003">
    <ele>108.65</ele>
   </trkpt>
   <trkpt lat="63.32000000000001" lon="18.34636">
    <ele>109.62</ele>
   </trkpt>
   <trkpt lat="63.32018000000001" lon="18.34644">
    <ele>110.59</ele>
   </trkpt>
   <trkpt lat="63.3203" lon="18.346410000000002">
    <ele>111.93</ele>
   </trkpt>
   <trkpt lat="63.32040000000001" lon="18.34638">
    <ele>112.76</ele>
   </trkpt>
   <trkpt lat="63.320600000000006" lon="18.345560000000003">
    <ele>113.10000000000001</ele>
   </trkpt>
   <trkpt lat="63.320780000000006" lon="18.344820000000002">
    <ele>113.66000000000001</ele>
   </trkpt>
   <trkpt lat="63.321130000000004" lon="18.343210000000003">
    <ele>117.65</ele>
   </trkpt>
   <trkpt lat="63.32124" lon="18.34272">
    <ele>120.15</ele>
   </trkpt>
   <trkpt lat="63.32151" lon="18.341820000000002">
    <ele>121.97000000000001</ele>
   </trkpt>
   <trkpt lat="63.32166000000001" lon="18.341450000000002">
    <ele>121.94</ele>
   </trkpt>
   <trkpt lat="63.32166000000001" lon="18.34146">
    <ele>121.94</ele>
   </trkpt>
   <trkpt lat="63.32190000000001" lon="18.34092">
    <ele>122.15</ele>
   </trkpt>
   <trkpt lat="63.32215000000001" lon="18.3396">
    <ele>122.88000000000001</ele>
   </trkpt>
   <trkpt lat="63.32218" lon="18.33949">
    <ele>123.05</ele>
   </trkpt>
   <trkpt lat="63.32262000000001" lon="18.33811">
    <ele>128.54999999999998</ele>
   </trkpt>
   <trkpt lat="63.32278000000001" lon="18.33775">
    <ele>132.17000000000002</ele>
   </trkpt>
   <trkpt lat="63.323190000000004" lon="18.336840000000002">
    <ele>138.1</ele>
   </trkpt>
   <trkpt lat="63.32347500276064" lon="18.33595000884979">
    <ele>140.24</ele>
   </trkpt>
   <trkpt lat="63.32376000000001" lon="18.335060000000002">
    <ele>139.34</ele>
   </trkpt>
   <trkpt lat="63.32421000709659" lon="18.333630022551624">
    <ele>138.39000000000001</ele>
   </trkpt>
   <trkpt lat="63.32466000000001" lon="18.3322">
    <ele>137.8</ele>
   </trkpt>
   <trkpt lat="63.32499500380961" lon="18.33115501220281">
    <ele>134.91</ele>
   </trkpt>
   <trkpt lat="63.32533000000001" lon="18.33011">
    <ele>131.53</ele>
   </trkpt>
   <trkpt lat="63.32556" lon="18.32944">
    <ele>129.07000000000002</ele>
   </trkpt>
   <trkpt lat="63.32593000000001" lon="18.328470000000003">
    <ele>123.22000000000001</ele>
   </trkpt>
   <trkpt lat="63.326060000000005" lon="18.32826">
    <ele>122.36000000000001</ele>
   </trkpt>
   <trkpt lat="63.326060000000005" lon="18.32827">
    <ele>122.36000000000001</ele>
   </trkpt>
   <trkpt lat="63.32623" lon="18.328020000000002">
    <ele>121.49000000000001</ele>
   </trkpt>
   <trkpt lat="63.32679" lon="18.32742">
    <ele>120.65</ele>
   </trkpt>
   <trkpt lat="63.32679" lon="18.327430000000003">
    <ele>120.65</ele>
   </trkpt>
   <trkpt lat="63.32719" lon="18.32702">
    <ele>120.77000000000001</ele>
   </trkpt>
   <trkpt lat="63.32743000000001" lon="18.326610000000002">
    <ele>120.83</ele>
   </trkpt>
   <trkpt lat="63.32743000000001" lon="18.326620000000002">
    <ele>120.83</ele>
   </trkpt>
   <trkpt lat="63.32768000000001" lon="18.326140000000002">
    <ele>121.31000000000002</ele>
   </trkpt>
   <trkpt lat="63.328" lon="18.3262">
    <ele>122.47000000000001</ele>
   </trkpt>
   <trkpt lat="63.328340000000004" lon="18.326240000000002">
    <ele>125.13000000000001</ele>
   </trkpt>
   <trkpt lat="63.32855000000001" lon="18.326340000000002">
    <ele>127.59</ele>
   </trkpt>
   <trkpt lat="63.328540000000004" lon="18.326340000000002">
    <ele>127.56</ele>
   </trkpt>
   <trkpt lat="63.32862000000001" lon="18.32638">
    <ele>129.07999999999998</ele>
   </trkpt>
   <trkpt lat="63.32882000000001" lon="18.32667">
    <ele>133.13</ele>
   </trkpt>
   <trkpt lat="63.32898000000001" lon="18.327150000000003">
    <ele>134.45000000000002</ele>
   </trkpt>
   <trkpt lat="63.32898000000001" lon="18.32714">
    <ele>134.43</ele>
   </trkpt>
   <trkpt lat="63.32931000000001" lon="18.328310000000002">
    <ele>143.52</ele>
   </trkpt>
   <trkpt lat="63.329440000000005" lon="18.32871">
    <ele>145.21</ele>
   </trkpt>
   <trkpt lat="63.329440000000005" lon="18.3287">
    <ele>145.25000000000003</ele>
   </trkpt>
   <trkpt lat="63.329530000000005" lon="18.329050000000002">
    <ele>146.72000000000003</ele>
   </trkpt>
   <trkpt lat="63.329550000000005" lon="18.327730000000003">
    <ele>145.81000000000003</ele>
   </trkpt>
   <trkpt lat="63.32949000000001" lon="18.32677">
    <ele>145.39000000000001</ele>
   </trkpt>
   <trkpt lat="63.32949000000001" lon="18.32676">
    <ele>145.39000000000001</ele>
   </trkpt>
   <trkpt lat="63.329460000000005" lon="18.326140000000002">
    <ele>145.14000000000001</ele>
   </trkpt>
   <trkpt lat="63.32945000000001" lon="18.32541">
    <ele>144.63</ele>
   </trkpt>
   <trkpt lat="63.32945000000001" lon="18.325400000000002">
    <ele>144.63</ele>
   </trkpt>
   <trkpt lat="63.32945000000001" lon="18.324150000000003">
    <ele>143.39000000000001</ele>
   </trkpt>
   <trkpt lat="63.32940000000001" lon="18.322560000000003">
    <ele>143.15</ele>
   </trkpt>
   <trkpt lat="63.329330000000006" lon="18.32214">
    <ele>143.25</ele>
   </trkpt>
   <trkpt lat="63.329330000000006" lon="18.32213">
    <ele>143.26</ele>
   </trkpt>
   <trkpt lat="63.32922000000001" lon="18.321450000000002">
    <ele>143.93</ele>
   </trkpt>
   <trkpt lat="63.32887" lon="18.320210000000003">
    <ele>143.74</ele>
   </trkpt>
   <trkpt lat="63.32844000000001" lon="18.3187">
    <ele>144.03000000000003</ele>
   </trkpt>
   <trkpt lat="63.32844000000001" lon="18.31869">
    <ele>144.02</ele>
   </trkpt>
   <trkpt lat="63.32824000000001" lon="18.31725">
    <ele>142.02</ele>
   </trkpt>
   <trkpt lat="63.328100000000006" lon="18.31558">
    <ele>139.1</ele>
   </trkpt>
   <trkpt lat="63.32815501077759" lon="18.31382500347266">
    <ele>135.66</ele>
   </trkpt>
   <trkpt lat="63.328210000000006" lon="18.312070000000002">
    <ele>132.55</ele>
   </trkpt>
   <trkpt lat="63.328250000000004" lon="18.310940000000002">
    <ele>131.88</ele>
   </trkpt>
   <trkpt lat="63.32827500851917" lon="18.309380001315674">
    <ele>132.74</ele>
   </trkpt>
   <trkpt lat="63.328300000000006" lon="18.307820000000003">
    <ele>132.95000000000002</ele>
   </trkpt>
   <trkpt lat="63.32832000474306" lon="18.306655001260513">
    <ele>132.78</ele>
   </trkpt>
   <trkpt lat="63.328340000000004" lon="18.305490000000002">
    <ele>132.58</ele>
   </trkpt>
   <trkpt lat="63.32838" lon="18.304350000000003">
    <ele>132.10000000000002</ele>
   </trkpt>
   <trkpt lat="63.328430000000004" lon="18.30289">
    <ele>132.63</ele>
   </trkpt>
   <trkpt lat="63.328430000000004" lon="18.301350000000003">
    <ele>132.13</ele>
   </trkpt>
   <trkpt lat="63.32838" lon="18.30083">
    <ele>131.85000000000002</ele>
   </trkpt>
   <trkpt lat="63.32838" lon="18.30082">
    <ele>131.85000000000002</ele>
   </trkpt>
   <trkpt lat="63.328255006919925" lon="18.2994149940113">
    <ele>131.44</ele>
   </trkpt>
   <trkpt lat="63.32813000000001" lon="18.29801">
    <ele>131.86</ele>
   </trkpt>
   <trkpt lat="63.32813000000001" lon="18.298000000000002">
    <ele>131.86</ele>
   </trkpt>
   <trkpt lat="63.327995007923185" lon="18.296494992881467">
    <ele>132.52</ele>
   </trkpt>
   <trkpt lat="63.32786000000001" lon="18.294990000000002">
    <ele>134.14000000000001</ele>
   </trkpt>
   <trkpt lat="63.327850000000005" lon="18.294990000000002">
    <ele>134.14000000000001</ele>
   </trkpt>
   <trkpt lat="63.32771500796506" lon="18.293479992735463">
    <ele>136.38</ele>
   </trkpt>
   <trkpt lat="63.327580000000005" lon="18.291970000000003">
    <ele>135.08</ele>
   </trkpt>
   <trkpt lat="63.327580000000005" lon="18.291960000000003">
    <ele>135.08</ele>
   </trkpt>
   <trkpt lat="63.32746" lon="18.29053">
    <ele>134.71</ele>
   </trkpt>
   <trkpt lat="63.32730500321691" lon="18.289579995237993">
    <ele>135.18</ele>
   </trkpt>
   <trkpt lat="63.32715" lon="18.28863">
    <ele>136.65</ele>
   </trkpt>
   <trkpt lat="63.32715" lon="18.28862">
    <ele>136.66</ele>
   </trkpt>
   <trkpt lat="63.32697500400666" lon="18.28755999400031">
    <ele>139.19</ele>
   </trkpt>
   <trkpt lat="63.326800000000006" lon="18.2865">
    <ele>142.91</ele>
   </trkpt>
   <trkpt lat="63.326800000000006" lon="18.28649">
    <ele>142.93</ele>
   </trkpt>
   <trkpt lat="63.32664500307926" lon="18.2855499948542">
    <ele>144.85</ele>
   </trkpt>
   <trkpt lat="63.32649000000001" lon="18.28461">
    <ele>146.68</ele>
   </trkpt>
   <trkpt lat="63.32620000000001" lon="18.28318">
    <ele>143.02</ele>
   </trkpt>
   <trkpt lat="63.32620000000001" lon="18.283170000000002">
    <ele>143.01</ele>
   </trkpt>
   <trkpt lat="63.32595000545539" lon="18.28192498933306">
    <ele>140.73000000000002</ele>
   </trkpt>
   <trkpt lat="63.325700000000005" lon="18.28068">
    <ele>138.75</ele>
   </trkpt>
   <trkpt lat="63.325700000000005" lon="18.28067">
    <ele>138.72</ele>
   </trkpt>
   <trkpt lat="63.325430000000004" lon="18.27927">
    <ele>136.84</ele>
   </trkpt>
   <trkpt lat="63.325100000000006" lon="18.27811">
    <ele>138.03</ele>
   </trkpt>
   <trkpt lat="63.325100000000006" lon="18.278100000000002">
    <ele>138.05</ele>
   </trkpt>
   <trkpt lat="63.324670000000005" lon="18.276960000000003">
    <ele>140.61</ele>
   </trkpt>
   <trkpt lat="63.32437" lon="18.275940000000002">
    <ele>141.81</ele>
   </trkpt>
   <trkpt lat="63.32417" lon="18.274430000000002">
    <ele>138.38</ele>
   </trkpt>
   <trkpt lat="63.32415" lon="18.274230000000003">
    <ele>137.96</ele>
   </trkpt>
   <trkpt lat="63.32415" lon="18.274220000000003">
    <ele>137.95000000000002</ele>
   </trkpt>
   <trkpt lat="63.32407000392867" lon="18.273154996481182">
    <ele>136.83</ele>
   </trkpt>
   <trkpt lat="63.32399" lon="18.272090000000002">
    <ele>135.66</ele>
   </trkpt>
   <trkpt lat="63.32399" lon="18.272080000000003">
    <ele>135.64000000000001</ele>
   </trkpt>
   <trkpt lat="63.32387500741067" lon="18.2706249941803">
    <ele>132.59</ele>
   </trkpt>
   <trkpt lat="63.32376000000001" lon="18.269170000000003">
    <ele>130.64000000000001</ele>
   </trkpt>
   <trkpt lat="63.32376000000001" lon="18.269160000000003">
    <ele>130.63000000000002</ele>
   </trkpt>
   <trkpt lat="63.32362001625592" lon="18.2676366519403">
    <ele>127.44</ele>
   </trkpt>
   <trkpt lat="63.32348001626411" lon="18.26611331869659">
    <ele>123.75000000000001</ele>
   </trkpt>
   <trkpt lat="63.32334" lon="18.264590000000002">
    <ele>121.54</ele>
   </trkpt>
   <trkpt lat="63.32334" lon="18.264580000000002">
    <ele>121.53000000000002</ele>
   </trkpt>
   <trkpt lat="63.32319500947957" lon="18.262934991784693">
    <ele>120.19</ele>
   </trkpt>
   <trkpt lat="63.32305" lon="18.261290000000002">
    <ele>119.89000000000001</ele>
   </trkpt>
   <trkpt lat="63.32305" lon="18.261280000000003">
    <ele>119.89000000000001</ele>
   </trkpt>
   <trkpt lat="63.32292" lon="18.25965">
    <ele>119.66000000000001</ele>
   </trkpt>
   <trkpt lat="63.322250000000004" lon="18.25967">
    <ele>120.51</ele>
   </trkpt>
   <trkpt lat="63.322" lon="18.25966">
    <ele>120.62</ele>
   </trkpt>
   <trkpt lat="63.321450000000006" lon="18.25967">
    <ele>119.98</ele>
   </trkpt>
   <trkpt lat="63.32144" lon="18.25967">
    <ele>119.98</ele>
   </trkpt>
   <trkpt lat="63.32110000000001" lon="18.25963">
    <ele>119.43</ele>
   </trkpt>
   <trkpt lat="63.3207" lon="18.25956">
    <ele>118.88000000000001</ele>
   </trkpt>
   <trkpt lat="63.3205" lon="18.259500000000003">
    <ele>118.89</ele>
   </trkpt>
   <trkpt lat="63.32049000000001" lon="18.259500000000003">
    <ele>118.89</ele>
   </trkpt>
   <trkpt lat="63.320029999886074" lon="18.259374997957067">
    <ele>119.0</ele>
   </trkpt>
   <trkpt lat="63.319570000000006" lon="18.25925">
    <ele>119.22</ele>
   </trkpt>
   <trkpt lat="63.31938" lon="18.259210000000003">
    <ele>119.46000000000001</ele>
   </trkpt>
   <trkpt lat="63.31933000000001" lon="18.25965">
    <ele>119.12</ele>
   </trkpt>
   <trkpt lat="63.31929" lon="18.259770000000003">
    <ele>119.13000000000001</ele>
   </trkpt>
   <trkpt lat="63.31902" lon="18.26059">
    <ele>119.76</ele>
   </trkpt>
   <trkpt lat="63.318920000000006" lon="18.26077">
    <ele>119.95000000000002</ele>
   </trkpt>
   <trkpt lat="63.318920000000006" lon="18.26078">
    <ele>119.96000000000001</ele>
   </trkpt>
   <trkpt lat="63.31842" lon="18.26178">
    <ele>125.04</ele>
   </trkpt>
   <trkpt lat="63.31779" lon="18.262870000000003">
    <ele>135.42000000000002</ele>
   </trkpt>
   <trkpt lat="63.31754000000001" lon="18.263370000000002">
    <ele>138.58</ele>
   </trkpt>
   <trkpt lat="63.31754000000001" lon="18.26338">
    <ele>138.58</ele>
   </trkpt>
   <trkpt lat="63.31748" lon="18.26352">
    <ele>138.94</ele>
   </trkpt>
   <trkpt lat="63.317330000000005" lon="18.26432">
    <ele>139.89000000000001</ele>
   </trkpt>
   <trkpt lat="63.31720000000001" lon="18.265890000000002">
    <ele>144.69</ele>
   </trkpt>
   <trkpt lat="63.317130000000006" lon="18.26614">
    <ele>145.46</ele>
   </trkpt>
   <trkpt lat="63.317130000000006" lon="18.266150000000003">
    <ele>145.46</ele>
   </trkpt>
   <trkpt lat="63.31712" lon="18.26623">
    <ele>145.62</ele>
   </trkpt>
   <trkpt lat="63.31701" lon="18.266460000000002">
    <ele>146.07</ele>
   </trkpt>
   <trkpt lat="63.316570000000006" lon="18.267190000000003">
    <ele>146.18</ele>
   </trkpt>
   <trkpt lat="63.31649" lon="18.26733">
    <ele>146.52</ele>
   </trkpt>
   <trkpt lat="63.31615000000001" lon="18.26817">
    <ele>147.58</ele>
   </trkpt>
   <trkpt lat="63.31604000000001" lon="18.26838">
    <ele>147.17000000000002</ele>
   </trkpt>
   <trkpt lat="63.315920000000006" lon="18.268800000000002">
    <ele>146.87</ele>
   </trkpt>
   <trkpt lat="63.31588000000001" lon="18.2693">
    <ele>147.9</ele>
   </trkpt>
   <trkpt lat="63.31593000000001" lon="18.26997">
    <ele>149.12</ele>
   </trkpt>
   <trkpt lat="63.315920000000006" lon="18.27032">
    <ele>149.12</ele>
   </trkpt>
   <trkpt lat="63.315780000000004" lon="18.27098">
    <ele>148.9</ele>
   </trkpt>
   <trkpt lat="63.31559000000001" lon="18.271810000000002">
    <ele>149.61</ele>
   </trkpt>
   <trkpt lat="63.315490000000004" lon="18.27259">
    <ele>150.57</ele>
   </trkpt>
   <trkpt lat="63.31550000000001" lon="18.273210000000002">
    <ele>151.76</ele>
   </trkpt>
   <trkpt lat="63.31550000000001" lon="18.273200000000003">
    <ele>151.75000000000003</ele>
   </trkpt>
   <trkpt lat="63.31553" lon="18.2742">
    <ele>153.62</ele>
   </trkpt>
   <trkpt lat="63.31550000000001" lon="18.27493">
    <ele>153.38000000000002</ele>
   </trkpt>
   <trkpt lat="63.31538500376589" lon="18.27596500399866">
    <ele>153.50000000000003</ele>
   </trkpt>
   <trkpt lat="63.315270000000005" lon="18.277">
    <ele>152.84</ele>
   </trkpt>
   <trkpt lat="63.31523000000001" lon="18.2774">
    <ele>152.08</ele>
   </trkpt>
   <trkpt lat="63.315200000000004" lon="18.27812">
    <ele>151.39000000000001</ele>
   </trkpt>
   <trkpt lat="63.315220000000004" lon="18.27974">
    <ele>152.55</ele>
   </trkpt>
   <trkpt lat="63.31517" lon="18.28086">
    <ele>153.61</ele>
   </trkpt>
   <trkpt lat="63.31515" lon="18.281540000000003">
    <ele>153.11</ele>
   </trkpt>
   <trkpt lat="63.31515" lon="18.282030000000002">
    <ele>152.13000000000002</ele>
   </trkpt>
   <trkpt lat="63.315250000000006" lon="18.2832">
    <ele>151.87</ele>
   </trkpt>
   <trkpt lat="63.315340000000006" lon="18.283980000000003">
    <ele>149.58</ele>
   </trkpt>
   <trkpt lat="63.315340000000006" lon="18.28397">
    <ele>149.6</ele>
   </trkpt>
   <trkpt lat="63.315580000000004" lon="18.285420000000002">
    <ele>145.55</ele>
   </trkpt>
   <trkpt lat="63.315720000000006" lon="18.286540000000002">
    <ele>139.87000000000003</ele>
   </trkpt>
   <trkpt lat="63.315740000000005" lon="18.28678">
    <ele>140.03</ele>
   </trkpt>
   <trkpt lat="63.315740000000005" lon="18.28677">
    <ele>140.03</ele>
   </trkpt>
   <trkpt lat="63.31582" lon="18.288400000000003">
    <ele>137.98000000000002</ele>
   </trkpt>
   <trkpt lat="63.31577000000001" lon="18.289430000000003">
    <ele>140.24</ele>
   </trkpt>
   <trkpt lat="63.31571" lon="18.29016">
    <ele>142.15</ele>
   </trkpt>
   <trkpt lat="63.315690000000004" lon="18.29041">
    <ele>142.94</ele>
   </trkpt>
   <trkpt lat="63.31567500397206" lon="18.291475000516886">
    <ele>144.33</ele>
   </trkpt>
   <trkpt lat="63.31566000000001" lon="18.292540000000002">
    <ele>143.9</ele>
   </trkpt>
   <trkpt lat="63.31555" lon="18.29361">
    <ele>143.58</ele>
   </trkpt>
   <trkpt lat="63.31533" lon="18.294610000000002">
    <ele>142.89000000000001</ele>
   </trkpt>
   <trkpt lat="63.315070000000006" lon="18.295530000000003">
    <ele>143.17000000000002</ele>
   </trkpt>
   <trkpt lat="63.314820000000005" lon="18.29645">
    <ele>143.86</ele>
   </trkpt>
   <trkpt lat="63.31441000516197" lon="18.297665017319122">
    <ele>144.53000000000003</ele>
   </trkpt>
   <trkpt lat="63.31400000000001" lon="18.29888">
    <ele>146.74</ele>
   </trkpt>
   <trkpt lat="63.313810000000004" lon="18.29946">
    <ele>147.24</ele>
   </trkpt>
   <trkpt lat="63.313445005282944" lon="18.300685015430723">
    <ele>145.01</ele>
   </trkpt>
   <trkpt lat="63.31308000000001" lon="18.301910000000003">
    <ele>143.38</ele>
   </trkpt>
   <trkpt lat="63.313010000000006" lon="18.30215">
    <ele>142.89000000000001</ele>
   </trkpt>
   <trkpt lat="63.3127050097233" lon="18.30381501754756">
    <ele>139.89000000000001</ele>
   </trkpt>
   <trkpt lat="63.312400000000004" lon="18.305480000000003">
    <ele>138.17000000000002</ele>
   </trkpt>
   <trkpt lat="63.312150005561556" lon="18.306740010926823">
    <ele>138.43</ele>
   </trkpt>
   <trkpt lat="63.31190000000001" lon="18.308">
    <ele>136.93000000000004</ele>
   </trkpt>
   <trkpt lat="63.311616681786255" lon="18.30947002899923">
    <ele>130.93</ele>
   </trkpt>
   <trkpt lat="63.3113333484377" lon="18.310940029077557">
    <ele>124.86000000000001</ele>
   </trkpt>
   <trkpt lat="63.31105000000001" lon="18.31241">
    <ele>122.49000000000001</ele>
   </trkpt>
   <trkpt lat="63.310840003445996" lon="18.313410007557426">
    <ele>120.56000000000002</ele>
   </trkpt>
   <trkpt lat="63.31063" lon="18.314410000000002">
    <ele>118.55000000000001</ele>
   </trkpt>
   <trkpt lat="63.310320000000004" lon="18.31569">
    <ele>117.60000000000001</ele>
   </trkpt>
   <trkpt lat="63.309920000000005" lon="18.3168">
    <ele>118.32000000000001</ele>
   </trkpt>
   <trkpt lat="63.309760000000004" lon="18.31744">
    <ele>119.95000000000002</ele>
   </trkpt>
   <trkpt lat="63.3096" lon="18.318070000000002">
    <ele>122.22000000000001</ele>
   </trkpt>
   <trkpt lat="63.30948000000001" lon="18.31923">
    <ele>127.35000000000002</ele>
   </trkpt>
   <trkpt lat="63.309380000000004" lon="18.31973">
    <ele>128.84</ele>
   </trkpt>
   <trkpt lat="63.30933" lon="18.320050000000002">
    <ele>129.5</ele>
   </trkpt>
   <trkpt lat="63.30915" lon="18.32067">
    <ele>131.19</ele>
   </trkpt>
   <trkpt lat="63.30895" lon="18.32122">
    <ele>129.63000000000002</ele>
   </trkpt>
   <trkpt lat="63.308620000000005" lon="18.32179">
    <ele>128.91</ele>
   </trkpt>
   <trkpt lat="63.308400000000006" lon="18.322190000000003">
    <ele>128.92000000000002</ele>
   </trkpt>
   <trkpt lat="63.3081" lon="18.322930000000003">
    <ele>130.16</ele>
   </trkpt>
   <trkpt lat="63.30801" lon="18.32372">
    <ele>132.67000000000002</ele>
   </trkpt>
   <trkpt lat="63.30801" lon="18.324460000000002">
    <ele>134.87</ele>
   </trkpt>
   <trkpt lat="63.30801" lon="18.324450000000002">
    <ele>134.91</ele>
   </trkpt>
   <trkpt lat="63.308040000000005" lon="18.32545">
    <ele>136.35</ele>
   </trkpt>
   <trkpt lat="63.308040000000005" lon="18.326430000000002">
    <ele>135.84</ele>
   </trkpt>
   <trkpt lat="63.307930000000006" lon="18.327280000000002">
    <ele>136.16</ele>
   </trkpt>
   <trkpt lat="63.307770000000005" lon="18.328100000000003">
    <ele>136.20000000000002</ele>
   </trkpt>
   <trkpt lat="63.30733000000001" lon="18.32957">
    <ele>130.02</ele>
   </trkpt>
   <trkpt lat="63.30684000000001" lon="18.33097">
    <ele>128.93</ele>
   </trkpt>
   <trkpt lat="63.306540000000005" lon="18.331400000000002">
    <ele>128.77</ele>
   </trkpt>
   <trkpt lat="63.30622" lon="18.33172">
    <ele>128.82000000000002</ele>
   </trkpt>
   <trkpt lat="63.305800000000005" lon="18.332030000000003">
    <ele>128.54999999999998</ele>
   </trkpt>
   <trkpt lat="63.30537" lon="18.33245">
    <ele>128.17000000000002</ele>
   </trkpt>
   <trkpt lat="63.305260000000004" lon="18.33277">
    <ele>127.16000000000003</ele>
   </trkpt>
   <trkpt lat="63.305260000000004" lon="18.332780000000003">
    <ele>127.18</ele>
   </trkpt>
   <trkpt lat="63.30485" lon="18.33404">
    <ele>122.62</ele>
   </trkpt>
   <trkpt lat="63.30458000000001" lon="18.33462">
    <ele>120.78000000000002</ele>
   </trkpt>
   <trkpt lat="63.30444000000001" lon="18.334940000000003">
    <ele>119.79</ele>
   </trkpt>
   <trkpt lat="63.304170000000006" lon="18.33519">
    <ele>118.94</ele>
   </trkpt>
   <trkpt lat="63.303940000000004" lon="18.334220000000002">
    <ele>117.79</ele>
   </trkpt>
   <trkpt lat="63.303580000000004" lon="18.333280000000002">
    <ele>117.17</ele>
   </trkpt>
   <trkpt lat="63.30315" lon="18.33248">
    <ele>117.03</ele>
   </trkpt>
   <trkpt lat="63.30315" lon="18.33247">
    <ele>117.03</ele>
   </trkpt>
   <trkpt lat="63.30272000000001" lon="18.331950000000003">
    <ele>117.5</ele>
   </trkpt>
   <trkpt lat="63.30230000052405" lon="18.331594994895248">
    <ele>118.27000000000001</ele>
   </trkpt>
   <trkpt lat="63.301880000000004" lon="18.33124">
    <ele>119.10000000000001</ele>
   </trkpt>
   <trkpt lat="63.301880000000004" lon="18.33123">
    <ele>119.12</ele>
   </trkpt>
   <trkpt lat="63.30176000000001" lon="18.33113">
    <ele>119.12</ele>
   </trkpt>
   <trkpt lat="63.30144000000001" lon="18.33123">
    <ele>119.95000000000002</ele>
   </trkpt>
  </trkseg>
 </trk>
</gpx>
